E+ Field datetime hh:mm drybulb dewpoint relhum rain snowdepth windspd winddir station pressure opaqskycvr OR totalskycvr visibility
E+ Units _ _ C C % mm cm m/s deg Pa tenths 1-10 km
Source Units _ _ C C % mm cm m/s deg milibar % km
name datetime hh:mm temp dew humidity precip snowdepth windspeed winddir sealevelpressure cloudcover visibility
DallasTexas 1/1/2019 0:00 5.9 2.4 78.11 0 0 11.2 331 1018.2 2 16
DallasTexas 1/1/2019 1:00 6 2.8 80.13 0 0 17.7 336 1018.9 2 16
DallasTexas 1/1/2019 2:00 5.7 3.2 83.93 0 0 22.9 338 1019.5 8.1 16
DallasTexas 1/1/2019 3:00 5.6 3.1 84.06 0 0 22.6 345 1020.4 67.3 15
DallasTexas 1/1/2019 4:00 5.4 2.8 82.99 0 0 21.8 343 1020.8 94 14.6
DallasTexas 1/1/2019 5:00 4.7 1.9 81.96 0 0 21.3 355 1021.5 99.4 13.6
DallasTexas 1/1/2019 6:00 4.1 1.3 81.9 0 0 21.4 357 1022.4 98.8 13.7
DallasTexas 1/1/2019 7:00 3.6 0.4 79.47 0 0 20 2 1023.8 86 14.5
DallasTexas 1/1/2019 8:00 3.2 -0.1 78.85 0 0 22.7 353 1025 99.1 15.7
DallasTexas 1/1/2019 9:00 3.2 -0.4 77.29 0 0 23.5 351 1026.3 100 15.8
DallasTexas 1/1/2019 10:00 3.4 -0.5 75.38 0 0 21.6 355 1027.3 100 16
DallasTexas 1/1/2019 11:00 3.2 -0.8 74.68 0 0 22.3 354 1027.4 83.1 16
DallasTexas 1/1/2019 12:00 3.3 -0.8 74.77 0 0 21.7 345 1027 100 15.9
DallasTexas 1/1/2019 13:00 4 -0.8 71.08 0 0 22.8 354 1025.8 100 16
DallasTexas 1/1/2019 14:00 4.3 -0.5 70.68 0 0 20.3 353 1025 100 15.9
DallasTexas 1/1/2019 15:00 4.6 -0.5 69.56 0 0 22.2 349 1024.6 97.5 16
DallasTexas 1/1/2019 16:00 4.2 -0.8 69.88 0 0 18.5 350 1025 94.7 16
DallasTexas 1/1/2019 17:00 3.6 -1.1 71.36 0 0 17.2 355 1025.1 85.3 16
DallasTexas 1/1/2019 18:00 3 -1.2 74.09 0 0 14.5 349 1025.5 81 16
DallasTexas 1/1/2019 19:00 2.9 -1.2 74.18 0 0 15.6 347 1026.3 96.6 16
DallasTexas 1/1/2019 20:00 2.9 -1.6 72.59 0 0 18.5 352 1026.2 99.2 16
DallasTexas 1/1/2019 21:00 2.6 -1.6 73.96 0 0 16.5 341 1026.4 97.4 16
DallasTexas 1/1/2019 22:00 2.5 -1.7 73.64 0 0 18.3 348 1026.4 96.1 16
DallasTexas 1/1/2019 23:00 2.4 -1.9 73.28 0 0 17.5 351 1025.7 95.3 16
DallasTexas 1/2/2019 0:00 2.1 -1.9 74.81 0 0 15.6 347 1025.9 100 16
DallasTexas 1/2/2019 1:00 1.7 -2.4 74.17 0 0 17.4 344 1026.1 98.9 16
DallasTexas 1/2/2019 2:00 1.6 -2.6 73.53 0 0 17.7 349 1026 100 16
DallasTexas 1/2/2019 3:00 1.5 -2.6 74 0 0 17.4 345 1026.3 97.3 15.9
DallasTexas 1/2/2019 4:00 1.3 -2.4 76.51 0.04 0 16 10 1025 98.8 15.4
DallasTexas 1/2/2019 5:00 0.8 -2 81.65 0.09 0 13.9 348 1024.7 98.7 13.6
DallasTexas 1/2/2019 6:00 0.7 -1.4 86.17 0.56 0 14 13 1023.9 82.2 11.9
DallasTexas 1/2/2019 7:00 0.7 -0.7 90.54 1.09 0 10.7 350 1024 99.8 8.4
DallasTexas 1/2/2019 8:00 0.7 -0.4 92.06 2.01 0 13.6 340 1024.2 98.4 6.3
DallasTexas 1/2/2019 9:00 0.5 -0.6 92.79 3.22 0 16.3 329 1025.5 90.4 5.1
DallasTexas 1/2/2019 10:00 0.8 -0.2 93.24 3.18 0 14.9 357 1025.2 94.3 5
DallasTexas 1/2/2019 11:00 0.8 0 94.25 1.95 0 16.3 338 1024.5 93.7 5.5
DallasTexas 1/2/2019 12:00 1 0.5 96.29 2.76 0 13.8 349 1023.2 96 5.1
DallasTexas 1/2/2019 13:00 1.5 0.8 95.03 2.58 0 11.9 357 1021.4 96.5 5.6
DallasTexas 1/2/2019 14:00 1.5 0.7 93.84 1.54 0 13.5 349 1020.5 96.7 9.6
DallasTexas 1/2/2019 15:00 1.6 0.7 93.96 1.02 0 16.2 323 1021 97.2 13.7
DallasTexas 1/2/2019 16:00 1.6 0.9 94.8 0.11 0 12.3 346 1019.7 87.9 12
DallasTexas 1/2/2019 17:00 2.3 1.3 92.97 0 0 17.1 331 1020.8 79.5 12.2
DallasTexas 1/2/2019 18:00 1.7 1.2 96.54 0 0 23.2 346 1019.3 99.4 6.6
DallasTexas 1/2/2019 19:00 1.7 1.2 96.56 0.41 0 15.7 5 1020.2 96.5 6.2
DallasTexas 1/2/2019 20:00 2.1 1.6 96.6 0.01 0 10.8 24 1019.6 97.2 15.7
DallasTexas 1/2/2019 21:00 2.6 1.9 94.75 0.01 0 11.1 351 1019.5 97.9 14.9
DallasTexas 1/2/2019 22:00 2.5 2 96.4 0 0 13 350 1019 100 12.3
DallasTexas 1/2/2019 23:00 2.6 2 96.4 0 0 10.8 337 1019 100 8.9
DallasTexas 1/3/2019 0:00 2.5 2 96.49 0.35 0 9.9 350 1018.9 100 4
DallasTexas 1/3/2019 1:00 2.2 1.8 96.91 0.22 0 13 335 1019.1 100 3.4
DallasTexas 1/3/2019 2:00 2.5 2 96.45 0.19 0 11.9 343 1018.5 100 4.5
DallasTexas 1/3/2019 3:00 2.5 2.1 97.36 0.31 0 12.8 332 1018.2 99.7 3.4
DallasTexas 1/3/2019 4:00 2.4 2.1 97.4 1.03 0 15.7 304 1018.6 95.2 4.2
DallasTexas 1/3/2019 5:00 2 1.5 96.76 1.28 0 16.7 334 1016.7 96.9 9.7
DallasTexas 1/3/2019 6:00 2.4 1.9 96.35 1.39 0 12.3 312 1017.8 87 4.5
DallasTexas 1/3/2019 7:00 2.4 1.9 96.42 2.81 0 10.5 11 1016.6 83.4 10.2
DallasTexas 1/3/2019 8:00 2.9 2.5 97.04 1.6 0 5.1 331 1017.2 87.9 8.4
DallasTexas 1/3/2019 9:00 3.2 2.5 95.69 2.37 0 12.3 321 1017.8 92.7 4.7
DallasTexas 1/3/2019 10:00 3.3 2.8 96.25 1.64 0 15.1 316 1017.8 92.1 4.7
DallasTexas 1/3/2019 11:00 3.5 2.6 93.82 0.94 0 13.5 316 1017 97.9 14.1
DallasTexas 1/3/2019 12:00 3.3 2.3 93.47 0.37 0 16.7 307 1016.2 97.9 4.2
DallasTexas 1/3/2019 13:00 4 3.1 93.93 0.25 0 11.6 320 1015 99.1 9.3
DallasTexas 1/3/2019 14:00 4.1 2.9 92.08 0.01 0 14.1 292 1014.4 99.4 12.3
DallasTexas 1/3/2019 15:00 4.1 3.1 93.14 0 0 15.3 296 1013.8 82 14.6
DallasTexas 1/3/2019 16:00 4.5 3 90.31 0 0 15.6 292 1013.8 82.9 16
DallasTexas 1/3/2019 17:00 4 2.4 89.5 0 0 19.7 283 1014.1 88.7 16
DallasTexas 1/3/2019 18:00 4 2.3 88.82 0 0 19 291 1014.4 99.6 15.8
DallasTexas 1/3/2019 19:00 3.9 1.8 85.9 0 0 20.4 293 1014.8 88.3 16
DallasTexas 1/3/2019 20:00 3.2 1 85.34 0 0 19.8 296 1015 99 16
DallasTexas 1/3/2019 21:00 3 0.8 85.77 0 0 16.9 298 1014.9 87 16
DallasTexas 1/3/2019 22:00 3 1.1 87.17 0 0 16.9 291 1014.7 98.6 16
DallasTexas 1/3/2019 23:00 2.9 1.1 87.72 0 0 15.9 288 1013.8 99.3 16
DallasTexas 1/4/2019 0:00 2.9 1.1 87.66 0 0 19.4 288 1013.5 93.7 16
DallasTexas 1/4/2019 1:00 2.9 1.1 87.64 0 0 17.3 289 1013.2 91.5 16
DallasTexas 1/4/2019 2:00 3 1.1 87.71 0 0 15.3 283 1013.1 97.7 15.9
DallasTexas 1/4/2019 3:00 3.2 1.1 86.41 0 0 18.8 288 1013.8 100 15.9
DallasTexas 1/4/2019 4:00 3.2 1.6 89.36 0.01 0 16.9 294 1014.6 99.9 10
DallasTexas 1/4/2019 5:00 3.2 1.7 89.85 0 0 20.9 291 1014.6 93.9 13.1
DallasTexas 1/4/2019 6:00 3.5 1.6 87.72 0 0 19.5 292 1014.7 100 15.8
DallasTexas 1/4/2019 7:00 3.4 1.6 88.29 0 0 17.9 295 1015.2 60.7 15.6
DallasTexas 1/4/2019 8:00 3.8 1.5 85.26 0 0 17.8 299 1016.1 63.7 16
DallasTexas 1/4/2019 9:00 4.8 1.3 78.02 0 0 15.2 317 1016.6 32.6 16
DallasTexas 1/4/2019 10:00 6.8 1.3 67.61 0 0 18.8 305 1017.4 16.3 16
DallasTexas 1/4/2019 11:00 9 1.4 58.92 0 0 15.6 303 1016.8 11.8 16
DallasTexas 1/4/2019 12:00 10.3 0.4 50.25 0 0 15.2 297 1016 1.7 16
DallasTexas 1/4/2019 13:00 12.4 0.4 43.94 0 0 15 289 1015.4 2.1 16
DallasTexas 1/4/2019 14:00 13.7 0 39.04 0 0 12.9 283 1014.8 15.9 16
DallasTexas 1/4/2019 15:00 14.6 0.2 37.58 0 0 12.5 304 1014.9 3 16
DallasTexas 1/4/2019 16:00 15.1 -0.2 35.24 0 0 12.3 299 1015.5 0.8 16
DallasTexas 1/4/2019 17:00 14.6 -0.5 35.57 0 0 8.6 280 1015.9 0 16
DallasTexas 1/4/2019 18:00 12.1 0.1 43.72 0 0 0 0 1016 0 16
DallasTexas 1/4/2019 19:00 8.5 1.6 61.9 0 0 2.6 28 1016.6 0 16
DallasTexas 1/4/2019 20:00 7.4 2.2 69.67 0 0 1.3 316 1017.1 14.2 16
DallasTexas 1/4/2019 21:00 7.3 1.4 66.11 0 0 2.9 310 1017.5 15.7 16
DallasTexas 1/4/2019 22:00 6.8 0.9 66.14 0 0 3.7 303 1017.7 3.3 16
DallasTexas 1/4/2019 23:00 6.4 0.7 66.57 0 0 3 300 1017.5 3.2 16
DallasTexas 1/5/2019 0:00 6.3 0.7 67.46 0 0 6.4 245 1017.4 2.3 16
DallasTexas 1/5/2019 1:00 6.5 0.6 65.7 0 0 5.2 249 1017.5 0 16
DallasTexas 1/5/2019 2:00 4.3 0.6 76.63 0 0 2.5 84 1017.8 13.4 16
DallasTexas 1/5/2019 3:00 3.7 0.6 79.95 0 0 2.1 295 1017.8 0 16
DallasTexas 1/5/2019 4:00 3.1 0.5 83.06 0 0 0.5 346 1018.2 0 16
DallasTexas 1/5/2019 5:00 3.3 0.4 81.74 0 0 2.9 297 1018 0 16
DallasTexas 1/5/2019 6:00 3.9 0.5 78.58 0 0 3.6 278 1018.4 0 16
DallasTexas 1/5/2019 7:00 4.2 1.1 80.1 0 0 3.2 70 1018.7 0 16
DallasTexas 1/5/2019 8:00 3.3 0.6 82.67 0 0 0.3 9 1019.1 0 16
DallasTexas 1/5/2019 9:00 6.9 3.2 77.58 0 0 0.4 348 1019.9 1.5 16
DallasTexas 1/5/2019 10:00 10.7 3.9 62.86 0 0 0.7 327 1020.6 2 16
DallasTexas 1/5/2019 11:00 14.4 4.1 49.89 0 0 4.7 357 1020.4 14.4 16
DallasTexas 1/5/2019 12:00 17.2 3.6 40.42 0 0 6.8 280 1019.7 1.5 16
DallasTexas 1/5/2019 13:00 18.9 3.2 35.21 0 0 2.5 350 1018.8 0 16
DallasTexas 1/5/2019 14:00 20.6 3.4 32.15 0 0 8.8 137 1018 0 16
DallasTexas 1/5/2019 15:00 21.5 4.8 33.7 0 0 12.2 165 1017.6 0 16
DallasTexas 1/5/2019 16:00 21.5 4.6 33.05 0 0 17.4 153 1017 13.5 16
DallasTexas 1/5/2019 17:00 20.1 4.5 35.71 0 0 13.6 160 1017.2 13.5 16
DallasTexas 1/5/2019 18:00 16.8 4.6 44.52 0 0 9.6 138 1018 13.5 16
DallasTexas 1/5/2019 19:00 14.9 5.8 54.46 0 0 9.7 162 1018.4 0 16
DallasTexas 1/5/2019 20:00 14.6 5.4 54.11 0 0 13.5 164 1018.7 0 16
DallasTexas 1/5/2019 21:00 13.7 5.4 57.21 0 0 10.3 228 1019.2 0 16
DallasTexas 1/5/2019 22:00 12.4 4.8 59.56 0 0 11.2 36 1019.4 0 16
DallasTexas 1/5/2019 23:00 12.3 4.3 58.19 0 0 11.1 161 1019 0 16
DallasTexas 1/6/2019 0:00 11.6 4.2 60.66 0 0 9.9 28 1018.6 0 16
DallasTexas 1/6/2019 1:00 11 3.8 61.41 0 0 12.5 156 1018.2 0 16
DallasTexas 1/6/2019 2:00 9.7 3.9 66.81 0 0 10.9 89 1018.3 1 16
DallasTexas 1/6/2019 3:00 9.9 3.6 64.54 0 0 11.6 26 1018.2 0 16
DallasTexas 1/6/2019 4:00 8.4 3.3 70.45 0 0 10.3 24 1018.3 0.8 16
DallasTexas 1/6/2019 5:00 8.3 3.3 70.7 0 0 11.8 2 1017.7 14.2 16
DallasTexas 1/6/2019 6:00 7.4 3 73.95 0 0 9 103 1018 0 16
DallasTexas 1/6/2019 7:00 7.4 3.3 74.94 0 0 14.8 149 1017.8 11.8 16
DallasTexas 1/6/2019 8:00 8.4 3.8 72.64 0 0 13.7 157 1018.1 34.2 16
DallasTexas 1/6/2019 9:00 10.7 5.3 69.29 0 0 16.6 164 1018.1 33.5 16
DallasTexas 1/6/2019 10:00 13.3 7.8 69.48 0 0 19.5 179 1019 27.2 16
DallasTexas 1/6/2019 11:00 15.2 9.4 68.19 0 0 19.1 174 1018.8 35.4 16
DallasTexas 1/6/2019 12:00 16.9 10.7 67.02 0 0 22.2 175 1017.4 29.9 16
DallasTexas 1/6/2019 13:00 18.5 11.2 62.59 0 0 24.3 183 1015.7 21.6 16
DallasTexas 1/6/2019 14:00 19 11.5 61.65 0 0 33 175 1014.5 25.9 16
DallasTexas 1/6/2019 15:00 18.1 12.3 69.09 0 0 31.1 172 1014.6 51.8 16
DallasTexas 1/6/2019 16:00 17.1 13.1 77.52 0 0 26.1 169 1014.6 57.8 16
DallasTexas 1/6/2019 17:00 17.4 13.2 76.28 0 0 23.2 159 1013.7 60.1 16
DallasTexas 1/6/2019 18:00 17.3 13.1 76.57 0 0 20.6 166 1014 46.7 16
DallasTexas 1/6/2019 19:00 16.9 13.1 78.37 0 0 16.2 158 1014.2 63.7 16
DallasTexas 1/6/2019 20:00 17 13.1 77.96 0 0 19.9 155 1013.6 63.2 16
DallasTexas 1/6/2019 21:00 16.8 13.2 79.1 0 0 23.3 161 1013.1 51.7 16
DallasTexas 1/6/2019 22:00 16.7 13.2 79.86 0 0 23.7 170 1013.6 31 16
DallasTexas 1/6/2019 23:00 16.3 13.7 84.8 0 0 24.7 174 1013.3 48.2 16
DallasTexas 1/7/2019 0:00 16.9 14.2 84.19 0 0 25.9 184 1013.3 85.6 16
DallasTexas 1/7/2019 1:00 17.3 14.7 85.1 0 0 27.1 196 1013.3 85.9 16
DallasTexas 1/7/2019 2:00 17.6 14.9 83.97 0 0 20.7 205 1014.8 85.6 15.1
DallasTexas 1/7/2019 3:00 17.4 15.1 86.71 0 0 22.2 187 1014.4 92.2 15.2
DallasTexas 1/7/2019 4:00 17.3 15.4 88.57 0 0 19 188 1014.4 54.6 16
DallasTexas 1/7/2019 5:00 17.5 15.5 87.92 0 0 20.8 189 1014.1 47.6 16
DallasTexas 1/7/2019 6:00 17.5 15.5 88.05 0 0 19.8 195 1014.2 43.6 16
DallasTexas 1/7/2019 7:00 17.5 15.6 88.14 0 0 15.3 199 1014.5 52.5 15.8
DallasTexas 1/7/2019 8:00 17.3 15.6 89.76 0 0 15.2 210 1015.5 36.9 16
DallasTexas 1/7/2019 9:00 17.7 15.6 87.68 0 0 15.3 214 1016.6 33.5 16
DallasTexas 1/7/2019 10:00 18.6 15.7 83.22 0 0 16.8 217 1016.9 24.4 16
DallasTexas 1/7/2019 11:00 20.6 14.7 68.96 0 0 15.9 230 1016.6 20.3 16
DallasTexas 1/7/2019 12:00 21.6 10.5 49.18 0 0 18 253 1015.6 28.3 16
DallasTexas 1/7/2019 13:00 22.8 9.1 41.48 0 0 16.1 227 1014.2 27.8 16
DallasTexas 1/7/2019 14:00 23.6 7.7 35.96 0 0 18.1 250 1013.9 33.5 16
DallasTexas 1/7/2019 15:00 23.2 5.3 31.31 0 0 16.4 230 1014.1 35.7 16
DallasTexas 1/7/2019 16:00 22.9 2.9 27.13 0 0 15.6 233 1014.2 33.5 16
DallasTexas 1/7/2019 17:00 21.6 1.7 26.92 0 0 10.6 223 1014.3 31.4 16
DallasTexas 1/7/2019 18:00 19.7 1.5 29.63 0 0 9.3 227 1014.8 21.5 16
DallasTexas 1/7/2019 19:00 18.1 2 34.08 0 0 6.3 225 1015.3 19.1 16
DallasTexas 1/7/2019 20:00 16.3 2.8 40.31 0 0 7.8 216 1015.6 25.8 16
DallasTexas 1/7/2019 21:00 15.7 3.4 43.71 0 0 8 232 1015.9 23.3 16
DallasTexas 1/7/2019 22:00 15.1 4.2 48.29 0 0 8.5 232 1016.6 30.9 16
DallasTexas 1/7/2019 23:00 13.6 4.7 54.8 0 0 6.4 295 1017 30.9 16
DallasTexas 1/8/2019 0:00 13.7 4.9 55.43 0 0 8.8 252 1016.9 28.1 16
DallasTexas 1/8/2019 1:00 13.3 4.6 55.8 0 0 5.6 305 1017.2 47.2 16
DallasTexas 1/8/2019 2:00 13.4 4.7 55.45 0 0 8.5 234 1017.4 47.2 16
DallasTexas 1/8/2019 3:00 12.7 4.7 58.19 0 0 9.8 240 1017.8 47.2 16
DallasTexas 1/8/2019 4:00 11.7 4.8 62.67 0 0 6.3 283 1018.1 28.1 16
DallasTexas 1/8/2019 5:00 11 4.7 64.92 0 0 6.5 326 1018.2 26.5 16
DallasTexas 1/8/2019 6:00 10.9 4.5 64.67 0 0 5.1 293 1019 26.5 16
DallasTexas 1/8/2019 7:00 10.3 4.5 66.98 0 0 5.9 299 1020.1 23.3 16
DallasTexas 1/8/2019 8:00 10 4.5 68.44 0 0 5.4 319 1021 43.9 16
DallasTexas 1/8/2019 9:00 12.6 5 59.83 0 0 15 324 1022.1 43.9 16
DallasTexas 1/8/2019 10:00 13.6 4.4 53.61 0 0 13.7 350 1023.3 43.9 16
DallasTexas 1/8/2019 11:00 15.5 4 46.36 0 0 24.4 22 1024.1 43.9 16
DallasTexas 1/8/2019 12:00 17 3.1 39.58 0 0 26 24 1023.5 43.9 16
DallasTexas 1/8/2019 13:00 18.6 1.8 32.44 0 0 26.5 29 1023.2 43.9 16
DallasTexas 1/8/2019 14:00 19 -0.2 27.43 0 0 26.2 42 1023.3 43.9 16
DallasTexas 1/8/2019 15:00 19.4 -0.9 25.38 0 0 22.9 33 1024.2 34.2 16
DallasTexas 1/8/2019 16:00 19 -1.7 24.66 0 0 23.9 32 1025 27.8 16
DallasTexas 1/8/2019 17:00 17.7 -1.9 26.21 0 0 22.4 22 1025.7 27.8 16
DallasTexas 1/8/2019 18:00 15.6 -3.3 27.18 0 0 18.5 23 1026.5 19.5 16
DallasTexas 1/8/2019 19:00 13.8 -2.8 31.72 0 0 17.2 9 1027.3 29.7 16
DallasTexas 1/8/2019 20:00 13.1 -3.2 32.08 0 0 17.8 359 1028.3 29.7 16
DallasTexas 1/8/2019 21:00 12.7 -3.4 32.45 0 0 19.5 11 1029 37.4 16
DallasTexas 1/8/2019 22:00 12 -3.1 34.58 0 0 16.4 9 1030 37.4 16
DallasTexas 1/8/2019 23:00 11.5 -2.9 36.6 0 0 18.4 13 1030.7 43.9 16
DallasTexas 1/9/2019 0:00 11 -3.5 35.94 0 0 18.1 17 1031 43.9 16
DallasTexas 1/9/2019 1:00 8.4 -2 47.95 0 0 13.3 348 1031.5 43.9 16
DallasTexas 1/9/2019 2:00 7.5 -1.3 53.68 0 0 13.2 349 1031.9 43.9 16
DallasTexas 1/9/2019 3:00 7.4 -1.4 53.6 0 0 12.1 346 1032.4 43.9 16
DallasTexas 1/9/2019 4:00 8.6 -2.8 44.7 0 0 14.9 11 1032.5 44.7 16
DallasTexas 1/9/2019 5:00 7.4 -2 51.27 0 0 11.1 350 1032.7 45 16
DallasTexas 1/9/2019 6:00 6.9 -1.7 54.23 0 0 12.6 354 1033.3 43.9 16
DallasTexas 1/9/2019 7:00 6.2 -1.6 57.44 0 0 10.4 343 1033.9 43.9 16
DallasTexas 1/9/2019 8:00 6.3 -1.7 56.58 0 0 7.8 353 1034.2 43.9 16
DallasTexas 1/9/2019 9:00 8.1 -3.6 43.56 0 0 13.4 25 1034.9 43.9 16
DallasTexas 1/9/2019 10:00 9.3 -4.5 37.52 0 0 16.7 32 1035.6 34.2 16
DallasTexas 1/9/2019 11:00 11.3 -5.7 29.92 0 0 16.7 46 1035.5 18.3 16
DallasTexas 1/9/2019 12:00 13 -7.2 23.91 0 0 18.2 47 1034.3 19 16
DallasTexas 1/9/2019 13:00 13.9 -7.1 22.81 0 0 18.1 37 1032.8 14.3 16
DallasTexas 1/9/2019 14:00 14.5 -7.7 20.76 0 0 19.1 32 1031.8 14.3 16
DallasTexas 1/9/2019 15:00 15 -7.6 20.26 0 0 13.1 34 1031.1 13.5 16
DallasTexas 1/9/2019 16:00 15.1 -6.9 21.36 0 0 15.6 44 1030.4 13.5 16
DallasTexas 1/9/2019 17:00 14 -6.1 24.33 0 0 7.4 44 1030.7 13.5 16
DallasTexas 1/9/2019 18:00 11.7 -3.9 33.37 0 0 4.9 40 1030.5 15.3 16
DallasTexas 1/9/2019 19:00 10.1 -2.9 39.93 0 0 4.9 35 1030.6 15.3 16
DallasTexas 1/9/2019 20:00 8.6 -1.9 47.9 0 0 7.1 38 1030.3 15.3 16
DallasTexas 1/9/2019 21:00 8.5 -1.9 48.05 0 0 6 32 1030.2 16.9 16
DallasTexas 1/9/2019 22:00 7 -1.7 53.95 0 0 5.3 38 1029.7 20.6 16
DallasTexas 1/9/2019 23:00 6.8 -1.3 56.4 0 0 4.1 48 1029.7 51.6 16
DallasTexas 1/10/2019 0:00 7 -1.8 53.4 0 0 7.3 56 1028.8 43.9 16
DallasTexas 1/10/2019 1:00 6.6 -2.5 52.56 0 0 4.8 43 1029 26.7 16
DallasTexas 1/10/2019 2:00 5.9 -2.7 53.89 0 0 0.3 360 1029.4 25.2 16
DallasTexas 1/10/2019 3:00 5.3 -1.7 60.39 0 0 0.1 2 1029.4 64.8 16
DallasTexas 1/10/2019 4:00 5.3 -1.6 61.02 0 0 4.1 67 1028.3 39 16
DallasTexas 1/10/2019 5:00 5.4 -2.5 57.08 0 0 4.6 90 1027.7 45.3 16
DallasTexas 1/10/2019 6:00 5.2 -1.9 60.41 0 0 4.6 103 1027.7 85.6 16
DallasTexas 1/10/2019 7:00 6.1 -2.3 55.14 0 0 6.5 101 1027.6 81.5 16
DallasTexas 1/10/2019 8:00 6.4 -2.1 54.68 0 0 6.6 121 1028 80.5 16
DallasTexas 1/10/2019 9:00 6.9 -2.5 51.09 0 0 10.6 134 1028.4 92.7 16
DallasTexas 1/10/2019 10:00 7.8 -3.5 44.7 0 0 13.7 130 1028.8 96 16
DallasTexas 1/10/2019 11:00 8.6 -3 44 0 0 13.1 128 1028.2 96.5 16
DallasTexas 1/10/2019 12:00 9.2 -2.6 43.37 0 0 15.1 129 1026.6 89.4 16
DallasTexas 1/10/2019 13:00 9.6 -2.2 43.66 0 0 13.1 135 1025.3 90.9 16
DallasTexas 1/10/2019 14:00 10.1 -1.6 43.88 0 0 11.5 159 1024.6 84.2 16
DallasTexas 1/10/2019 15:00 10.3 -1.2 44.72 0 0 11.7 149 1024.2 90.4 16
DallasTexas 1/10/2019 16:00 10.4 -0.8 46.07 0 0 16 134 1023.7 89.3 16
DallasTexas 1/10/2019 17:00 10.3 -0.5 47.01 0 0 19 130 1022.9 86.6 16
DallasTexas 1/10/2019 18:00 9.8 -0.4 49.22 0 0 14.6 133 1022.8 73 16
DallasTexas 1/10/2019 19:00 9.5 -0.4 49.99 0 0 19 139 1022.5 77.8 16
DallasTexas 1/10/2019 20:00 9.4 -0.6 49.33 0 0 18.3 135 1022.1 96.6 16
DallasTexas 1/10/2019 21:00 9.1 -0.7 50.3 0 0 16.6 139 1022.1 77 16
DallasTexas 1/10/2019 22:00 8.8 -0.6 51.63 0 0 17.7 135 1021.8 73 16
DallasTexas 1/10/2019 23:00 8.3 -0.1 55.46 0 0 13.2 137 1021.8 42.9 16
DallasTexas 1/11/2019 0:00 8 0.4 58.62 0 0 15.8 136 1021.3 64.9 16
DallasTexas 1/11/2019 1:00 8.1 0.7 59.57 0 0 15.9 134 1020.6 56.7 16
DallasTexas 1/11/2019 2:00 8.1 0.7 59.87 0 0 17.2 128 1020.8 74.1 16
DallasTexas 1/11/2019 3:00 7.6 0.8 61.73 0 0 16.1 135 1020.5 52.7 16
DallasTexas 1/11/2019 4:00 7.5 0.9 63.05 0 0 15.9 146 1020.4 59.6 16
DallasTexas 1/11/2019 5:00 7.9 1.2 62.59 0 0 17.6 133 1019.7 55.1 16
DallasTexas 1/11/2019 6:00 7.8 1.9 66.63 0.04 0 15 143 1019.6 79.4 16
DallasTexas 1/11/2019 7:00 7.6 3.4 74.68 0.11 0 17.5 136 1019.6 90.3 15.8
DallasTexas 1/11/2019 8:00 7.3 3.8 78.24 0.04 0 21.6 132 1019 93.6 15.9
DallasTexas 1/11/2019 9:00 7.6 4 78.31 0.12 0 18.8 154 1019.4 92.5 14.7
DallasTexas 1/11/2019 10:00 7.8 4.2 77.7 0.02 0 19 142 1019.4 89.1 16
DallasTexas 1/11/2019 11:00 8.6 4.3 73.9 0 0 19.3 144 1019.1 93.3 16
DallasTexas 1/11/2019 12:00 9.8 4.9 71.6 0.01 0 22.5 149 1017.5 82.3 16
DallasTexas 1/11/2019 13:00 11.4 5.2 65.67 0 0 23 155 1016.2 86.9 16
DallasTexas 1/11/2019 14:00 12 5 62.52 0 0 22.5 149 1015 93.9 16
DallasTexas 1/11/2019 15:00 12 4.7 60.64 0 0 20.7 156 1014.3 77 16
DallasTexas 1/11/2019 16:00 11.8 5.3 64.25 0.03 0 13.1 147 1014.2 94.8 12.7
DallasTexas 1/11/2019 17:00 11.2 6.5 72.34 0.17 0 12.9 159 1014.2 94.7 10.6
DallasTexas 1/11/2019 18:00 10.3 8.8 90.25 0.83 0 3.6 17 1014.5 92.2 5.7
DallasTexas 1/11/2019 19:00 10.9 9.5 91.22 0.84 0 16.7 146 1014 88.1 8.1
DallasTexas 1/11/2019 20:00 10.7 9.9 94.67 1.06 0 16.5 146 1013.6 81.4 6.3
DallasTexas 1/11/2019 21:00 11 10.6 96.94 3.01 0 19.5 154 1013.6 90.4 5
DallasTexas 1/11/2019 22:00 11.4 10.8 95.53 1.49 0 17.4 146 1013.2 77.7 10.6
DallasTexas 1/11/2019 23:00 11.5 10.8 95.52 0.51 0 16.8 163 1012.8 83.9 13.2
DallasTexas 1/12/2019 0:00 11.7 11.1 96.08 0.13 0 17 161 1012.2 85.2 11.5
DallasTexas 1/12/2019 1:00 12 11.3 95.51 0.23 0 14.7 159 1011.4 85.5 11.2
DallasTexas 1/12/2019 2:00 12.7 11.8 94.07 0.05 0 15.1 195 1011.6 84.2 15
DallasTexas 1/12/2019 3:00 12.9 12 94.13 0 0 12.1 241 1012.1 83.2 15
DallasTexas 1/12/2019 4:00 11.3 9 85.52 0 0 22.5 283 1012.7 64.1 15.4
DallasTexas 1/12/2019 5:00 8.8 4.6 75.41 0 0 20.7 291 1013.2 27.8 16
DallasTexas 1/12/2019 6:00 7.6 3.4 74.91 0.25 0 17.1 285 1013.8 16 16
DallasTexas 1/12/2019 7:00 7 3 75.77 0 0 17.9 274 1014.4 18.4 16
DallasTexas 1/12/2019 8:00 6.7 2.6 75.02 0 0 18.3 275 1015.2 17.2 16
DallasTexas 1/12/2019 9:00 7.1 2.2 71.13 0 0 25 283 1015.9 19.7 16
DallasTexas 1/12/2019 10:00 7.7 2.5 69.7 0 0 26.2 288 1017.4 34.3 16
DallasTexas 1/12/2019 11:00 7.9 2.4 68.18 0 0 28.6 292 1018.4 67 16
DallasTexas 1/12/2019 12:00 7.7 2.1 67.6 0 0 28.8 294 1018.6 93.1 16
DallasTexas 1/12/2019 13:00 7.7 2.3 68.82 0 0 26.6 301 1018.4 99.6 16
DallasTexas 1/12/2019 14:00 7.5 2.1 68.49 0 0 26.9 306 1018.7 100 16
DallasTexas 1/12/2019 15:00 7.6 1.8 66.57 0 0 25.9 312 1019.5 97.3 16
DallasTexas 1/12/2019 16:00 7.9 1.6 64.37 0 0 25.1 313 1020.6 83 16
DallasTexas 1/12/2019 17:00 7.6 1.5 65.48 0 0 23.2 319 1021.6 88.7 16
DallasTexas 1/12/2019 18:00 7.3 1 64.03 0 0 29.6 332 1022.7 83.1 16
DallasTexas 1/12/2019 19:00 7 1 65.57 0 0 25.8 320 1023.7 100 16
DallasTexas 1/12/2019 20:00 6.5 0.6 65.69 0 0 26.7 330 1024.4 88.7 16
DallasTexas 1/12/2019 21:00 6.5 0.9 67.53 0 0 20.3 330 1024.9 88.7 16
DallasTexas 1/12/2019 22:00 6.2 0.5 66.58 0 0 22.1 338 1025.4 88.7 16
DallasTexas 1/12/2019 23:00 5.9 0.1 66.53 0 0 20.5 338 1025.7 85.9 16
DallasTexas 1/13/2019 0:00 5.4 -0.2 67.06 0 0 20.6 346 1025.4 85.9 16
DallasTexas 1/13/2019 1:00 5.4 -0.5 66.14 0 0 20.1 347 1025.9 85.9 16
DallasTexas 1/13/2019 2:00 5.1 -0.6 66.8 0 0 22 355 1026.2 85.5 16
DallasTexas 1/13/2019 3:00 5 -0.5 67.58 0 0 21.5 335 1026.8 85.5 16
DallasTexas 1/13/2019 4:00 4.5 -0.3 71.21 0 0 18.1 336 1027.2 85.9 16
DallasTexas 1/13/2019 5:00 4 -0.7 71.55 0 0 22.7 340 1027.8 85.5 16
DallasTexas 1/13/2019 6:00 3.5 -1.1 71.56 0 0 18.9 341 1028.5 85.5 16
DallasTexas 1/13/2019 7:00 3.4 -1.5 70.3 0 0 20.5 353 1029.1 99.6 16
DallasTexas 1/13/2019 8:00 3.4 -1.4 71.01 0 0 18.7 358 1029.8 99.6 16
DallasTexas 1/13/2019 9:00 3.4 -1.4 70.74 0 0 19.1 355 1030.4 99.6 16
DallasTexas 1/13/2019 10:00 3.8 -1.2 69.47 0 0 18.2 9 1031.2 99.6 16
DallasTexas 1/13/2019 11:00 4.1 -1.1 68.91 0 0 15.1 347 1031.7 99.6 16
DallasTexas 1/13/2019 12:00 4.2 -1.1 68.79 0 0 15.4 5 1031.3 99.6 16
DallasTexas 1/13/2019 13:00 4.2 -0.9 69.57 0 0 15.9 5 1030.2 99.6 16
DallasTexas 1/13/2019 14:00 4.5 -0.7 68.78 0 0 16.7 352 1029.9 98.7 15.9
DallasTexas 1/13/2019 15:00 4.2 -0.6 70.99 0 0 15.3 347 1029.8 100 15.5
DallasTexas 1/13/2019 16:00 3.7 -0.7 72.86 0 0 14.8 331 1030.2 100 15.8
DallasTexas 1/13/2019 17:00 3.2 -1 73.77 0 0 15.4 349 1030.1 100 16
DallasTexas 1/13/2019 18:00 3 -1.2 74.31 0 0 16.4 346 1030.3 85.9 16
DallasTexas 1/13/2019 19:00 2.9 -1.2 74.53 0 0 15.2 4 1030.8 85.9 16
DallasTexas 1/13/2019 20:00 2.8 -1.2 74.94 0 0 14.7 10 1031 100 16
DallasTexas 1/13/2019 21:00 2.8 -1.1 75.14 0 0 13.3 16 1031.4 85.9 16
DallasTexas 1/13/2019 22:00 2.8 -1.1 75.2 0 0 10.5 2 1031.7 85.9 16
DallasTexas 1/13/2019 23:00 2.6 -1.1 76.45 0 0 12.3 12 1031.9 85.9 16
DallasTexas 1/14/2019 0:00 2.6 -1.1 76.61 0 0 13.2 353 1032.1 85.9 16
DallasTexas 1/14/2019 1:00 2.4 -1.2 77.14 0 0 11 348 1032 85.9 16
DallasTexas 1/14/2019 2:00 2.4 -1.1 77.42 0 0 9.3 359 1032.2 85.9 16
DallasTexas 1/14/2019 3:00 2.4 -1.2 77.41 0 0 9.8 2 1032.3 85.9 16
DallasTexas 1/14/2019 4:00 2.4 -1.2 77.42 0 0 10.6 345 1032.2 85.9 16
DallasTexas 1/14/2019 5:00 2.4 -1.1 77.43 0 0 10.4 354 1031.9 85.9 16
DallasTexas 1/14/2019 6:00 2.4 -1.2 77.41 0 0 9.8 359 1032 85.9 16
DallasTexas 1/14/2019 7:00 2.3 -1.2 77.57 0 0 8.4 1 1032.4 100 15.9
DallasTexas 1/14/2019 8:00 2.7 -1.2 75.5 0 0 10.2 6 1032.3 100 14.6
DallasTexas 1/14/2019 9:00 2.8 -1.2 75.27 0 0 9 8 1032.6 100 14.6
DallasTexas 1/14/2019 10:00 3.1 -0.8 75.41 0 0 8.3 322 1033.2 100 14.6
DallasTexas 1/14/2019 11:00 3.8 -0.8 72.08 0 0 7.1 355 1033.2 100 14.6
DallasTexas 1/14/2019 12:00 4.4 -0.3 71.64 0 0 3.1 324 1032.2 100 14.6
DallasTexas 1/14/2019 13:00 5.3 0.1 69.33 0 0 2.3 16 1030.7 91.2 14.6
DallasTexas 1/14/2019 14:00 6.2 0.3 66.24 0 0 6.2 342 1029.8 45.3 15.1
DallasTexas 1/14/2019 15:00 7.3 0.4 61.54 0 0 3.6 325 1029.1 29.7 15.1
DallasTexas 1/14/2019 16:00 7.3 0.1 60.09 0 0 4.6 322 1028.5 1.4 15.1
DallasTexas 1/14/2019 17:00 7.2 0.3 61.7 0 0 4.6 307 1028.9 13.4 15.1
DallasTexas 1/14/2019 18:00 6.1 0.3 66.2 0 0 2.5 9 1028.7 13.5 14.7
DallasTexas 1/14/2019 19:00 5.2 0.2 70.22 0 0 1.8 12 1028.9 16.3 15.1
DallasTexas 1/14/2019 20:00 4.3 0.5 76.25 0 0 6.5 73 1028.9 18.9 15.8
DallasTexas 1/14/2019 21:00 3.5 0.5 80.67 0 0 5.6 90 1029 21.9 15.3
DallasTexas 1/14/2019 22:00 3.1 0.3 81.7 0 0 6.5 125 1029.1 15.4 15.7
DallasTexas 1/14/2019 23:00 2.7 0.2 83.58 0 0 9.2 127 1028.7 16.2 15.2
DallasTexas 1/15/2019 0:00 2.4 0.3 85.79 0 0 6.7 110 1028.6 34.9 14.9
DallasTexas 1/15/2019 1:00 2.2 0.1 86.35 0 0 7.3 111 1027.9 65.5 14.2
DallasTexas 1/15/2019 2:00 2.7 0.6 86.31 0 0 7.9 120 1028 85.1 13.3
DallasTexas 1/15/2019 3:00 3.2 1.1 85.82 0 0 9 134 1028.1 85.9 13.9
DallasTexas 1/15/2019 4:00 3.3 1.1 85.64 0 0 7 118 1027.9 85.9 13.5
DallasTexas 1/15/2019 5:00 3.3 1.2 85.79 0 0 8.2 120 1026.9 85.9 12.9
DallasTexas 1/15/2019 6:00 3.3 1.2 85.83 0 0 9.2 123 1026.9 97.7 13
DallasTexas 1/15/2019 7:00 3.4 1.6 87.88 0 0 9.9 157 1027.3 99.3 12.4
DallasTexas 1/15/2019 8:00 3.6 1.7 86.89 0 0 9.4 143 1027.7 99.2 11.1
DallasTexas 1/15/2019 9:00 4.3 1.8 83.59 0 0 9.2 150 1027.6 94.4 11.5
DallasTexas 1/15/2019 10:00 5.2 2.4 81.95 0 0 10.8 153 1028.4 99.3 12.3
DallasTexas 1/15/2019 11:00 6.2 2.5 77.3 0 0 11.8 159 1028.4 100 13.8
DallasTexas 1/15/2019 12:00 7 2.7 74.1 0 0 11.4 152 1027.6 100 14.9
DallasTexas 1/15/2019 13:00 7.9 3.2 72.16 0 0 13.2 168 1026 98.4 15
DallasTexas 1/15/2019 14:00 8.6 3.4 69.86 0 0 14.9 150 1024.7 99.6 15
DallasTexas 1/15/2019 15:00 9.1 3.7 68.63 0 0 13.1 144 1024.1 96.9 15
DallasTexas 1/15/2019 16:00 9.5 3.7 67.38 0 0 15.6 147 1023.8 96.9 15
DallasTexas 1/15/2019 17:00 9.1 3.7 69.04 0 0 16.8 149 1023.4 97.3 15
DallasTexas 1/15/2019 18:00 8.9 3.8 70.52 0 0 16.2 154 1023.5 87.3 14.8
DallasTexas 1/15/2019 19:00 8.9 4 71.65 0 0 14.9 163 1024.1 80.6 15.1
DallasTexas 1/15/2019 20:00 8.9 4.1 72.03 0 0 11.6 176 1024.6 93.6 15.1
DallasTexas 1/15/2019 21:00 8.8 4.3 73.35 0 0 13.4 163 1024.2 86.3 16
DallasTexas 1/15/2019 22:00 8.8 4.8 75.91 0 0 13.9 162 1024 82.1 15.1
DallasTexas 1/15/2019 23:00 8.8 4.9 76.16 0 0 13 165 1024.2 99.6 15.1
DallasTexas 1/16/2019 0:00 8.9 5.4 78.91 0 0 13.1 171 1023.7 85.5 16
DallasTexas 1/16/2019 1:00 8.9 5.5 79.53 0 0 12.8 169 1023.2 85.8 15.8
DallasTexas 1/16/2019 2:00 8.7 5.9 82.48 0 0 12 164 1023 71.9 15.7
DallasTexas 1/16/2019 3:00 7.8 5.7 86.43 0 0 12.6 149 1023 35.2 14.8
DallasTexas 1/16/2019 4:00 7.3 5.3 87.19 0 0 12.7 154 1022.8 48.2 13.4
DallasTexas 1/16/2019 5:00 7.6 5.9 88.92 0 0 12.8 123 1022.3 97.3 11
DallasTexas 1/16/2019 6:00 7.8 6.3 90.12 0 0 9.8 331 1022.4 85.4 8.5
DallasTexas 1/16/2019 7:00 7.9 7.1 94.56 0 0 8.7 125 1022.6 99.7 5.5
DallasTexas 1/16/2019 8:00 8.2 7.6 96.01 0 0 9.6 150 1022.8 98.9 3.2
DallasTexas 1/16/2019 9:00 9 8.3 95.37 0 0 12.7 168 1022.9 99.5 2.5
DallasTexas 1/16/2019 10:00 10 9 93.34 0 0 12.7 171 1023.1 82.2 3.7
DallasTexas 1/16/2019 11:00 11.4 9.8 89.6 0 0 16.1 199 1023.2 82.9 9.4
DallasTexas 1/16/2019 12:00 12.3 9.9 85.19 0 0 14.7 184 1022.4 83 13.3
DallasTexas 1/16/2019 13:00 13.8 10.4 80.26 0 0 18.6 181 1020.8 100 15.2
DallasTexas 1/16/2019 14:00 15.4 10.8 74.25 0 0 20.2 190 1019.2 99.3 15.8
DallasTexas 1/16/2019 15:00 16 11.2 73.09 0 0 25.5 193 1018.5 92.5 16
DallasTexas 1/16/2019 16:00 15.9 11.5 75.31 0 0 20.5 176 1018.3 86.4 16
DallasTexas 1/16/2019 17:00 14.9 11.5 80.27 0 0 24.8 175 1017.7 84.1 16
DallasTexas 1/16/2019 18:00 13.9 11.5 85.74 0 0 25.7 173 1017.6 84.4 15.8
DallasTexas 1/16/2019 19:00 13.5 11.5 88.09 0 0 23.7 179 1018.2 95.8 15.7
DallasTexas 1/16/2019 20:00 13.1 11.6 90.08 0 0 25.8 177 1018 83.1 14.3
DallasTexas 1/16/2019 21:00 12.9 11.6 91.54 0 0 28 182 1018 100 14.5
DallasTexas 1/16/2019 22:00 13.4 12.1 92.03 0 0 21.4 187 1018.1 100 13.3
DallasTexas 1/16/2019 23:00 13.8 12.6 92.67 0 0 24.9 193 1018.1 100 12.9
DallasTexas 1/17/2019 0:00 14.3 12.9 91.28 0 0 22 203 1018 100 13.4
DallasTexas 1/17/2019 1:00 14.4 12.9 91.11 0 0 23.3 197 1017 99.3 14.8
DallasTexas 1/17/2019 2:00 14.4 13 90.81 0 0 21.1 199 1016.5 96.2 15.6
DallasTexas 1/17/2019 3:00 14.5 12.8 89.46 0 0 20.3 207 1016.5 87.2 16
DallasTexas 1/17/2019 4:00 13.8 12.3 90.23 0 0 17 207 1016.3 42.7 16
DallasTexas 1/17/2019 5:00 13.1 12.1 93.34 0 0 15.2 215 1015.9 40.3 16
DallasTexas 1/17/2019 6:00 12.5 11.2 91.29 0 0 13.9 220 1016.3 22.1 16
DallasTexas 1/17/2019 7:00 11.8 10.5 92.28 0 0 6.3 275 1017 21.8 16
DallasTexas 1/17/2019 8:00 11.6 9 84.09 0 0 18.5 278 1018.3 29.7 16
DallasTexas 1/17/2019 9:00 10.9 8.4 84.5 0 0 18.9 304 1019.5 90.3 15.8
DallasTexas 1/17/2019 10:00 11.8 8.7 81.48 0 0 22.7 314 1020.4 96.8 16
DallasTexas 1/17/2019 11:00 12.7 8.3 74.35 0 0 26.2 322 1021.3 99 16
DallasTexas 1/17/2019 12:00 12.7 7.9 72.77 0 0 23.6 323 1021.3 96 16
DallasTexas 1/17/2019 13:00 13.2 7.7 69.03 0 0 19.6 334 1020.2 88.6 16
DallasTexas 1/17/2019 14:00 13.9 7.6 65.63 0 0 16.1 332 1019.2 32.2 16
DallasTexas 1/17/2019 15:00 14 7.2 63.3 0 0 15.1 318 1019.6 29.4 16
DallasTexas 1/17/2019 16:00 14.3 6.8 60.93 0 0 13 335 1019.5 44.2 16
DallasTexas 1/17/2019 17:00 13.7 6.4 61.17 0 0 9.7 332 1020.1 29.7 16
DallasTexas 1/17/2019 18:00 11.5 6.2 69.61 0 0 8.3 13 1019.8 25.8 16
DallasTexas 1/17/2019 19:00 10.5 5.9 73.06 0 0 4.3 349 1020.2 17.6 16
DallasTexas 1/17/2019 20:00 9.6 5.5 75.69 0 0 2.1 357 1020.4 27.8 16
DallasTexas 1/17/2019 21:00 8.1 5.3 82.18 0 0 1.8 9 1019.8 23.9 16
DallasTexas 1/17/2019 22:00 7.5 4.9 84.09 0 0 5.2 27 1019.4 33.4 16
DallasTexas 1/17/2019 23:00 6.5 4.6 87.78 0 0 0.4 2 1019.8 33.1 16
DallasTexas 1/18/2019 0:00 5.9 4.1 87.71 0 0 0.7 6 1019.5 33.1 16
DallasTexas 1/18/2019 1:00 6 4.4 89.26 0 0 1.5 47 1019 29.9 15.4
DallasTexas 1/18/2019 2:00 6 4.5 90.26 0 0 7 307 1018.3 35.4 15.6
DallasTexas 1/18/2019 3:00 5.8 4.4 90.44 0 0 6.8 112 1017.8 37.4 15.3
DallasTexas 1/18/2019 4:00 6.3 4.8 90.21 0 0 7.7 112 1017.6 38.1 13.8
DallasTexas 1/18/2019 5:00 6.5 5.3 92 0 0 13 129 1016.2 39.3 12.8
DallasTexas 1/18/2019 6:00 7 6.2 94.15 0 0 11.6 129 1015.5 46.8 11.6
DallasTexas 1/18/2019 7:00 7.1 6.2 93.87 0 0 11.2 123 1015.3 45.2 10.2
DallasTexas 1/18/2019 8:00 7.5 6.6 94.07 0 0 12.9 135 1014.5 33.2 7
DallasTexas 1/18/2019 9:00 8.8 7.7 92.78 0 0 14.5 144 1014.2 34.8 8.3
DallasTexas 1/18/2019 10:00 10.5 8.9 89.81 0 0 18.2 150 1013.7 41.3 10.8
DallasTexas 1/18/2019 11:00 12.5 10 84.6 0 0 22.7 155 1012.6 81.8 11.9
DallasTexas 1/18/2019 12:00 14.8 11.1 78.62 0 0 24 176 1011.3 80.4 13.5
DallasTexas 1/18/2019 13:00 15.1 12.1 82.32 0 0 24.7 184 1009.2 92.2 15
DallasTexas 1/18/2019 14:00 16.6 13.3 80.61 0 0 23.1 183 1007.2 95.8 15.8
DallasTexas 1/18/2019 15:00 18.3 14.5 78.53 0 0 26.1 161 1005.6 75 15.9
DallasTexas 1/18/2019 16:00 19.5 15.5 77.86 0 0 27.2 174 1004.3 85.3 15.9
DallasTexas 1/18/2019 17:00 18.9 15.5 80.74 0 0 29 178 1003.4 74.5 15.9
DallasTexas 1/18/2019 18:00 18.5 15.5 83.03 0 0 27 180 1003.8 82.4 16
DallasTexas 1/18/2019 19:00 17.9 15.5 86.17 0 0 27.7 179 1003.6 66.2 16
DallasTexas 1/18/2019 20:00 17.8 15.5 86.66 0 0 24.4 180 1003.8 65.4 16
DallasTexas 1/18/2019 21:00 17.4 15.5 88.37 0 0 24.6 181 1003.5 56.7 16
DallasTexas 1/18/2019 22:00 17.5 15.3 86.69 0.03 0 24 233 1004.9 73.4 16
DallasTexas 1/18/2019 23:00 17.2 13.2 77.59 0.1 0 20.5 259 1005.8 45.9 16
DallasTexas 1/19/2019 0:00 16.5 8.5 59.19 0.09 0 10.5 223 1005.1 66.7 16
DallasTexas 1/19/2019 1:00 15.2 8.2 62.8 0 0 18.8 242 1005.1 32.1 16
DallasTexas 1/19/2019 2:00 12.2 7.5 73.43 0 0 33.3 300 1006.9 63.2 16
DallasTexas 1/19/2019 3:00 9.3 4.9 73.98 0 0 44.7 311 1008 99.2 16
DallasTexas 1/19/2019 4:00 6.4 2 73.51 0.01 0 41.7 318 1009.8 99.8 16
DallasTexas 1/19/2019 5:00 3.8 0.6 79.76 0 0 48.8 321 1012 93.5 13.1
DallasTexas 1/19/2019 6:00 2 0.2 88 0.25 0 39.4 315 1013.4 79.1 10.5
DallasTexas 1/19/2019 7:00 2.7 -1.2 75.45 0 0 43.6 323 1015.4 96.2 16
DallasTexas 1/19/2019 8:00 2 -2 74.99 0 0 42.6 328 1017 95.2 16
DallasTexas 1/19/2019 9:00 1.6 -3.1 71.13 0 0 40.9 320 1018.3 95.2 16
DallasTexas 1/19/2019 10:00 2.1 -3.3 67.62 0 0 43.2 326 1019.4 93.3 16
DallasTexas 1/19/2019 11:00 2.6 -3.7 62.93 0 0 44.5 316 1020.6 90.5 16
DallasTexas 1/19/2019 12:00 2.9 -4 60.74 0 0 46.5 323 1021.1 80.9 16
DallasTexas 1/19/2019 13:00 3.9 -3.8 57.22 0 0 41.4 332 1020.9 66.3 16
DallasTexas 1/19/2019 14:00 3.7 -4.1 56.53 0 0 42 332 1020.8 78.2 16
DallasTexas 1/19/2019 15:00 3.8 -4 56.72 0 0 39.4 326 1021.3 65.7 16
DallasTexas 1/19/2019 16:00 4.1 -4.1 55.02 0 0 40 331 1022.7 44.9 16
DallasTexas 1/19/2019 17:00 3.6 -4.6 55.07 0 0 33.6 336 1023.9 28.5 16
DallasTexas 1/19/2019 18:00 2.6 -5.1 56.84 0 0 24.6 335 1024.8 19.7 16
DallasTexas 1/19/2019 19:00 2 -5.2 59.02 0 0 21.7 329 1025.9 13.7 16
DallasTexas 1/19/2019 20:00 1.7 -5.2 60.2 0 0 22.5 341 1026.6 0 16
DallasTexas 1/19/2019 21:00 1.2 -5.9 59.2 0 0 30.6 347 1027.3 0 16
DallasTexas 1/19/2019 22:00 0.6 -6.3 60.12 0 0 21.1 344 1026.9 12.5 16
DallasTexas 1/19/2019 23:00 -0.2 -6.2 63.97 0 0 23.8 344 1027.9 14.5 16
DallasTexas 1/20/2019 0:00 -0.5 -6.6 63.39 0 0 23.7 356 1029 23.8 16
DallasTexas 1/20/2019 1:00 -1.1 -6.6 66.03 0 0 20.1 351 1028.9 24.7 16
DallasTexas 1/20/2019 2:00 -1.6 -6.6 68.44 0 0 16.4 354 1028.7 41.5 16
DallasTexas 1/20/2019 3:00 -1.9 -6.8 69.05 0 0 17 355 1029 15 16
DallasTexas 1/20/2019 4:00 -2.4 -6.8 71.93 0 0 11.8 355 1028.6 1.8 16
DallasTexas 1/20/2019 5:00 -2.8 -6.8 73.56 0 0 9.9 331 1028.5 13.5 16
DallasTexas 1/20/2019 6:00 -3.3 -6.8 76.92 0 0 7.1 340 1028.3 41.5 16
DallasTexas 1/20/2019 7:00 -3.4 -6.6 78.29 0 0 7.7 346 1028.8 43.9 16
DallasTexas 1/20/2019 8:00 -2.7 -6.2 76.68 0 0 6.5 334 1029.4 43.9 16
DallasTexas 1/20/2019 9:00 -1.2 -5.8 71.31 0 0 4.4 342 1029.7 43.9 16
DallasTexas 1/20/2019 10:00 0.5 -5.5 64.21 0 0 3.7 322 1030.4 43.9 16
DallasTexas 1/20/2019 11:00 2.3 -5.9 54.67 0 0 0 0 1030.3 43.9 16
DallasTexas 1/20/2019 12:00 4 -5.7 49.51 0 0 2.4 9 1029.7 43.6 16
DallasTexas 1/20/2019 13:00 5.2 -5.9 44.71 0 0 2.8 28 1028.2 43.9 16
DallasTexas 1/20/2019 14:00 6.7 -5.7 40.95 0 0 9.4 123 1026.2 43.9 16
DallasTexas 1/20/2019 15:00 7.4 -5.3 40.34 0 0 9.1 143 1025.3 43.9 16
DallasTexas 1/20/2019 16:00 7.9 -4.8 40.29 0 0 13.8 140 1024.7 43.9 16
DallasTexas 1/20/2019 17:00 7.9 -4.5 41.22 0 0 14 155 1024.2 13.5 16
DallasTexas 1/20/2019 18:00 6.3 -4 47.84 0 0 13.8 134 1024 27.2 16
DallasTexas 1/20/2019 19:00 5 -4 52.13 0 0 7.7 136 1024.1 27.2 16
DallasTexas 1/20/2019 20:00 4.8 -4.1 52.55 0 0 12.2 156 1023.9 43.9 16
DallasTexas 1/20/2019 21:00 4.3 -4 54.76 0 0 12 149 1024 50 16
DallasTexas 1/20/2019 22:00 4.3 -4 54.9 0 0 13.7 156 1023.4 49.5 16
DallasTexas 1/20/2019 23:00 4.2 -3.3 58.16 0 0 13.4 156 1023.2 30.9 16
DallasTexas 1/21/2019 0:00 3.8 -3 60.96 0 0 15.8 153 1022.6 30.9 16
DallasTexas 1/21/2019 1:00 3.8 -2.9 61.82 0 0 14 155 1022.5 50 16
DallasTexas 1/21/2019 2:00 3.2 -2.8 64.8 0 0 14.6 143 1022.1 30.9 16
DallasTexas 1/21/2019 3:00 3.1 -2.8 65.47 0 0 14.5 148 1022.3 50 16
DallasTexas 1/21/2019 4:00 2.7 -2.7 67.51 0 0 17.1 150 1021.5 30.9 16
DallasTexas 1/21/2019 5:00 2.5 -2.4 70.08 0 0 15.3 149 1021.5 30.9 16
DallasTexas 1/21/2019 6:00 2.4 -2.4 70.98 0 0 18 155 1021.4 30.9 16
DallasTexas 1/21/2019 7:00 2.5 -2.4 70.4 0 0 18.3 153 1021.1 25.3 16
DallasTexas 1/21/2019 8:00 2.6 -2.1 70.94 0 0 21.2 156 1021.1 42 16
DallasTexas 1/21/2019 9:00 3.8 -1.5 68.58 0 0 20.6 157 1021 43.9 16
DallasTexas 1/21/2019 10:00 5.9 -0.5 63.91 0 0 21.6 159 1021.1 43.9 16
DallasTexas 1/21/2019 11:00 7.9 1 61.72 0 0 29.1 168 1021.2 43.9 16
DallasTexas 1/21/2019 12:00 10 1.4 55.05 0 0 32.2 160 1020 44.3 16
DallasTexas 1/21/2019 13:00 12 2.1 50.71 0 0 29.9 162 1018.2 43.9 16
DallasTexas 1/21/2019 14:00 13.8 3 48.28 0 0 29.7 159 1016.4 43.9 16
DallasTexas 1/21/2019 15:00 14.6 4 49.08 0 0 32.6 155 1015.2 43.9 16
DallasTexas 1/21/2019 16:00 14.4 4.4 51.05 0 0 35.9 161 1014.5 44.6 16
DallasTexas 1/21/2019 17:00 14.1 5 54.43 0 0 31.7 157 1014.1 43.9 16
DallasTexas 1/21/2019 18:00 13.4 5.5 58.78 0 0 29.8 157 1013.5 43.9 16
DallasTexas 1/21/2019 19:00 12.8 6 63.41 0 0 26.2 151 1013.5 43.9 16
DallasTexas 1/21/2019 20:00 12.3 6.5 67.67 0 0 30 149 1012.9 51.8 16
DallasTexas 1/21/2019 21:00 11.7 6.6 70.89 0 0 26.9 149 1012.5 44.4 16
DallasTexas 1/21/2019 22:00 11.3 6.7 73.39 0 0 29.6 154 1012.3 22.7 16
DallasTexas 1/21/2019 23:00 11.8 7.4 74.31 0 0 27.8 163 1012.6 73.3 16
DallasTexas 1/22/2019 0:00 12.7 8.4 75.2 0 0 31.3 163 1012.5 70.3 16
DallasTexas 1/22/2019 1:00 12.4 8.5 77.3 0 0 31 160 1011.8 75.6 16
DallasTexas 1/22/2019 2:00 12.4 8.8 78.44 0 0 33.2 159 1010.9 63.7 16
DallasTexas 1/22/2019 3:00 12.7 8.9 77.57 0 0 28.1 163 1010.6 65.2 16
DallasTexas 1/22/2019 4:00 13.2 9.3 77.18 0 0 29.3 161 1009.8 65.9 16
DallasTexas 1/22/2019 5:00 13.5 9.8 78.39 0 0 27.2 165 1009.4 58.5 16
DallasTexas 1/22/2019 6:00 13.7 9.9 78.04 0 0 28.6 160 1008.9 65.2 16
DallasTexas 1/22/2019 7:00 13.8 10.4 80.22 0 0 25.8 159 1009 78.8 16
DallasTexas 1/22/2019 8:00 14 10.9 81.4 0 0 26.1 162 1009.4 86.8 16
DallasTexas 1/22/2019 9:00 14.5 10.8 78.78 0 0 26.3 155 1009.6 88.4 16
DallasTexas 1/22/2019 10:00 15.4 11.3 76.39 0 0 27.2 160 1009.4 87.4 16
DallasTexas 1/22/2019 11:00 16.6 11.8 73.24 0 0 22.8 173 1009.8 90.2 16
DallasTexas 1/22/2019 12:00 17.3 12.1 71.36 0 0 22 184 1009.7 92.2 15.1
DallasTexas 1/22/2019 13:00 16.5 12.9 78.9 0.09 0 14.1 183 1009.1 99 12.4
DallasTexas 1/22/2019 14:00 15.7 13.7 87.63 0.4 0 14.7 174 1008.5 95.9 7.2
DallasTexas 1/22/2019 15:00 15.8 14.1 90 0.04 0 15 174 1008.2 78.9 15
DallasTexas 1/22/2019 16:00 16 14.2 89.02 0.02 0 8.9 201 1008.6 69.8 14.8
DallasTexas 1/22/2019 17:00 16.2 14.2 87.85 0.1 0 4 267 1009.4 73 14.8
DallasTexas 1/22/2019 18:00 11.4 8.2 80.78 0.03 0 30.8 323 1011.3 92.6 14.8
DallasTexas 1/22/2019 19:00 8 3.8 74.39 0 0 39.4 318 1013.4 83 15.9
DallasTexas 1/22/2019 20:00 6.1 1.2 71.02 0.01 0 33 320 1015.1 87.5 16
DallasTexas 1/22/2019 21:00 5.4 -0.1 68 0 0 36.9 321 1016.4 65.2 16
DallasTexas 1/22/2019 22:00 4.3 -1.5 65.91 0 0 33.8 315 1017.7 74.6 16
DallasTexas 1/22/2019 23:00 4 -2.3 63.9 0 0 33.5 319 1017.2 74.6 16
DallasTexas 1/23/2019 0:00 3.2 -3.5 61.66 0 0 30.8 326 1018 64.2 16
DallasTexas 1/23/2019 1:00 2.6 -4.6 59.37 0 0 32.8 324 1018.8 64 16
DallasTexas 1/23/2019 2:00 1.5 -5.5 59.61 0 0 26.8 320 1019.1 86.6 16
DallasTexas 1/23/2019 3:00 0.8 -6.1 59.94 0 0 30.1 326 1020 79.1 16
DallasTexas 1/23/2019 4:00 -0.2 -6.6 62.03 0 0 30 320 1020.1 38.6 16
DallasTexas 1/23/2019 5:00 -0.7 -7.5 60.26 0 0 24.4 320 1020.9 36.8 16
DallasTexas 1/23/2019 6:00 -1.3 -7.9 60.78 0 0 29.5 318 1021.3 27.3 16
DallasTexas 1/23/2019 7:00 -2 -8.5 61.15 0 0 27.8 316 1021.9 20.9 16
DallasTexas 1/23/2019 8:00 -2.1 -8.4 62.2 0 0 28.1 324 1021.8 13.5 16
DallasTexas 1/23/2019 9:00 -1.3 -7.7 61.56 0 0 29.9 319 1022.3 15 16
DallasTexas 1/23/2019 10:00 -0.1 -7.4 58.06 0 0 33.1 327 1022.5 15 16
DallasTexas 1/23/2019 11:00 1.5 -7.1 53.11 0 0 30.2 326 1022.6 13.5 16
DallasTexas 1/23/2019 12:00 3.3 -6.7 47.65 0 0 27.4 325 1021.9 13.5 16
DallasTexas 1/23/2019 13:00 4.7 -6.1 45.45 0 0 24.5 313 1020.7 13.5 16
DallasTexas 1/23/2019 14:00 6.4 -5.8 41.25 0 0 25.5 324 1019.2 13.5 16
DallasTexas 1/23/2019 15:00 8.3 -6.2 35.23 0 0 23 333 1018.7 13.5 16
DallasTexas 1/23/2019 16:00 8.9 -6 34.24 0 0 23.3 325 1018.5 0 16
DallasTexas 1/23/2019 17:00 8.8 -6.4 33.6 0 0 20.3 332 1018.7 0 16
DallasTexas 1/23/2019 18:00 6.8 -6.1 39.29 0 0 11.4 324 1019.1 0 16
DallasTexas 1/23/2019 19:00 5.6 -5.4 44.99 0 0 6.7 299 1019.7 13.4 16
DallasTexas 1/23/2019 20:00 4.6 -5.4 48.09 0 0 5.6 317 1019.8 0 16
DallasTexas 1/23/2019 21:00 3.2 -4.9 55.38 0 0 2.1 322 1019.8 0 16
DallasTexas 1/23/2019 22:00 1.7 -4.9 61.66 0 0 4.6 18 1019.7 0 16
DallasTexas 1/23/2019 23:00 1 -4.4 67.57 0 0 4.4 127 1019.2 0 16
DallasTexas 1/24/2019 0:00 0.3 -4.4 71.1 0 0 2.4 40 1018.5 0 16
DallasTexas 1/24/2019 1:00 0.3 -4.8 68.26 0 0 10.1 75 1017.9 0 16
DallasTexas 1/24/2019 2:00 0.4 -4.9 67.44 0 0 6.4 6 1018 0 16
DallasTexas 1/24/2019 3:00 0.9 -5.3 63.28 0 0 8.6 354 1018 0 16
DallasTexas 1/24/2019 4:00 0.8 -5.7 61.68 0 0 7.6 199 1018 0 16
DallasTexas 1/24/2019 5:00 1.2 -5.8 59.96 0 0 6.5 219 1018 0 16
DallasTexas 1/24/2019 6:00 0.6 -5 66.26 0 0 2.8 271 1018.3 0 16
DallasTexas 1/24/2019 7:00 0.9 -5.3 63.26 0 0 6.5 234 1018.7 13.5 16
DallasTexas 1/24/2019 8:00 0.9 -5 64.53 0 0 2.6 300 1019.1 13.5 16
DallasTexas 1/24/2019 9:00 4.1 -3.6 57.3 0 0 2.7 301 1020 43.9 16
DallasTexas 1/24/2019 10:00 7.3 -3.7 45.58 0 0 10.4 234 1020.5 24.7 16
DallasTexas 1/24/2019 11:00 10 -4 37.04 0 0 13.8 208 1020.6 50.7 16
DallasTexas 1/24/2019 12:00 12.8 -4.1 30.65 0 0 12.7 200 1020.3 29.7 16
DallasTexas 1/24/2019 13:00 13.7 -4.2 28.49 0 0 9.5 24 1019.8 29.7 16
DallasTexas 1/24/2019 14:00 14.8 -4 27.04 0 0 6.3 66 1018.6 27.8 16
DallasTexas 1/24/2019 15:00 14.6 -3.9 27.54 0 0 7.3 20 1018.8 27.8 16
DallasTexas 1/24/2019 16:00 14.7 -3.8 27.8 0 0 11.5 74 1019.6 42.9 16
DallasTexas 1/24/2019 17:00 13.7 -3.2 30.95 0 0 11.8 74 1020.4 31.2 16
DallasTexas 1/24/2019 18:00 11.7 -2.9 36 0 0 9.9 66 1021.3 29.7 16
DallasTexas 1/24/2019 19:00 10 -2.1 42.65 0 0 12.5 46 1022.2 4.8 16
DallasTexas 1/24/2019 20:00 8.7 -1.4 48.92 0 0 10.9 33 1023.4 13.5 16
DallasTexas 1/24/2019 21:00 8.1 -1.2 52 0 0 10.6 30 1024.3 16.1 16
DallasTexas 1/24/2019 22:00 6.8 -1.5 55.51 0 0 18.1 16 1025.2 15.4 16
DallasTexas 1/24/2019 23:00 6.4 -1.5 57.02 0 0 20.9 25 1026.2 2 16
DallasTexas 1/25/2019 0:00 5.2 -1.9 60.5 0 0 17.4 23 1027.2 2 16
DallasTexas 1/25/2019 1:00 3.5 -2.1 66.85 0 0 11.1 17 1027.9 0 16
DallasTexas 1/25/2019 2:00 2.6 -3.3 65.01 0 0 19.7 26 1028.3 0 16
DallasTexas 1/25/2019 3:00 1.4 -4.1 66.98 0 0 13.3 29 1028.2 0 16
DallasTexas 1/25/2019 4:00 0.8 -5 65.34 0 0 11.1 33 1028 0 16
DallasTexas 1/25/2019 5:00 0.2 -5.4 66.34 0 0 8.3 48 1027.4 0 16
DallasTexas 1/25/2019 6:00 -0.1 -5.4 67.48 0 0 2.9 31 1027.3 13.4 16
DallasTexas 1/25/2019 7:00 -0.7 -5.4 70.41 0 0 5.4 71 1027.3 13.5 16
DallasTexas 1/25/2019 8:00 -0.4 -5.1 70.7 0 0 5.2 47 1027.7 13.5 16
DallasTexas 1/25/2019 9:00 1.5 -4.2 65.98 0 0 10.3 71 1028.2 13.5 16
DallasTexas 1/25/2019 10:00 2.8 -3.7 62.34 0 0 9.1 119 1028.6 14.3 16
DallasTexas 1/25/2019 11:00 4.5 -2.6 60.19 0 0 12.1 118 1028.1 14.6 16
DallasTexas 1/25/2019 12:00 6.8 -1.9 53.96 0 0 8.6 161 1027.7 57.7 16
DallasTexas 1/25/2019 13:00 8.8 -1.4 48.69 0 0 10.4 144 1026.2 36.3 16
DallasTexas 1/25/2019 14:00 9.4 -1.1 47.81 0 0 8.7 136 1024.9 63 16
DallasTexas 1/25/2019 15:00 10.2 -0.9 46.14 0 0 7 103 1023.9 73.6 16
DallasTexas 1/25/2019 16:00 10.5 -0.9 45.15 0 0 4.1 44 1023.8 77.4 16
DallasTexas 1/25/2019 17:00 11.2 -0.6 44.12 0 0 2.8 302 1023.6 78 16
DallasTexas 1/25/2019 18:00 10.6 -0.4 46.49 0 0 0.2 9 1023.6 84.8 16
DallasTexas 1/25/2019 19:00 9.2 -0.4 50.94 0 0 2.4 47 1023.8 67.7 16
DallasTexas 1/25/2019 20:00 7 0.3 62.45 0 0 6.9 73 1024 46.8 15.5
DallasTexas 1/25/2019 21:00 5.8 0.4 68.04 0 0 5.8 27 1024.6 17.4 16
DallasTexas 1/25/2019 22:00 5.4 0.2 69.31 0 0 3 5 1024.7 17 16
DallasTexas 1/25/2019 23:00 4.9 0.2 71.6 0 0 3.5 11 1024.7 22.8 16
DallasTexas 1/26/2019 0:00 4 -0.1 74.6 0 0 5.5 355 1024.8 35.1 16
DallasTexas 1/26/2019 1:00 3.5 -0.1 77.23 0 0 7 334 1024.7 66.2 16
DallasTexas 1/26/2019 2:00 3.6 0.3 78.82 0 0 9 346 1024.9 81.6 16
DallasTexas 1/26/2019 3:00 4.1 0 74.91 0 0 3.9 350 1025 97.5 16
DallasTexas 1/26/2019 4:00 3.9 -0.2 74.51 0 0 8.2 342 1024.7 90.5 16
DallasTexas 1/26/2019 5:00 3.3 -0.7 74.75 0 0 6.3 359 1024.4 91 16
DallasTexas 1/26/2019 6:00 3.7 -1 71.38 0 0 7.5 346 1024.4 93.9 16
DallasTexas 1/26/2019 7:00 3.6 -1.4 69.76 0 0 6.9 14 1024.5 85.5 16
DallasTexas 1/26/2019 8:00 3.3 -1.4 71.56 0 0 4.1 340 1024.8 79.6 16
DallasTexas 1/26/2019 9:00 5.5 -1.3 61.67 0 0 3.1 9 1024.6 43.3 16
DallasTexas 1/26/2019 10:00 7.2 -0.8 56.73 0 0 3.4 52 1024.5 45.7 16
DallasTexas 1/26/2019 11:00 9.2 0.6 54.99 0 0 3.5 44 1023.8 24 16
DallasTexas 1/26/2019 12:00 11.5 1.9 51.81 0 0 6.3 259 1023 13.5 16
DallasTexas 1/26/2019 13:00 12.7 2.3 49.12 0 0 9.3 314 1021.9 13.5 16
DallasTexas 1/26/2019 14:00 13.7 2.5 47 0 0 6.3 313 1021 19 16
DallasTexas 1/26/2019 15:00 14.1 1.9 43.71 0 0 6 346 1020.5 16.9 16
DallasTexas 1/26/2019 16:00 14.2 1.6 42.46 0 0 13 343 1020.2 20.8 16
DallasTexas 1/26/2019 17:00 13.6 1.1 42.53 0 0 6.9 336 1020.1 19.1 16
DallasTexas 1/26/2019 18:00 11.5 1.1 48.78 0 0 7.1 6 1020.4 28.6 16
DallasTexas 1/26/2019 19:00 10.3 0.8 51.81 0 0 5.8 11 1020.9 44.3 16
DallasTexas 1/26/2019 20:00 9.2 1.1 56.89 0 0 5.3 13 1021.2 43.9 16
DallasTexas 1/26/2019 21:00 7.9 1.2 62.95 0 0 4.6 35 1021.4 32.1 16
DallasTexas 1/26/2019 22:00 6.4 1.2 69.35 0 0 2.8 36 1021.6 17.6 16
DallasTexas 1/26/2019 23:00 5.4 0.8 72.23 0 0 1.4 319 1022.1 23.9 16
DallasTexas 1/27/2019 0:00 3.9 0.7 79.47 0 0 0.8 339 1022.2 15 16
DallasTexas 1/27/2019 1:00 3.9 0.4 78.15 0 0 2.2 311 1021.9 3.6 14.9
DallasTexas 1/27/2019 2:00 2.9 -0.1 80.75 0 0 2.4 309 1021.9 5 14.7
DallasTexas 1/27/2019 3:00 2.8 -0.4 79.84 0 0 2 321 1021.9 1.7 14.8
DallasTexas 1/27/2019 4:00 2.2 -0.4 82.81 0 0 0.8 337 1021.8 0 14
DallasTexas 1/27/2019 5:00 2.2 -0.4 82.7 0 0 1.9 339 1021.6 0 14
DallasTexas 1/27/2019 6:00 1.7 -0.7 83.99 0 0 1.5 329 1021.6 0 13.9
DallasTexas 1/27/2019 7:00 1.3 -0.8 86.43 0 0 5.1 307 1022 0 14
DallasTexas 1/27/2019 8:00 1.9 -0.3 85.17 0 0 3.1 340 1022.3 0 14.6
DallasTexas 1/27/2019 9:00 5.6 1.1 72.86 0 0 7 278 1022.6 0 15.8
DallasTexas 1/27/2019 10:00 8.8 0.4 55.55 0 0 10.7 296 1022.7 0 16
DallasTexas 1/27/2019 11:00 11.6 -0.3 44.04 0 0 11.3 312 1022.6 0 16
DallasTexas 1/27/2019 12:00 13.8 -0.7 36.84 0 0 12.2 324 1021.8 0 16
DallasTexas 1/27/2019 13:00 15.3 -1.5 31.64 0 0 12.1 281 1020.5 0 16
DallasTexas 1/27/2019 14:00 16.6 -2.7 26.66 0 0 20.2 274 1019.1 0 16
DallasTexas 1/27/2019 15:00 16.7 -2.4 27.02 0 0 16.1 283 1018 0 16
DallasTexas 1/27/2019 16:00 16.9 -2.9 25.56 0 0 11 296 1017.3 0 16
DallasTexas 1/27/2019 17:00 16.4 -3.9 24.64 0 0 10.5 294 1016.4 13.3 16
DallasTexas 1/27/2019 18:00 14.7 -3.5 28.33 0 0 0.7 330 1015.8 15.7 16
DallasTexas 1/27/2019 19:00 12.3 -3 34.34 0 0 1.7 288 1015.6 15.3 16
DallasTexas 1/27/2019 20:00 10.4 -2 42.02 0 0 3.9 276 1015.3 15 16
DallasTexas 1/27/2019 21:00 10.5 -2.7 39.54 0 0 7.3 235 1014.6 43.9 16
DallasTexas 1/27/2019 22:00 9.7 -2.5 42.29 0 0 8.2 204 1013.8 43.9 16
DallasTexas 1/27/2019 23:00 9.5 -2.3 43.58 0 0 10.4 216 1013.2 43.9 16
DallasTexas 1/28/2019 0:00 8.6 -0.4 53.36 0 0 15 184 1012.5 43.9 16
DallasTexas 1/28/2019 1:00 8.7 1.5 60.63 0 0 12.9 180 1011.7 48.7 16
DallasTexas 1/28/2019 2:00 7.8 2.6 69.71 0 0 11.6 177 1011 43.9 16
DallasTexas 1/28/2019 3:00 7.3 2.7 72.84 0 0 13.6 183 1010.5 27.2 16
DallasTexas 1/28/2019 4:00 7.2 2.3 71.06 0 0 13.5 183 1009.6 15 16
DallasTexas 1/28/2019 5:00 7.1 2.7 73.7 0 0 11.6 179 1008.9 13.5 16
DallasTexas 1/28/2019 6:00 7.1 3.2 76.55 0 0 12.3 8 1008.5 19.1 16
DallasTexas 1/28/2019 7:00 7.3 3.7 78.09 0 0 10.6 175 1009.1 29.7 16
DallasTexas 1/28/2019 8:00 6.9 3.8 80.67 0 0 7.8 114 1009.9 29.7 16
DallasTexas 1/28/2019 9:00 9.7 4.9 72.1 0 0 10.9 306 1010.6 29.7 16
DallasTexas 1/28/2019 10:00 12.3 5.2 61.8 0 0 14 217 1011.4 29.7 16
DallasTexas 1/28/2019 11:00 14.2 5.4 55.62 0 0 11.8 223 1011.5 29.7 16
DallasTexas 1/28/2019 12:00 15.9 4.3 46.14 0 0 14.4 295 1011.4 29.7 16
DallasTexas 1/28/2019 13:00 16 2.1 39.07 0 0 21.8 339 1011.6 28.3 16
DallasTexas 1/28/2019 14:00 16 1 36.28 0 0 26.2 1 1011.8 17.8 16
DallasTexas 1/28/2019 15:00 16.3 1.6 37.03 0 0 25.5 23 1012.1 20.3 16
DallasTexas 1/28/2019 16:00 14.9 2.3 42.43 0 0 32.2 32 1013.3 19.6 16
DallasTexas 1/28/2019 17:00 12.6 1.5 46.76 0 0 36.7 4 1015.5 21.9 16
DallasTexas 1/28/2019 18:00 10.4 1.1 52.42 0 0 37.5 358 1017.5 35.7 16
DallasTexas 1/28/2019 19:00 8.6 -2 47.21 0 0 39.2 353 1020 27.1 16
DallasTexas 1/28/2019 20:00 7.9 -3.1 45.83 0 0 31.3 350 1021.8 67.2 16
DallasTexas 1/28/2019 21:00 7.4 -4.7 41.85 0 0 36.1 3 1022.7 77.6 16
DallasTexas 1/28/2019 22:00 6.5 -4.9 43.96 0 0 36.6 359 1023.5 81.9 16
DallasTexas 1/28/2019 23:00 4.8 -6 45.67 0 0 35 6 1024.7 26.3 16
DallasTexas 1/29/2019 0:00 3.9 -6.6 46.26 0 0 25.7 6 1025.6 15.4 16
DallasTexas 1/29/2019 1:00 3 -6.7 48.71 0 0 23.3 11 1025.8 2 16
DallasTexas 1/29/2019 2:00 2.2 -6.8 51.42 0 0 16.1 2 1026 0 16
DallasTexas 1/29/2019 3:00 1.1 -6.7 55.77 0 0 12.8 11 1026 0 16
DallasTexas 1/29/2019 4:00 -0.3 -6.7 61.73 0 0 8 350 1026.7 0 16
DallasTexas 1/29/2019 5:00 -0.8 -6.6 64.89 0 0 7.4 338 1026.9 0 16
DallasTexas 1/29/2019 6:00 -1.1 -6.6 66.31 0 0 7.3 310 1027.4 0 16
DallasTexas 1/29/2019 7:00 -1.7 -6.8 68.47 0 0 4.1 350 1028 0 16
DallasTexas 1/29/2019 8:00 -1.6 -6.3 70.2 0 0 6.7 357 1028.3 13.5 16
DallasTexas 1/29/2019 9:00 1.4 -5.9 58.33 0 0 11.7 14 1028.7 13.5 16
DallasTexas 1/29/2019 10:00 3.3 -6.5 48.77 0 0 11.3 9 1029.5 43.9 16
DallasTexas 1/29/2019 11:00 4.7 -8.1 39.07 0 0 8.9 13 1029.1 43.9 16
DallasTexas 1/29/2019 12:00 5.8 -9.8 31.54 0 0 9.8 53 1028.2 44.6 16
DallasTexas 1/29/2019 13:00 6.6 -10.3 28.63 0 0 11.2 76 1026.7 49.4 16
DallasTexas 1/29/2019 14:00 7.4 -10.7 26.36 0 0 3.3 13 1025.7 49.4 16
DallasTexas 1/29/2019 15:00 7.8 -10.9 25.33 0 0 5.8 27 1024.9 29.7 16
DallasTexas 1/29/2019 16:00 8.1 -11.1 24.33 0 0 4 347 1024.6 29.7 16
DallasTexas 1/29/2019 17:00 7.7 -11.1 25.07 0 0 3.3 328 1024.1 29.7 16
DallasTexas 1/29/2019 18:00 6.9 -10.5 27.73 0 0 3.8 319 1023.7 35.4 16
DallasTexas 1/29/2019 19:00 6.5 -9.8 30.1 0 0 5.9 93 1023.6 49.4 16
DallasTexas 1/29/2019 20:00 5.9 -8.6 34.56 0 0 6.9 105 1023.9 46.7 16
DallasTexas 1/29/2019 21:00 5.3 -8 37.64 0 0 8.3 122 1024.4 49.4 16
DallasTexas 1/29/2019 22:00 4.7 -7.1 42.09 0 0 7.9 359 1024.6 49.4 16
DallasTexas 1/29/2019 23:00 4.6 -7.2 42.09 0 0 7.8 269 1024.5 44.6 16
DallasTexas 1/30/2019 0:00 4.3 -7.2 42.93 0 0 5.5 242 1024.4 34.2 16
DallasTexas 1/30/2019 1:00 3.2 -6.8 47.63 0 0 2 71 1024.1 35.7 16
DallasTexas 1/30/2019 2:00 2.5 -6.4 52.23 0 0 1.8 72 1024.2 28.6 16
DallasTexas 1/30/2019 3:00 2.2 -6.4 53.24 0 0 5 150 1023.7 35.4 16
DallasTexas 1/30/2019 4:00 1.7 -6.3 55.2 0 0 4.8 115 1023.8 28.6 16
DallasTexas 1/30/2019 5:00 1.6 -5.5 59.31 0 0 2.1 81 1024 28.6 16
DallasTexas 1/30/2019 6:00 1 -5.3 62.72 0 0 1.5 68 1024.4 66.4 16
DallasTexas 1/30/2019 7:00 1.7 -5 60.96 0 0 4.9 105 1024.6 91.8 16
DallasTexas 1/30/2019 8:00 2.5 -5.2 56.66 0 0 7 142 1025.4 52 16
DallasTexas 1/30/2019 9:00 3.7 -5.3 52.15 0 0 10.8 158 1026 67.6 16
DallasTexas 1/30/2019 10:00 5 -6 44.83 0 0 11.1 163 1026 80.1 16
DallasTexas 1/30/2019 11:00 6 -6.4 40.51 0 0 15.1 159 1025.7 70.1 16
DallasTexas 1/30/2019 12:00 7.1 -6.4 37.72 0 0 16.1 170 1025.1 62.5 16
DallasTexas 1/30/2019 13:00 7.4 -6 37.91 0 0 16.1 159 1023.9 95.8 16
DallasTexas 1/30/2019 14:00 8.3 -6.4 34.75 0 0 14.9 180 1022.9 90.7 16
DallasTexas 1/30/2019 15:00 9.7 -6.5 31.41 0 0 14.4 162 1022.1 61 16
DallasTexas 1/30/2019 16:00 10.6 -6.4 29.65 0 0 19.3 183 1021.6 17.8 16
DallasTexas 1/30/2019 17:00 10.4 -6.1 30.76 0 0 17.9 174 1021.3 13.5 16
DallasTexas 1/30/2019 18:00 9 -6.1 33.7 0 0 13.4 157 1021.2 13.5 16
DallasTexas 1/30/2019 19:00 7.7 -5.9 37.58 0 0 14.4 156 1021.4 11.8 16
DallasTexas 1/30/2019 20:00 6.6 -5.6 41.33 0 0 11.5 151 1021.6 0 16
DallasTexas 1/30/2019 21:00 6.3 -5.4 42.92 0 0 12.7 152 1021.5 0 16
DallasTexas 1/30/2019 22:00 5.7 -4.9 46.46 0 0 15.1 163 1021.7 0 16
DallasTexas 1/30/2019 23:00 5.1 -4.2 51.3 0 0 14.1 163 1021.9 0.7 16
DallasTexas 1/31/2019 0:00 4.6 -4.4 52.17 0 0 13.4 157 1021.9 30.7 16
DallasTexas 1/31/2019 1:00 4.6 -4 53.38 0 0 12 156 1021.7 88.7 16
DallasTexas 1/31/2019 2:00 5.1 -3.4 54.18 0 0 14.9 158 1021.2 92.9 16
DallasTexas 1/31/2019 3:00 5.4 -2.8 55.61 0 0 13.9 156 1020.8 98 16
DallasTexas 1/31/2019 4:00 5.9 -1.5 59.26 0 0 12.7 161 1020.3 82.9 16
DallasTexas 1/31/2019 5:00 6.1 -0.6 62.31 0 0 11.8 168 1020.3 85.8 16
DallasTexas 1/31/2019 6:00 6.3 -0.3 62.61 0 0 14.1 157 1020.3 84.4 16
DallasTexas 1/31/2019 7:00 6.5 0 63.16 0 0 14 155 1020.5 86.2 16
DallasTexas 1/31/2019 8:00 6.7 0.8 65.82 0 0 14.8 154 1021 67.9 16
DallasTexas 1/31/2019 9:00 7.4 1.4 65.71 0 0 15.4 158 1021.3 79.7 16
DallasTexas 1/31/2019 10:00 8.1 2.1 66.17 0 0 15 157 1021.6 92.4 16
DallasTexas 1/31/2019 11:00 8.9 3.2 67.68 0 0 17.8 159 1021.3 77.8 15.9
DallasTexas 1/31/2019 12:00 9.9 4.4 68.89 0 0 15.1 155 1020.8 71 15.9
DallasTexas 1/31/2019 13:00 10.5 5.7 72.61 0 0 16.8 159 1019.5 80 16
DallasTexas 1/31/2019 14:00 11.5 6.6 72.06 0 0 17.4 152 1018.5 95 16
DallasTexas 1/31/2019 15:00 12.5 7.3 70.72 0 0 16.1 161 1017.7 96.5 16
DallasTexas 1/31/2019 16:00 12.9 7.7 70.92 0 0 18 152 1017.2 94.8 16
DallasTexas 1/31/2019 17:00 12.9 8.2 72.94 0 0 19.4 153 1017.2 90.3 16
DallasTexas 1/31/2019 18:00 12.8 8.2 73.55 0 0 16.3 149 1017.3 96.2 16
DallasTexas 1/31/2019 19:00 12.6 8.3 75.17 0 0 15.1 149 1017.6 97.3 16
DallasTexas 1/31/2019 20:00 12.6 8.5 76.39 0 0 19.3 148 1017.7 97.3 16
DallasTexas 1/31/2019 21:00 13 9.2 77.69 0 0 18.5 160 1018.2 97.3 16
DallasTexas 1/31/2019 22:00 12.8 9.7 81.51 0 0 17.1 162 1018.4 97.3 15.8
DallasTexas 1/31/2019 23:00 12.8 10.4 85.73 0 0 20.6 161 1018.4 100 15.8
DallasTexas 2/1/2019 0:00 12.7 10.7 87.56 0 0 16.4 167 1018.7 100 15.2
DallasTexas 2/1/2019 1:00 12.3 11.1 92.24 0 0 13.5 159 1018.8 100 11.1
DallasTexas 2/1/2019 2:00 12.2 11.1 93.05 0 0 8.5 143 1018.9 97.3 7.8
DallasTexas 2/1/2019 3:00 12 11.1 94.24 0 0 13 145 1018.3 81.3 8.6
DallasTexas 2/1/2019 4:00 12 11 93.66 0 0 9.9 125 1018.4 97.1 8.9
DallasTexas 2/1/2019 5:00 11.6 11 96.15 0 0 11.9 133 1018.5 87.1 5.9
DallasTexas 2/1/2019 6:00 11.3 11 97.74 0 0 10.8 134 1019.1 87.6 4
DallasTexas 2/1/2019 7:00 11.5 10.9 96.16 0.01 0 8.9 138 1019.8 97.2 4
DallasTexas 2/1/2019 8:00 11.3 11.2 99.42 0.04 0 10.8 136 1020.5 97.6 2.6
DallasTexas 2/1/2019 9:00 12.1 11.4 95.72 0.15 0 12.5 146 1021.2 96.9 3.1
DallasTexas 2/1/2019 10:00 13 12 93.93 0.17 0 18 155 1021.4 94.5 5.2
DallasTexas 2/1/2019 11:00 14 12.9 92.85 0 0 14.3 163 1021.5 99.6 12.5
DallasTexas 2/1/2019 12:00 15.5 12.9 84.13 0 0 14.2 112 1021.3 95.6 15.8
DallasTexas 2/1/2019 13:00 16.3 12.7 79.23 0 0 10 166 1020.5 94.7 15.9
DallasTexas 2/1/2019 14:00 16.5 12.7 78.24 0 0 10.5 187 1019.9 93.5 16
DallasTexas 2/1/2019 15:00 16.5 12.5 77.34 0 0 8.9 175 1019.6 95.6 15.9
DallasTexas 2/1/2019 16:00 16.7 12.2 74.83 0 0 8.2 137 1019.5 96.1 15.9
DallasTexas 2/1/2019 17:00 16.7 12.2 74.83 0 0 8.9 123 1019.5 94.2 15.9
DallasTexas 2/1/2019 18:00 16.1 12.1 77.13 0 0 9.7 116 1019.3 79.5 16
DallasTexas 2/1/2019 19:00 15.1 11.8 80.49 0 0 11.4 112 1019.4 49.3 16
DallasTexas 2/1/2019 20:00 14 11.6 85.33 0 0 12 116 1019.8 58.6 16
DallasTexas 2/1/2019 21:00 14.7 11.7 82.68 0 0 11.7 124 1020.1 85.5 15.9
DallasTexas 2/1/2019 22:00 13.7 11.3 85.18 0 0 11.1 122 1020.5 57 15.8
DallasTexas 2/1/2019 23:00 13.1 11.2 88.08 0 0 7.1 130 1021 73 15.6
DallasTexas 2/2/2019 0:00 13.5 11.4 87.04 0 0 10.2 115 1020.8 93.1 15.8
DallasTexas 2/2/2019 1:00 13.2 11.3 88.17 0 0 12.5 126 1020 44.6 15.9
DallasTexas 2/2/2019 2:00 12.9 11.1 89.07 0 0 12.3 130 1019.8 68.8 16
DallasTexas 2/2/2019 3:00 12.9 11.2 89.32 0 0 9.4 118 1019.8 79.4 16
DallasTexas 2/2/2019 4:00 12.3 11 92.01 0 0 6.5 110 1019.7 37.1 15.9
DallasTexas 2/2/2019 5:00 11.5 10.7 95.12 0 0 4.8 119 1019.5 43.4 13.3
DallasTexas 2/2/2019 6:00 12.1 11.3 95.11 0 0 6 107 1019.5 99 12.3
DallasTexas 2/2/2019 7:00 12.6 11.6 93.94 0 0 7.7 130 1019.8 99.6 8.9
DallasTexas 2/2/2019 8:00 12.8 12.4 97.36 0 0 6.5 130 1020.3 66.3 1
DallasTexas 2/2/2019 9:00 13.1 13 99.53 0 0 9.7 118 1020.3 66.3 0.8
DallasTexas 2/2/2019 10:00 13.7 13.4 98.01 0 0 14.7 136 1020.1 85 3.1
DallasTexas 2/2/2019 11:00 14.5 13.7 95.19 0 0 14 149 1020.2 100 4
DallasTexas 2/2/2019 12:00 15.6 13.9 89.55 0 0 14.2 162 1019.3 100 6
DallasTexas 2/2/2019 13:00 16.8 13.8 82.77 0 0 13.4 154 1018.2 97.5 9.7
DallasTexas 2/2/2019 14:00 17.8 13.7 76.95 0 0 11.7 162 1016.7 92.7 13.9
DallasTexas 2/2/2019 15:00 18.2 13.7 75.07 0 0 12.7 167 1015.9 91.1 14.2
DallasTexas 2/2/2019 16:00 18.1 13.7 75.31 0 0 12.2 154 1015.8 91.1 15.9
DallasTexas 2/2/2019 17:00 17.7 14.2 80.06 0.2 0 10.6 79 1015.6 81.1 13.2
DallasTexas 2/2/2019 18:00 17 14 82.62 0.02 0 12.8 124 1015.2 67.4 15.3
DallasTexas 2/2/2019 19:00 16.7 13.9 83.75 0 0 12.3 122 1015.2 64.5 15.6
DallasTexas 2/2/2019 20:00 16.3 13.7 84.6 0 0 14.5 130 1015.3 71.1 15.7
DallasTexas 2/2/2019 21:00 16.4 13.6 83.79 0 0 19.8 140 1015.2 70.2 16
DallasTexas 2/2/2019 22:00 16.1 13.7 85.74 0 0 17.9 148 1015.1 61.5 16
DallasTexas 2/2/2019 23:00 16.1 13.8 86.17 0 0 17.3 157 1014.9 77.8 16
DallasTexas 2/3/2019 0:00 15.7 13.8 88.91 0 0 16.6 157 1014.3 60.7 15.4
DallasTexas 2/3/2019 1:00 15.7 14 89.88 0 0 15.4 159 1013.9 63.1 14.8
DallasTexas 2/3/2019 2:00 15.8 14.3 90.5 0 0 14.8 159 1013.5 62.6 13.4
DallasTexas 2/3/2019 3:00 15.8 14.4 91.4 0 0 14.3 170 1012.9 84.9 11
DallasTexas 2/3/2019 4:00 15.9 14.8 93.55 0 0 13 180 1012.6 85.9 9.2
DallasTexas 2/3/2019 5:00 15.9 15 94.8 0 0 12.7 173 1012.2 80.3 8.1
DallasTexas 2/3/2019 6:00 16.1 14.9 92.54 0 0 12.8 170 1012 65.8 8.8
DallasTexas 2/3/2019 7:00 16.1 14.9 92.51 0 0 13.9 175 1012.1 96.9 9.6
DallasTexas 2/3/2019 8:00 16.2 14.9 92.19 0 0 13.2 167 1012.1 76.8 9.7
DallasTexas 2/3/2019 9:00 16.7 15 89.73 0 0 17.7 172 1012.6 87.9 13.3
DallasTexas 2/3/2019 10:00 17.8 15.4 86.25 0 0 18.6 171 1012.3 82 14.4
DallasTexas 2/3/2019 11:00 18.3 14.9 80.91 0 0 18.9 184 1012.3 93 15.5
DallasTexas 2/3/2019 12:00 18.8 14.7 77.13 0 0 17.7 190 1011.3 92.5 15.8
DallasTexas 2/3/2019 13:00 19.8 14.6 71.94 0 0 20.1 188 1010 93.7 15.9
DallasTexas 2/3/2019 14:00 20.7 14.9 69.14 0 0 22.4 183 1008.7 91.6 15.9
DallasTexas 2/3/2019 15:00 21.4 14.8 66.05 0 0 27.2 180 1007.9 67.4 16
DallasTexas 2/3/2019 16:00 21.3 15.1 67.68 0 0 24.6 170 1007.6 66.9 16
DallasTexas 2/3/2019 17:00 20.7 15.7 72.88 0 0 25.5 173 1007.3 55 15.9
DallasTexas 2/3/2019 18:00 19.8 16 78.68 0 0 23.5 167 1006.9 39.3 15.2
DallasTexas 2/3/2019 19:00 18.9 16.5 85.84 0 0 23.6 159 1007.1 62.1 15.4
DallasTexas 2/3/2019 20:00 19.2 16.6 85.31 0 0 19.7 173 1007.5 80.4 15.4
DallasTexas 2/3/2019 21:00 18.8 16.8 88.01 0 0 21.6 164 1007.8 65.8 14.2
DallasTexas 2/3/2019 22:00 18.8 17 89.18 0 0 23.4 174 1007.7 52.3 12.6
DallasTexas 2/3/2019 23:00 18.9 17.1 89.46 0 0 24.9 182 1007.6 45.6 10.9
DallasTexas 2/4/2019 0:00 18.5 17.1 91.78 0 0 20.4 184 1007.7 33.9 10.5
DallasTexas 2/4/2019 1:00 18.6 16.8 89.51 0 0 18.4 194 1007.7 30.6 11.2
DallasTexas 2/4/2019 2:00 18.5 16.6 88.81 0 0 16.5 199 1007.6 13.5 11.4
DallasTexas 2/4/2019 3:00 18.2 16.6 90.4 0 0 15.8 202 1007.4 13.4 10.4
DallasTexas 2/4/2019 4:00 17.8 16.2 90.3 0 0 14 203 1007.8 17.8 10.4
DallasTexas 2/4/2019 5:00 17.4 16.1 91.77 0 0 14.5 211 1008.6 43.1 9.1
DallasTexas 2/4/2019 6:00 17 16 94.04 0 0 15 210 1009.1 31.5 8.5
DallasTexas 2/4/2019 7:00 16.8 15.9 94.1 0 0 12 207 1009.4 64.9 6.7
DallasTexas 2/4/2019 8:00 16.7 15.9 94.86 0 0 12.5 218 1010 30 5.4
DallasTexas 2/4/2019 9:00 17.8 16.2 90.34 0 0 15.4 210 1010.6 41 8.2
DallasTexas 2/4/2019 10:00 19.5 16.2 81.15 0 0 15 204 1011.2 23.2 11.8
DallasTexas 2/4/2019 11:00 21.7 16.6 72.43 0 0 12.6 212 1011.5 27.6 13.7
DallasTexas 2/4/2019 12:00 23.1 16.3 65.79 0 0 12.1 208 1011.2 17.2 15
DallasTexas 2/4/2019 13:00 24.6 16 58.75 0 0 12.1 194 1010.2 17.5 15
DallasTexas 2/4/2019 14:00 25.5 15.3 53.33 0 0 14.6 178 1009.6 24.2 14.7
DallasTexas 2/4/2019 15:00 25.8 15.1 51.8 0 0 12.6 194 1009.1 32.9 16
DallasTexas 2/4/2019 16:00 26.1 14.9 50.05 0 0 14 198 1008.9 27.8 16
DallasTexas 2/4/2019 17:00 25.6 14.6 50.68 0 0 15.6 191 1009 29.7 16
DallasTexas 2/4/2019 18:00 24 15.3 58.35 0 0 13.4 179 1009 43.9 16
DallasTexas 2/4/2019 19:00 22.5 15.9 66.25 0 0 13.5 162 1009.1 45.3 16
DallasTexas 2/4/2019 20:00 21.4 16.5 73.54 0 0 18.4 162 1009.1 43.9 16
DallasTexas 2/4/2019 21:00 20.9 16.5 75.78 0 0 18.9 164 1009.5 47.8 16
DallasTexas 2/4/2019 22:00 20.4 16.6 78.66 0 0 15.6 167 1009.7 47.8 15.9
DallasTexas 2/4/2019 23:00 19.9 16.7 82.22 0 0 15.2 172 1010.1 50 15.9
DallasTexas 2/5/2019 0:00 19 17 88.12 0 0 14.9 176 1009.9 63.8 13.8
DallasTexas 2/5/2019 1:00 19.3 17.3 87.84 0 0 13.9 182 1010.7 76.7 12.1
DallasTexas 2/5/2019 2:00 19 17.3 90.37 0 0 11.6 182 1010.8 70.2 10.5
DallasTexas 2/5/2019 3:00 19.3 17.7 90.02 0 0 9.6 314 1010.6 73.5 9.7
DallasTexas 2/5/2019 4:00 19.1 17.6 90.87 0 0 8 140 1010.2 51.6 8.8
DallasTexas 2/5/2019 5:00 18.3 17.4 94.84 0 0 9.8 127 1010.5 48.7 6.6
DallasTexas 2/5/2019 6:00 17.7 17.1 96.73 0 0 13.9 148 1010.6 48 4.5
DallasTexas 2/5/2019 7:00 18 17.3 96.02 0 0 11.6 228 1011.4 69.4 4.3
DallasTexas 2/5/2019 8:00 18 17 93.94 0 0 12 137 1011.7 66.4 3.9
DallasTexas 2/5/2019 9:00 19.6 18 90.83 0 0 17.6 79 1011.8 61.8 4.7
DallasTexas 2/5/2019 10:00 21.7 17.3 75.91 0 0 27.2 169 1011.5 51 9.5
DallasTexas 2/5/2019 11:00 22.8 17.1 70.47 0 0 27.3 177 1011.4 79.4 11.2
DallasTexas 2/5/2019 12:00 23.2 17.1 68.57 0 0 24.4 192 1011.2 90.6 11.5
DallasTexas 2/5/2019 13:00 23.8 16.6 64.17 0 0 22.6 196 1010.1 62.2 12.3
DallasTexas 2/5/2019 14:00 24.4 16.6 62.01 0 0 27.4 190 1008.8 92.1 13.8
DallasTexas 2/5/2019 15:00 24.6 17 62.87 0 0 27.1 174 1008.1 90.3 14.7
DallasTexas 2/5/2019 16:00 24 16.6 63.42 0 0 26.9 185 1008 88.5 16
DallasTexas 2/5/2019 17:00 23.5 17 66.92 0 0 23.5 173 1007.8 69.2 15.9
DallasTexas 2/5/2019 18:00 23.3 16.8 66.8 0 0 16.5 179 1008.3 74.6 15.9
DallasTexas 2/5/2019 19:00 22.5 16.6 69.28 0 0 14.3 267 1008.8 73.5 15.9
DallasTexas 2/5/2019 20:00 21.6 16.8 74.1 0 0 13.7 158 1008.8 34.9 15.1
DallasTexas 2/5/2019 21:00 21.5 17.4 77.36 0 0 17.2 161 1009.2 31.3 14.4
DallasTexas 2/5/2019 22:00 21.1 17.6 80.36 0 0 20.7 171 1009.2 37.8 12.8
DallasTexas 2/5/2019 23:00 21.1 18.2 83.34 0 0 19.4 177 1009.2 39.5 10
DallasTexas 2/6/2019 0:00 21.1 18.5 84.71 0 0 20.4 182 1009.2 65.6 10
DallasTexas 2/6/2019 1:00 21.2 18.7 86.04 0 0 17.8 187 1009.2 99.6 10.4
DallasTexas 2/6/2019 2:00 21.4 18.7 84.69 0 0 17.5 197 1009.2 97.1 11.1
DallasTexas 2/6/2019 3:00 21.2 18.7 85.88 0 0 14.2 189 1009.1 97 11.9
DallasTexas 2/6/2019 4:00 21.1 18.8 86.7 0 0 17.6 191 1009.1 85 10.6
DallasTexas 2/6/2019 5:00 20.8 18.8 88.25 0 0 15.3 178 1009.2 95.2 10.7
DallasTexas 2/6/2019 6:00 20.6 18.8 89.72 0 0 14.9 183 1009.6 98.5 10.3
DallasTexas 2/6/2019 7:00 20.5 18.8 89.87 0 0 13 171 1009.8 99.6 11.7
DallasTexas 2/6/2019 8:00 20.3 18.8 91.19 0 0 13.7 174 1010.1 96.6 10.3
DallasTexas 2/6/2019 9:00 20.6 18.9 89.54 0 0 20.8 177 1010.2 99.6 11.1
DallasTexas 2/6/2019 10:00 21.2 18.9 86.66 0 0 21.8 170 1010.2 99.4 12.5
DallasTexas 2/6/2019 11:00 22 19.2 84.34 0 0 15.5 186 1010.4 98.1 10.9
DallasTexas 2/6/2019 12:00 23 19.2 79.44 0 0 27 178 1009.5 86.6 11.5
DallasTexas 2/6/2019 13:00 23.7 19.2 76.27 0.01 0 22.8 182 1008.7 75.1 13.2
DallasTexas 2/6/2019 14:00 24 18.8 72.94 0 0 22.2 177 1007.4 66 14.5
DallasTexas 2/6/2019 15:00 24.8 18.8 69.29 0 0 23.1 176 1006.7 72.6 15.7
DallasTexas 2/6/2019 16:00 24.8 18.5 68.03 0 0 28.9 173 1005.6 42.2 14.1
DallasTexas 2/6/2019 17:00 23.8 18.8 73.42 0 0 25.3 183 1006.3 74.3 8.5
DallasTexas 2/6/2019 18:00 23.2 18.8 76.62 0 0 29.1 169 1005.6 41.3 8.2
DallasTexas 2/6/2019 19:00 22.6 19.2 80.81 0 0 23.1 173 1006.5 82.9 9.2
DallasTexas 2/6/2019 20:00 22.3 19.2 82.41 0 0 22.3 172 1006.8 61.3 10.9
DallasTexas 2/6/2019 21:00 22.2 18.7 80.52 0 0 25.5 168 1006.5 45.1 13.8
DallasTexas 2/6/2019 22:00 22 18.5 80.39 0 0 24.8 169 1006.4 40.5 15.9
DallasTexas 2/6/2019 23:00 21.7 18.2 80.43 0 0 25.4 168 1005.8 95.6 16
DallasTexas 2/7/2019 0:00 21.8 18.3 80.49 0 0 26.7 177 1005.6 100 15.9
DallasTexas 2/7/2019 1:00 21.8 18.6 82.12 0 0 26.9 186 1005.4 99.6 15.4
DallasTexas 2/7/2019 2:00 21.7 18.6 82.56 0 0 26.9 189 1005.4 100 14
DallasTexas 2/7/2019 3:00 21.6 18.7 83.51 0.14 0 29.3 201 1006 99.6 13.5
DallasTexas 2/7/2019 4:00 21.8 18.8 83.15 0 0 23.2 217 1006.5 96.7 15.3
DallasTexas 2/7/2019 5:00 17.4 15.6 89.2 3.72 0 21.1 268 1008.3 52.4 7.2
DallasTexas 2/7/2019 6:00 11.8 10.3 90.16 2.36 0 32.9 316 1011.4 81.1 15.3
DallasTexas 2/7/2019 7:00 7.4 6.1 91.57 0.07 0 34 327 1014.1 95.8 16
DallasTexas 2/7/2019 8:00 4.8 3 88.57 0 0 34.7 329 1016.3 96.9 16
DallasTexas 2/7/2019 9:00 3.6 1.4 85.25 0.01 0 31.2 327 1018.4 99.5 16
DallasTexas 2/7/2019 10:00 3.1 0.2 81.02 0 0 31.1 323 1020.7 97.7 16
DallasTexas 2/7/2019 11:00 2.3 -0.9 79.07 0 0 29.9 335 1022.7 100 16
DallasTexas 2/7/2019 12:00 1.9 -1.7 77.04 0 0 28.9 329 1024.1 100 16
DallasTexas 2/7/2019 13:00 2 -2.3 73.24 0 0 26.9 335 1024.6 98.9 16
DallasTexas 2/7/2019 14:00 2.9 -2.2 69.26 0 0 28.9 330 1024.9 73.8 16
DallasTexas 2/7/2019 15:00 3.9 -2 65.38 0 0 28.8 330 1025.8 52.7 16
DallasTexas 2/7/2019 16:00 4 -2.2 63.82 0 0 28 335 1026 37.1 16
DallasTexas 2/7/2019 17:00 4.1 -3.7 56.91 0 0 27.9 343 1026.7 20.4 16
DallasTexas 2/7/2019 18:00 3 -4.6 57.29 0 0 23.4 345 1027.9 29.9 16
DallasTexas 2/7/2019 19:00 2.4 -5.6 55.58 0 0 19.4 337 1029.1 29.9 16
DallasTexas 2/7/2019 20:00 2 -5.9 56.12 0 0 25.2 353 1030.1 32.1 16
DallasTexas 2/7/2019 21:00 1.6 -6.5 54.8 0 0 27.1 356 1031.2 32.9 16
DallasTexas 2/7/2019 22:00 0.4 -6.6 59.33 0 0 24.9 356 1032.4 22.9 16
DallasTexas 2/7/2019 23:00 -0.3 -6.7 61.79 0 0 21.8 1 1033.2 22.9 16
DallasTexas 2/8/2019 0:00 -0.9 -7.5 60.8 0 0 18.2 9 1033.9 33.9 16
DallasTexas 2/8/2019 1:00 -1.4 -8.2 59.75 0 0 17 24 1034.8 17.6 16
DallasTexas 2/8/2019 2:00 -2 -8.4 61.88 0 0 19 17 1035.2 17.6 16
DallasTexas 2/8/2019 3:00 -3 -9.7 59.72 0 0 21.7 18 1035.8 16.1 16
DallasTexas 2/8/2019 4:00 -3.4 -10.1 59.97 0 0 17.5 19 1036.9 17.6 16
DallasTexas 2/8/2019 5:00 -3.6 -10.4 59.18 0 0 20 22 1036.7 24.7 16
DallasTexas 2/8/2019 6:00 -4 -10.8 59.29 0 0 21.2 8 1037 32 16
DallasTexas 2/8/2019 7:00 -4.1 -11.2 57.6 0 0 18.9 15 1037.2 21.1 16
DallasTexas 2/8/2019 8:00 -3.7 -11.2 56.12 0 0 17.8 29 1038.3 55.5 16
DallasTexas 2/8/2019 9:00 -2.9 -10.7 55.08 0 0 20.6 29 1039.3 57 16
DallasTexas 2/8/2019 10:00 -1.9 -10.5 51.85 0 0 15.6 33 1040.1 57 16
DallasTexas 2/8/2019 11:00 -1 -9.8 51.38 0 0 14.5 360 1040.6 43.9 16
DallasTexas 2/8/2019 12:00 -0.3 -10.3 47.04 0 0 15.1 17 1039.8 57 16
DallasTexas 2/8/2019 13:00 0.5 -9.5 46.97 0 0 17 3 1038.9 59.2 16
DallasTexas 2/8/2019 14:00 1.1 -9.5 44.96 0 0 15.8 14 1038.3 49.3 16
DallasTexas 2/8/2019 15:00 1.6 -9.4 43.79 0 0 15.1 10 1037.6 45.2 16
DallasTexas 2/8/2019 16:00 1.7 -9 44.91 0 0 14.1 35 1037.4 53.2 16
DallasTexas 2/8/2019 17:00 2.5 -9.5 40.84 0 0 8.7 30 1037.3 53.6 16
DallasTexas 2/8/2019 18:00 2.5 -8.6 43.73 0 0 10 26 1037.2 62.2 16
DallasTexas 2/8/2019 19:00 2.5 -8.6 43.79 0 0 8.2 41 1037.5 70.7 16
DallasTexas 2/8/2019 20:00 2.6 -8.2 44.79 0 0 9.4 36 1037.7 79 16
DallasTexas 2/8/2019 21:00 2.3 -8.3 45.35 0 0 7.9 33 1037.9 70.7 16
DallasTexas 2/8/2019 22:00 2.3 -7.8 47.21 0 0 4.4 28 1037.5 56 16
DallasTexas 2/8/2019 23:00 2.4 -7.9 46.43 0 0 5.2 25 1037.3 75.9 16
DallasTexas 2/9/2019 0:00 2.7 -8.1 45.03 0 0 8.4 18 1037.2 77.3 16
DallasTexas 2/9/2019 1:00 2.4 -7.6 47.56 0 0 9.8 39 1036.7 70.9 16
DallasTexas 2/9/2019 2:00 2.5 -7.5 47.93 0 0 10.8 55 1036.6 59.5 16
DallasTexas 2/9/2019 3:00 2.1 -6.6 52.58 0 0 10.5 37 1036.5 78.9 16
DallasTexas 2/9/2019 4:00 2.1 -5.9 55.42 0 0 10.4 50 1036 61.6 16
DallasTexas 2/9/2019 5:00 2.4 -5.8 54.55 0 0 9.7 55 1035.5 85.5 16
DallasTexas 2/9/2019 6:00 2.5 -5.8 54.28 0 0 13.3 64 1035.2 85.5 16
DallasTexas 2/9/2019 7:00 2.5 -6 53.56 0 0 14.7 78 1035.1 100 16
DallasTexas 2/9/2019 8:00 2.7 -6.4 51.07 0 0 13.5 92 1035.4 100 16
DallasTexas 2/9/2019 9:00 2.9 -6.3 50.84 0 0 13.9 92 1035.3 99.4 16
DallasTexas 2/9/2019 10:00 3.1 -6.3 50.24 0 0 14.7 104 1035.7 99.6 16
DallasTexas 2/9/2019 11:00 3.3 -5.6 51.98 0.02 0 10.6 97 1035.3 95.5 15.8
DallasTexas 2/9/2019 12:00 3 -4.2 59.06 0.21 0 9.1 106 1035.1 94.4 13.5
DallasTexas 2/9/2019 13:00 1.7 -2 76.81 0.92 0 7.9 119 1034.4 85.8 11.8
DallasTexas 2/9/2019 14:00 1.7 -0.7 83.8 0.73 0 8.5 75 1033.1 71.7 7.5
DallasTexas 2/9/2019 15:00 1.7 -0.2 87.58 0.23 0 8.9 52 1032.4 78.3 9.3
DallasTexas 2/9/2019 16:00 1.7 0.4 91.53 0.05 0 10.7 60 1031.4 95.6 6
DallasTexas 2/9/2019 17:00 1.7 0.5 91.95 0 0 15.2 88 1029.7 96.5 10.4
DallasTexas 2/9/2019 18:00 1.8 0.5 91.35 0 0 7.5 27 1030.9 93.4 15.6
DallasTexas 2/9/2019 19:00 1.7 0.6 92.19 0.18 0 8.9 77 1030.3 96.1 8.9
DallasTexas 2/9/2019 20:00 1.7 0.8 93.57 0.04 0 11.9 86 1029.5 92.9 7.5
DallasTexas 2/9/2019 21:00 1.8 1.1 95.04 0.44 0 12.1 101 1029.2 93.8 10.3
DallasTexas 2/9/2019 22:00 2.2 1.1 92.26 0.06 0 15.3 115 1029.2 97.2 12
DallasTexas 2/9/2019 23:00 2.3 1.1 92.01 0.2 0 13.6 123 1028.5 94.8 11.7
DallasTexas 2/10/2019 0:00 2.1 1.1 92.81 0.03 0 15.3 124 1027.9 94.5 12.1
DallasTexas 2/10/2019 1:00 2.3 1.1 92.24 0.01 0 16.1 130 1027.2 87.2 14.3
DallasTexas 2/10/2019 2:00 2 1.1 93.78 0.01 0 16.7 132 1026.6 94.2 8.3
DallasTexas 2/10/2019 3:00 2.3 1.6 94.71 0.01 0 7.1 108 1026.6 94.9 10.6
DallasTexas 2/10/2019 4:00 2.3 1.6 94.87 0.03 0 6.5 106 1026 99.8 4.7
DallasTexas 2/10/2019 5:00 2.4 1.9 96.29 0.3 0 10.7 115 1025.1 94 3.2
DallasTexas 2/10/2019 6:00 2.5 2.1 96.6 0.3 0 7.5 122 1025.1 99.1 4.8
DallasTexas 2/10/2019 7:00 2.6 2.2 97.55 0.34 0 5.4 88 1025.3 98.3 4.6
DallasTexas 2/10/2019 8:00 2.9 2.4 96.66 0.22 0 10.2 114 1024.3 96.7 4.4
DallasTexas 2/10/2019 9:00 3.4 2.7 95.43 0.04 0 10.3 116 1024.3 96.9 5.2
DallasTexas 2/10/2019 10:00 4 3.3 94.64 0.31 0 12.1 128 1023.7 96.9 4.3
DallasTexas 2/10/2019 11:00 4.5 3.8 95.17 0.08 0 9.6 144 1024 99.6 3.1
DallasTexas 2/10/2019 12:00 4.8 4.3 96.22 0.12 0 11.6 133 1022.9 97.3 4.8
DallasTexas 2/10/2019 13:00 5.4 4.8 95.61 0.3 0 8.9 351 1022.3 99.6 3.9
DallasTexas 2/10/2019 14:00 5.8 4.9 94.25 0.28 0 11.2 120 1020.9 95.3 9.6
DallasTexas 2/10/2019 15:00 6 5.2 94.74 0 0 11.1 127 1020.3 99.6 8.9
DallasTexas 2/10/2019 16:00 6.2 5.5 94.87 0.03 0 6.2 143 1020.6 99.6 4.7
DallasTexas 2/10/2019 17:00 6.2 5.5 95.3 0.2 0 7.6 120 1020.5 99.9 2.6
DallasTexas 2/10/2019 18:00 6.2 5.8 96.99 0.15 0 12.7 126 1019.6 97.7 7
DallasTexas 2/10/2019 19:00 6.3 5.6 95.29 0.08 0 7.1 96 1020 96.7 10.4
DallasTexas 2/10/2019 20:00 6.3 5.8 96.4 0.13 0 10.4 131 1019.6 96 11.4
DallasTexas 2/10/2019 21:00 6.3 5.6 95.25 0.13 0 11.3 135 1019.2 75.8 12.1
DallasTexas 2/10/2019 22:00 6.3 5.8 96.74 0 0 13.2 142 1018.2 79.1 12.7
DallasTexas 2/10/2019 23:00 6.8 6 95.18 0 0 8.8 147 1017.8 93.6 11.7
DallasTexas 2/11/2019 0:00 6.8 6.1 95.57 0 0 12.5 159 1017.4 81.8 8.8
DallasTexas 2/11/2019 1:00 7.1 6.8 97.57 0.11 0 9.2 144 1016.1 78.6 6.1
DallasTexas 2/11/2019 2:00 7.4 6.8 96.15 0.34 0 10.9 137 1015.4 80.8 4.5
DallasTexas 2/11/2019 3:00 7.5 7 96.73 0.55 0 13.6 109 1012.9 85.9 2.4
DallasTexas 2/11/2019 4:00 7.5 7.2 97.6 0.13 0 7.6 108 1012.3 85.9 2.2
DallasTexas 2/11/2019 5:00 7.5 7.5 99.56 0.01 0 6.8 234 1012.7 55.5 0.7
DallasTexas 2/11/2019 6:00 7.7 7.6 99.54 0.41 0 4.4 98 1012.6 79.1 2.1
DallasTexas 2/11/2019 7:00 8.1 7.7 97.27 0.18 0 10.4 119 1011.9 87.7 4.6
DallasTexas 2/11/2019 8:00 8.8 8.4 97.12 0.13 0 15.7 153 1011.4 81.4 5.4
DallasTexas 2/11/2019 9:00 9.5 9.1 97.7 0.04 0 13.8 174 1011.4 96.7 5.5
DallasTexas 2/11/2019 10:00 10.6 10.4 98.13 0 0 15 184 1010.9 99.6 6
DallasTexas 2/11/2019 11:00 12.1 11.4 95.78 0.06 0 12.3 189 1011.3 96 8.2
DallasTexas 2/11/2019 12:00 13.6 12.3 91.78 0.17 0 15.8 209 1010.7 92.5 10.8
DallasTexas 2/11/2019 13:00 14.6 13.1 90.49 0.12 0 14 208 1009 86.5 14.5
DallasTexas 2/11/2019 14:00 15 13.5 90.54 0.17 0 14.6 198 1008.6 83.5 11
DallasTexas 2/11/2019 15:00 14.7 13.5 92.65 0.46 0 14.4 207 1008.2 66.7 13.3
DallasTexas 2/11/2019 16:00 14.7 13.8 94.17 1.55 0 12.1 218 1008.1 76.6 6.5
DallasTexas 2/11/2019 17:00 14.6 13.7 94.17 1.9 0 14.3 228 1008.1 58.5 8
DallasTexas 2/11/2019 18:00 14.4 13.6 95.05 1.47 0 16 56 1006.6 68.6 14.5
DallasTexas 2/11/2019 19:00 14.3 13.2 92.87 0.11 0 14 107 1006.5 40.6 14.9
DallasTexas 2/11/2019 20:00 14.1 13.2 94.63 0 0 13 183 1007.3 59.6 15
DallasTexas 2/11/2019 21:00 13.6 13 95.74 0.01 0 16 177 1007.7 49 13.9
DallasTexas 2/11/2019 22:00 13.5 13 96.96 0 0 13.8 188 1007.4 43.3 14.8
DallasTexas 2/11/2019 23:00 14.2 12.9 92.08 0 0 15.5 232 1008.7 43.3 15.7
DallasTexas 2/12/2019 0:00 14 11 81.98 0 0 21.1 247 1008.8 41.7 16
DallasTexas 2/12/2019 1:00 13.1 4.4 55.5 0.01 0 21.9 266 1009.4 18.1 16
DallasTexas 2/12/2019 2:00 12.4 2.5 50.96 0 0 23.7 269 1010.4 16.4 16
DallasTexas 2/12/2019 3:00 11.1 2.6 55.47 0.01 0 24.1 303 1012.3 57.9 16
DallasTexas 2/12/2019 4:00 10.6 6.1 73.69 0 0 37 333 1014.5 63.7 16
DallasTexas 2/12/2019 5:00 8.7 4.6 75.39 0 0 34.3 328 1016.5 28.5 16
DallasTexas 2/12/2019 6:00 7.4 3 73.8 0 0 31.9 332 1018.5 21.8 16
DallasTexas 2/12/2019 7:00 6 1.8 74.61 0 0 34.6 342 1020.3 32.9 16
DallasTexas 2/12/2019 8:00 5.6 1.5 74.9 0 0 22 331 1021.9 13.5 16
DallasTexas 2/12/2019 9:00 6.2 1.1 69.93 0 0 25.2 334 1023.2 13.5 16
DallasTexas 2/12/2019 10:00 7.2 1.2 65.46 0 0 28.4 330 1024.2 15.4 16
DallasTexas 2/12/2019 11:00 8.7 0.9 58.3 0 0 25.5 329 1024.5 11.8 16
DallasTexas 2/12/2019 12:00 10.4 0.4 50.14 0 0 23.6 333 1024.7 11.8 16
DallasTexas 2/12/2019 13:00 11.5 -0.1 44.84 0 0 21.3 330 1024.3 0 16
DallasTexas 2/12/2019 14:00 12.3 -0.6 40.98 0 0 20.9 330 1023.8 13.5 16
DallasTexas 2/12/2019 15:00 13 -0.5 39.28 0 0 21.4 339 1023.8 11.8 16
DallasTexas 2/12/2019 16:00 13.5 -1.6 35.29 0 0 18.6 343 1024.2 0 16
DallasTexas 2/12/2019 17:00 13.5 -1.4 35.69 0 0 13.1 339 1024.2 0 16
DallasTexas 2/12/2019 18:00 12.4 -2.1 36.4 0 0 9.3 360 1024.7 13.4 16
DallasTexas 2/12/2019 19:00 11.1 -1.8 40.42 0 0 2.6 10 1025.6 11.8 16
DallasTexas 2/12/2019 20:00 7.9 0.1 57.76 0 0 0.1 355 1025.9 0 16
DallasTexas 2/12/2019 21:00 7.3 0 59.83 0 0 0.6 339 1026 0 16
DallasTexas 2/12/2019 22:00 5.9 0.6 68.85 0 0 3.4 288 1026.9 0 16
DallasTexas 2/12/2019 23:00 5.8 -0.1 65.84 0 0 4 296 1026.3 0 16
DallasTexas 2/13/2019 0:00 5.7 -0.4 65.04 0 0 3.6 278 1026.5 0 16
DallasTexas 2/13/2019 1:00 4.2 -0.5 71.79 0 0 3.6 282 1026.8 0 16
DallasTexas 2/13/2019 2:00 4.7 -0.5 69.08 0 0 7.5 251 1026.4 0 16
DallasTexas 2/13/2019 3:00 3.5 -0.8 73.65 0 0 3.3 292 1025.8 13.4 16
DallasTexas 2/13/2019 4:00 2.5 -0.9 78.24 0 0 3.5 283 1025.7 13.4 16
DallasTexas 2/13/2019 5:00 2.9 -1.3 73.88 0 0 8 15 1025 17 16
DallasTexas 2/13/2019 6:00 3.4 -1.5 70.34 0 0 7.8 11 1024.5 28.1 16
DallasTexas 2/13/2019 7:00 3.1 -1.7 70.68 0 0 10.3 20 1024.4 13.5 16
DallasTexas 2/13/2019 8:00 4.5 -1.1 66.97 0 0 12.3 75 1024.9 13.5 16
DallasTexas 2/13/2019 9:00 8 0.8 60.42 0 0 9.6 218 1025.1 13.5 16
DallasTexas 2/13/2019 10:00 10.9 0.6 48.89 0 0 18 165 1024.3 51.9 16
DallasTexas 2/13/2019 11:00 14.2 -0.7 35.94 0 0 20.4 177 1023.5 45.5 16
DallasTexas 2/13/2019 12:00 15.5 -1.6 30.91 0 0 24 184 1022 43.9 16
DallasTexas 2/13/2019 13:00 16.4 -1 30.59 0 0 31.3 177 1020.4 48.7 16
DallasTexas 2/13/2019 14:00 15.9 -0.2 33.43 0 0 31.3 176 1018.4 32.5 16
DallasTexas 2/13/2019 15:00 15.5 -0.1 34.64 0 0 27.2 181 1017.2 32.1 16
DallasTexas 2/13/2019 16:00 15 0.9 38.22 0 0 26.2 172 1016.9 36.6 16
DallasTexas 2/13/2019 17:00 14.2 0.9 40.23 0 0 24.1 182 1016.3 30.1 16
DallasTexas 2/13/2019 18:00 13.3 1.4 44.46 0 0 20.5 169 1015.3 30.1 16
DallasTexas 2/13/2019 19:00 12.6 1.9 47.82 0 0 23.8 165 1014.7 44.6 16
DallasTexas 2/13/2019 20:00 12.6 1.5 46.91 0 0 30.4 164 1013.7 46.3 16
DallasTexas 2/13/2019 21:00 12.3 2 49.19 0 0 25.5 174 1013.6 43.1 16
DallasTexas 2/13/2019 22:00 12.4 2 49.09 0 0 26 180 1013 34.2 16
DallasTexas 2/13/2019 23:00 12.6 2.6 50.67 0 0 25.9 184 1013 54 16
DallasTexas 2/14/2019 0:00 12.9 4.2 55.76 0 0 28.8 194 1012.3 44.3 16
DallasTexas 2/14/2019 1:00 12.5 6 64.45 0 0 27.8 188 1011.7 46.3 16
DallasTexas 2/14/2019 2:00 12.2 6.7 69.07 0 0 29.9 181 1010.9 37.4 16
DallasTexas 2/14/2019 3:00 11.8 7.1 72.86 0 0 25.2 181 1010.8 42.8 16
DallasTexas 2/14/2019 4:00 11.6 7.6 76.53 0 0 20.9 189 1011 43.9 16
DallasTexas 2/14/2019 5:00 11.2 8.1 80.89 0 0 24.4 188 1009.8 27.8 16
DallasTexas 2/14/2019 6:00 10.6 8.2 84.61 0 0 24.3 181 1009.1 29.9 16
DallasTexas 2/14/2019 7:00 10.4 8.2 86.11 0 0 21.6 176 1009.2 31.3 16
DallasTexas 2/14/2019 8:00 11 8.7 86.06 0 0 23.9 183 1008.6 31.6 16
DallasTexas 2/14/2019 9:00 13 9.2 77.28 0 0 29.2 202 1008.5 31.1 16
DallasTexas 2/14/2019 10:00 14.6 9.2 70.06 0.02 0 32.5 204 1007.6 29.4 16
DallasTexas 2/14/2019 11:00 16.7 9.7 63.06 0.02 0 24.2 212 1007.6 29.7 16
DallasTexas 2/14/2019 12:00 19.1 9.2 52.64 0 0 24 211 1007.3 30.5 16
DallasTexas 2/14/2019 13:00 21.7 9 44.15 0 0 21.5 215 1006.4 27.8 16
DallasTexas 2/14/2019 14:00 23.5 7.8 36.48 0 0 23.7 214 1005.3 29.9 16
DallasTexas 2/14/2019 15:00 24.1 7.3 33.93 0 0 20.9 210 1004.7 27.8 16
DallasTexas 2/14/2019 16:00 24.9 7.1 32.11 0 0 16.5 212 1004.7 27.8 16
DallasTexas 2/14/2019 17:00 25.1 7.8 33.37 0 0 11.7 199 1005.3 27.8 16
DallasTexas 2/14/2019 18:00 23.3 8.5 38.85 0 0 10.3 189 1005.7 27.8 16
DallasTexas 2/14/2019 19:00 19.7 9.6 52.21 0 0 9.1 149 1006.2 27.8 16
DallasTexas 2/14/2019 20:00 18.7 11.6 63.39 0 0 14.5 151 1006.5 25.3 16
DallasTexas 2/14/2019 21:00 18.1 12.1 68.05 0 0 12.9 44 1007.1 25.3 16
DallasTexas 2/14/2019 22:00 17 11.8 71.76 0 0 10 175 1007.4 24.7 16
DallasTexas 2/14/2019 23:00 15.9 11.5 74.97 0 0 11.5 178 1007.3 24.7 16
DallasTexas 2/15/2019 0:00 15.2 11.5 78.2 0 0 11.7 179 1007.1 24.7 16
DallasTexas 2/15/2019 1:00 14.4 11.2 80.91 0 0 12 30 1006.5 19.1 16
DallasTexas 2/15/2019 2:00 13.7 10.8 82.71 0 0 12.3 24 1006.3 32.9 16
DallasTexas 2/15/2019 3:00 13.4 11 85.33 0 0 11.9 30 1005.8 34.2 16
DallasTexas 2/15/2019 4:00 13.1 11 87.12 0 0 8.9 34 1005.6 35.7 16
DallasTexas 2/15/2019 5:00 13 10.9 87.51 0 0 11.3 154 1004.7 28.6 16
DallasTexas 2/15/2019 6:00 12.1 10.7 90.76 0 0 9 357 1005.3 28.6 16
DallasTexas 2/15/2019 7:00 12 10.4 90.39 0 0 4.8 289 1005.1 32.1 15.7
DallasTexas 2/15/2019 8:00 12.1 10.7 91.41 0 0 3.2 276 1005.7 37.5 15.9
DallasTexas 2/15/2019 9:00 14.3 11.4 82.84 0 0 7.4 194 1006.3 32.9 16
DallasTexas 2/15/2019 10:00 16 11.3 73.92 0 0 11.1 200 1005.5 33.5 16
DallasTexas 2/15/2019 11:00 18.2 11 62.7 0 0 12.7 206 1005.1 29.9 16
DallasTexas 2/15/2019 12:00 20.4 10.9 54.61 0 0 11.8 248 1005.1 29.9 16
DallasTexas 2/15/2019 13:00 22.5 10.9 47.75 0 0 8.3 277 1004.1 33.7 16
DallasTexas 2/15/2019 14:00 23.7 10.6 43.56 0 0 17.3 304 1004 30.6 16
DallasTexas 2/15/2019 15:00 23.1 10.7 45.77 0 0 21 344 1004.9 30.6 16
DallasTexas 2/15/2019 16:00 21 9.4 47.54 0 0 23.6 343 1005.8 37.2 16
DallasTexas 2/15/2019 17:00 18.2 7.6 49.85 0 0 23.2 348 1007 29.9 16
DallasTexas 2/15/2019 18:00 15 5.6 53.09 0 0 23.1 340 1008.2 33.2 16
DallasTexas 2/15/2019 19:00 12 3.7 57.03 0 0 27.9 353 1009.9 29.7 16
DallasTexas 2/15/2019 20:00 9.3 2.2 61.32 0 0 20.3 346 1011.2 37.4 16
DallasTexas 2/15/2019 21:00 7.2 1.2 65.57 0 0 31.6 352 1012.4 25 16
DallasTexas 2/15/2019 22:00 5.2 0.4 70.72 0 0 26.5 352 1013.3 27.3 16
DallasTexas 2/15/2019 23:00 3.6 -0.5 74.29 0 0 25.4 358 1013.5 49.1 16
DallasTexas 2/16/2019 0:00 3 -1 75.05 0 0 24.7 7 1013.6 70.7 16
DallasTexas 2/16/2019 1:00 2.5 -1.4 75.33 0 0 21.3 9 1013.4 84.1 16
DallasTexas 2/16/2019 2:00 2.3 -1.6 75.81 0 0 21.3 353 1014.2 85.9 16
DallasTexas 2/16/2019 3:00 1.9 -1.6 77.63 0 0 18.8 357 1012.8 85.9 16
DallasTexas 2/16/2019 4:00 2 -0.9 80.99 0 0 22.1 350 1013.1 85.9 16
DallasTexas 2/16/2019 5:00 1.5 -0.8 84.68 0 0 16 5 1012.3 85.9 16
DallasTexas 2/16/2019 6:00 1.5 -0.6 86.31 0 0 11.6 17 1012.5 85.9 15.4
DallasTexas 2/16/2019 7:00 1.3 -0.2 89.42 0 0 17.5 9 1012.8 100 12.2
DallasTexas 2/16/2019 8:00 1.3 -0.4 87.83 0 0 10.9 24 1013.7 96.8 8.7
DallasTexas 2/16/2019 9:00 1.4 0.1 91.37 0 0 7.7 31 1014.2 100 7.3
DallasTexas 2/16/2019 10:00 1.8 0.2 88.62 0 0 6.1 4 1013 100 9.1
DallasTexas 2/16/2019 11:00 2.3 0.5 88.38 0 0 6.7 346 1012.8 100 12
DallasTexas 2/16/2019 12:00 2.8 0.7 86.56 0 0 3.7 12 1011.8 100 12.3
DallasTexas 2/16/2019 13:00 3 0.8 85.51 0 0 2.6 326 1010.3 100 11.7
DallasTexas 2/16/2019 14:00 3.7 1.3 84.23 0 0 2.3 70 1008.5 100 10.1
DallasTexas 2/16/2019 15:00 4.5 1.8 82.58 0 0 0.1 5 1007.3 100 10.6
DallasTexas 2/16/2019 16:00 5 2.2 82.31 0 0 1.4 26 1006.4 100 10.5
DallasTexas 2/16/2019 17:00 5.2 2.4 81.97 0 0 7.8 105 1005.7 100 9.8
DallasTexas 2/16/2019 18:00 5 2.9 86.18 0 0 13.3 132 1005 100 7.6
DallasTexas 2/16/2019 19:00 4.7 3.7 93.13 0 0 12.5 134 1005.3 100 3.8
DallasTexas 2/16/2019 20:00 4.7 4.2 96.37 0 0 11.1 124 1005.5 100 3.3
DallasTexas 2/16/2019 21:00 5.1 4.2 94.47 0 0 15.9 129 1004.7 100 4.2
DallasTexas 2/16/2019 22:00 5.6 4.9 94.98 0 0 16.2 137 1004.7 85.9 4.4
DallasTexas 2/16/2019 23:00 5.7 5.2 96.54 0.04 0 3.1 116 1005.4 85.9 2.7
DallasTexas 2/17/2019 0:00 5.9 5.7 98.48 0 0 4.9 119 1005.2 82.7 2.5
DallasTexas 2/17/2019 1:00 6.2 5.7 96.35 0 0 0.4 359 1005.5 86 2.8
DallasTexas 2/17/2019 2:00 6.6 6 95.72 0 0 10.2 355 1006.7 85.7 2.8
DallasTexas 2/17/2019 3:00 6.7 6.4 97.92 0.2 0 2.8 16 1006.2 85.9 2.8
DallasTexas 2/17/2019 4:00 6.7 6.2 97.07 0 0 15.6 354 1007.3 85.9 2.7
DallasTexas 2/17/2019 5:00 6.4 5.9 96.5 0 0 15.6 344 1009.1 85.6 5.7
DallasTexas 2/17/2019 6:00 6.2 4.9 91.37 0 0 18.4 348 1010.1 84.6 14.4
DallasTexas 2/17/2019 7:00 5.6 4.1 89.67 0 0 21.6 342 1011.4 82.6 15
DallasTexas 2/17/2019 8:00 5.1 3 86.52 0 0 24.6 344 1012.4 82.7 13.7
DallasTexas 2/17/2019 9:00 4.1 1.5 82.82 0 0 29.3 347 1013.7 97.6 15
DallasTexas 2/17/2019 10:00 4.6 0.4 74.49 0 0 23.8 344 1015.3 75 14.9
DallasTexas 2/17/2019 11:00 5.6 0.3 68.75 0 0 19.7 354 1015.5 49.3 15.3
DallasTexas 2/17/2019 12:00 7.5 0.6 61.69 0 0 18.7 349 1016.1 46.5 16
DallasTexas 2/17/2019 13:00 8.9 0.9 57.13 0 0 16.9 359 1015.6 30.5 16
DallasTexas 2/17/2019 14:00 9.6 0.3 52.39 0 0 15.2 355 1014.9 34.2 16
DallasTexas 2/17/2019 15:00 10.7 -0.2 46.8 0 0 16.6 1 1014.5 32.5 16
DallasTexas 2/17/2019 16:00 11.2 -0.5 44.3 0 0 14.6 15 1014.3 27.8 16
DallasTexas 2/17/2019 17:00 11 -0.8 44.16 0 0 13.7 13 1014.6 33.8 16
DallasTexas 2/17/2019 18:00 9.9 -0.5 48.43 0 0 13.8 13 1015.5 29.7 16
DallasTexas 2/17/2019 19:00 8.8 -0.5 51.97 0 0 12.9 1 1016.9 40.2 16
DallasTexas 2/17/2019 20:00 8.3 -1.4 50.47 0 0 12.1 8 1018.2 28.6 16
DallasTexas 2/17/2019 21:00 7.5 -1.4 53.31 0 0 11.9 11 1018.6 19.1 16
DallasTexas 2/17/2019 22:00 6.6 -1.5 56.44 0 0 11.8 17 1018.9 16.1 16
DallasTexas 2/17/2019 23:00 6.5 -1.4 56.96 0 0 10.5 30 1019.9 50 16
DallasTexas 2/18/2019 0:00 6.8 -1.8 54.1 0 0 13.1 34 1020.2 50 16
DallasTexas 2/18/2019 1:00 6.3 -2.3 53.9 0 0 16.7 41 1020.6 40.2 16
DallasTexas 2/18/2019 2:00 5.8 -2.7 54.39 0 0 15.9 41 1021.5 40.2 16
DallasTexas 2/18/2019 3:00 5.1 -2.7 57.05 0 0 13 40 1022.1 38.9 16
DallasTexas 2/18/2019 4:00 4.1 -2.8 60.78 0 0 16.8 36 1022.6 32.5 16
DallasTexas 2/18/2019 5:00 3.5 -2.9 62.74 0 0 17 31 1023.3 38.9 16
DallasTexas 2/18/2019 6:00 2.7 -3.4 64.24 0 0 17 30 1024.2 38.9 16
DallasTexas 2/18/2019 7:00 2 -4.5 62.03 0 0 21.5 31 1024.7 33.5 16
DallasTexas 2/18/2019 8:00 1.4 -5.3 61.13 0 0 19.7 32 1025.6 44.8 16
DallasTexas 2/18/2019 9:00 1.4 -5.6 59.89 0 0 22.7 22 1026.6 44.8 16
DallasTexas 2/18/2019 10:00 2.2 -5.8 55.29 0 0 21.4 19 1027.2 44.4 16
DallasTexas 2/18/2019 11:00 3 -5.8 52.53 0 0 19.9 18 1027.5 46.8 16
DallasTexas 2/18/2019 12:00 4.1 -5.3 50.29 0 0 19.5 10 1027.4 49.4 16
DallasTexas 2/18/2019 13:00 5.2 -4.8 48.47 0 0 16.3 30 1027 46 16
DallasTexas 2/18/2019 14:00 5.3 -4.5 49.07 0 0 15.2 33 1026.1 44.8 16
DallasTexas 2/18/2019 15:00 6.7 -4.3 45.62 0 0 15.7 34 1025.5 32.6 16
DallasTexas 2/18/2019 16:00 6.3 -4.4 46.47 0 0 17.7 34 1025.1 46.3 16
DallasTexas 2/18/2019 17:00 6.1 -4.5 46.33 0 0 16.5 31 1025.1 46.3 16
DallasTexas 2/18/2019 18:00 5.3 -4.5 49.15 0 0 18.6 35 1024.7 32.1 16
DallasTexas 2/18/2019 19:00 4.7 -5 49.57 0 0 16.4 31 1025.4 32.1 16
DallasTexas 2/18/2019 20:00 4.3 -5.1 50.5 0 0 17.4 36 1025.6 35.2 16
DallasTexas 2/18/2019 21:00 4.1 -5.1 51.05 0 0 15.9 47 1025.6 41.6 16
DallasTexas 2/18/2019 22:00 3.8 -4.8 53.15 0 0 12.9 29 1026.3 38 16
DallasTexas 2/18/2019 23:00 3.5 -4.7 54.82 0 0 11.2 30 1026.1 68.4 16
DallasTexas 2/19/2019 0:00 3.4 -4.2 57.67 0 0 13.1 31 1025.4 54.8 16
DallasTexas 2/19/2019 1:00 3.2 -3.9 59.62 0 0 13.6 42 1024.1 33.9 16
DallasTexas 2/19/2019 2:00 3.5 -2.9 62.8 0 0 14.2 56 1023.3 36.9 16
DallasTexas 2/19/2019 3:00 3.9 -2.7 61.94 0 0 17 68 1023.1 66.5 16
DallasTexas 2/19/2019 4:00 4.1 -2.9 60.41 0 0 17.3 61 1022.5 79.4 16
DallasTexas 2/19/2019 5:00 4 -3.1 59.58 0 0 15.6 76 1022.1 83 16
DallasTexas 2/19/2019 6:00 3.6 -1.7 68.29 0 0 12.5 72 1022.3 82.8 13.6
DallasTexas 2/19/2019 7:00 2.9 -0.8 76.71 0.03 0 13 45 1021.6 84.1 14.5
DallasTexas 2/19/2019 8:00 2.8 -0.7 77.69 0 0 16.1 49 1021.7 96.1 14.7
DallasTexas 2/19/2019 9:00 2.7 -0.2 81.1 0.05 0 17.8 45 1020.8 77.9 14.1
DallasTexas 2/19/2019 10:00 2.7 0.1 83.26 0.81 0 16.6 65 1020.3 82.7 7
DallasTexas 2/19/2019 11:00 2.7 1.5 91.39 2.45 0 11.2 60 1020.2 76.5 4.6
DallasTexas 2/19/2019 12:00 2.8 1.9 93.64 1.56 0 9.8 11 1019.5 98.8 3.1
DallasTexas 2/19/2019 13:00 2.9 2.1 94.33 0.86 0 10.3 45 1018.2 92.5 3
DallasTexas 2/19/2019 14:00 3.3 2.6 94.79 1.75 0 13.6 57 1015.9 93.7 5.4
DallasTexas 2/19/2019 15:00 3.5 2.6 93.86 0.51 0 12.1 63 1014.3 89.7 9
DallasTexas 2/19/2019 16:00 3.8 2.8 93.63 0.16 0 11 18 1013.8 88.4 6.7
DallasTexas 2/19/2019 17:00 3.8 2.9 94.06 0.38 0 13 354 1014 96.5 4.6
DallasTexas 2/19/2019 18:00 3.8 2.9 93.77 0.1 0 11.5 34 1012.9 87.3 11.4
DallasTexas 2/19/2019 19:00 3.8 2.8 93.5 0.04 0 10.1 28 1012.8 87.1 15.5
DallasTexas 2/19/2019 20:00 3.8 2.8 93.5 0.28 0 9.1 4 1013.3 84.4 8
DallasTexas 2/19/2019 21:00 3.8 2.6 92.23 0.05 0 7.8 8 1013.6 80 14.9
DallasTexas 2/19/2019 22:00 3.8 2.7 92.28 0 0 10.8 336 1013.9 65.1 9.6
DallasTexas 2/19/2019 23:00 3.8 2.7 92.26 0 0 8.8 329 1014.1 80.7 13.5
DallasTexas 2/20/2019 0:00 3.6 2.6 93.48 0 0 9.8 330 1013.7 82.4 14.2
DallasTexas 2/20/2019 1:00 3.6 2.6 93.12 0 0 8.9 305 1013.4 81.3 14.1
DallasTexas 2/20/2019 2:00 3.8 2.5 90.79 0 0 16.1 303 1013.6 79 14.1
DallasTexas 2/20/2019 3:00 3.5 1.7 88.29 0 0 20.8 301 1013.9 85.5 15.9
DallasTexas 2/20/2019 4:00 3.5 1.9 89.33 0.03 0 17.6 298 1013.7 85.9 16
DallasTexas 2/20/2019 5:00 3.4 1.6 88.02 0.18 0 20.3 303 1013.8 85.9 16
DallasTexas 2/20/2019 6:00 3.1 1.2 87.51 0 0 16.9 300 1014.1 85.8 16
DallasTexas 2/20/2019 7:00 3.3 1.2 86.18 0 0 14.1 300 1014.7 100 16
DallasTexas 2/20/2019 8:00 3.4 1.2 85.69 0 0 11.1 292 1015.7 100 16
DallasTexas 2/20/2019 9:00 4 1.2 82.43 0 0 5.9 289 1016.2 91.1 16
DallasTexas 2/20/2019 10:00 5.4 1.5 75.88 0 0 5.2 272 1016.2 46.2 16
DallasTexas 2/20/2019 11:00 7.6 2.4 69.98 0 0 7.4 227 1016.3 46.9 16
DallasTexas 2/20/2019 12:00 9 2.3 63.15 0 0 7.4 247 1015.4 27.3 16
DallasTexas 2/20/2019 13:00 11 2.5 55.76 0 0 9.3 219 1014.6 50 16
DallasTexas 2/20/2019 14:00 12.5 1.9 48.54 0 0 7.8 278 1013.5 50.8 16
DallasTexas 2/20/2019 15:00 13.2 1.8 45.86 0 0 4.9 347 1013 50 16
DallasTexas 2/20/2019 16:00 13.5 2.1 46.05 0 0 9.5 271 1013 48.7 16
DallasTexas 2/20/2019 17:00 13.4 2.1 46.16 0 0 12.3 161 1013.2 47.8 16
DallasTexas 2/20/2019 18:00 12.3 2.2 50.18 0 0 12.8 147 1013.5 48.2 16
DallasTexas 2/20/2019 19:00 10.9 3.6 60.8 0 0 10.5 136 1014.1 57.9 16
DallasTexas 2/20/2019 20:00 10 3.2 62.7 0 0 12.3 114 1014.4 57.9 16
DallasTexas 2/20/2019 21:00 9 3.1 66.67 0 0 9.4 119 1015.1 57.9 16
DallasTexas 2/20/2019 22:00 8.1 2.9 69.66 0 0 9.9 113 1015.6 50 16
DallasTexas 2/20/2019 23:00 7.8 3.3 72.91 0 0 8 108 1015.6 51.2 16
DallasTexas 2/21/2019 0:00 7.2 3.1 75.21 0 0 6.8 96 1015.3 50 16
DallasTexas 2/21/2019 1:00 6.9 2.6 73.93 0 0 8.9 122 1014.7 32.5 16
DallasTexas 2/21/2019 2:00 5.8 2.3 78.15 0 0 10 127 1015.8 38 16
DallasTexas 2/21/2019 3:00 6.1 2.2 75.84 0 0 9.7 105 1015.6 47.8 16
DallasTexas 2/21/2019 4:00 6 1.9 75.24 0 0 9.8 106 1015.5 40.2 16
DallasTexas 2/21/2019 5:00 6.2 1.8 73.42 0 0 9.5 116 1015.4 53.6 16
DallasTexas 2/21/2019 6:00 6.6 2.1 73.2 0 0 10.3 97 1015.4 51.8 16
DallasTexas 2/21/2019 7:00 6.7 2.3 73.55 0 0 9 101 1015.9 65.3 15.9
DallasTexas 2/21/2019 8:00 7.3 3.4 76.18 0.04 0 15 99 1016.3 74.8 16
DallasTexas 2/21/2019 9:00 7.6 4 78.24 0.12 0 15 72 1016.9 82.7 14.3
DallasTexas 2/21/2019 10:00 8.3 4 74.43 0.13 0 10.8 91 1017.5 68 16
DallasTexas 2/21/2019 11:00 8.4 4.5 76.72 1.69 0 10.9 83 1017.8 84.6 15
DallasTexas 2/21/2019 12:00 9.4 4.5 71.16 0.22 0 23.1 100 1016.6 79.8 16
DallasTexas 2/21/2019 13:00 9.9 4.1 67.21 0.01 0 18.3 103 1016.6 77.9 16
DallasTexas 2/21/2019 14:00 9.8 4.1 67.55 0.14 0 22.5 102 1014.7 84.6 16
DallasTexas 2/21/2019 15:00 10.5 4.1 64.79 0 0 19 87 1014 90.2 16
DallasTexas 2/21/2019 16:00 10.7 3.6 61.65 0 0 20.2 95 1014.8 89.8 16
DallasTexas 2/21/2019 17:00 10.3 3.8 64.03 0 0 19.3 73 1014.2 90.4 16
DallasTexas 2/21/2019 18:00 9.7 3.8 66.98 0 0 15.2 95 1014.2 78.7 16
DallasTexas 2/21/2019 19:00 9.5 4.3 69.78 0 0 19.7 96 1014 94.9 16
DallasTexas 2/21/2019 20:00 9.1 4.8 74.47 0 0 17.2 97 1014.6 77.3 16
DallasTexas 2/21/2019 21:00 9 5.4 78.05 0 0 14.8 96 1015 95.8 16
DallasTexas 2/21/2019 22:00 8.9 5.9 81.79 0 0 6.5 47 1016.3 99.9 16
DallasTexas 2/21/2019 23:00 8.8 6.1 83.63 0 0 12.7 92 1016.5 100 15.4
DallasTexas 2/22/2019 0:00 8.7 6.1 83.45 0 0 15.6 94 1016 100 15.9
DallasTexas 2/22/2019 1:00 8.4 6.3 86.82 0 0 14.3 93 1015.7 100 16
DallasTexas 2/22/2019 2:00 8.3 6.5 88.17 0 0 14.5 96 1016.1 100 16
DallasTexas 2/22/2019 3:00 7.9 6.6 91.81 0 0 12.1 80 1015.7 100 15.8
DallasTexas 2/22/2019 4:00 7.9 7 94.23 0 0 15.2 84 1014.8 100 9.1
DallasTexas 2/22/2019 5:00 7.8 7 94.99 0.02 0 16.8 101 1014.7 85.9 6.8
DallasTexas 2/22/2019 6:00 7.8 7.3 96.67 0.24 0 21.1 98 1013.8 85.9 4
DallasTexas 2/22/2019 7:00 7.8 7.4 96.97 0.03 0 13.4 118 1015 100 2.9
DallasTexas 2/22/2019 8:00 7.9 7.5 97.71 0 0 6.7 28 1015.6 100 1.2
DallasTexas 2/22/2019 9:00 8.2 7.8 97.56 0 0 6.2 13 1017.1 100 2
DallasTexas 2/22/2019 10:00 8.4 7.9 96.67 0.01 0 4.6 16 1017.7 85.9 2.4
DallasTexas 2/22/2019 11:00 8.6 8 95.57 0.14 0 10.8 41 1017.1 100 5.3
DallasTexas 2/22/2019 12:00 9.1 8.1 93.54 0.29 0 11.9 49 1016.3 85.4 13.3
DallasTexas 2/22/2019 13:00 9.2 8.2 93.62 0.05 0 12.7 64 1015 100 11.1
DallasTexas 2/22/2019 14:00 9 8.2 95.05 0.11 0 10.9 66 1013.8 85.8 6.7
DallasTexas 2/22/2019 15:00 9.4 8.6 94.91 0.49 0 12.3 80 1013.3 82.4 4.4
DallasTexas 2/22/2019 16:00 9.5 8.7 94.75 0.02 0 12.2 86 1013.1 82.9 8.8
DallasTexas 2/22/2019 17:00 9.5 8.7 94.7 0 0 9.4 80 1013.3 99.7 9
DallasTexas 2/22/2019 18:00 9.5 8.7 94.84 0 0 11.7 92 1012.7 83.2 7.9
DallasTexas 2/22/2019 19:00 9.4 8.7 95.07 0 0 8.2 93 1012.6 99.1 8.5
DallasTexas 2/22/2019 20:00 9.4 8.7 95.34 0 0 7.9 110 1012.5 100 10.2
DallasTexas 2/22/2019 21:00 9.4 8.7 95.51 0 0 3.7 79 1012.4 88.6 8
DallasTexas 2/22/2019 22:00 9.6 8.8 94.89 0 0 5.7 90 1012.1 85.2 7.3
DallasTexas 2/22/2019 23:00 9.6 9.1 96.75 0 0 9.2 119 1011.3 98.9 8
DallasTexas 2/23/2019 0:00 9.7 9.2 96.64 0 0 7.5 103 1010.3 98 5.3
DallasTexas 2/23/2019 1:00 9.7 9.6 99.14 0 0 5.8 85 1009.8 90.9 3.6
DallasTexas 2/23/2019 2:00 9.8 9.7 99.34 0 0 9 104 1008.8 64.9 1.5
DallasTexas 2/23/2019 3:00 10.2 10.1 99.41 0.02 0 5.7 95 1008.3 90.8 1.5
DallasTexas 2/23/2019 4:00 10.1 10 99.69 0 0 7.3 117 1008.2 78.8 1.4
DallasTexas 2/23/2019 5:00 10.3 10 98.37 0 0 5.6 139 1008.3 55.5 0.9
DallasTexas 2/23/2019 6:00 10.4 10.2 98.61 0.07 0 8.4 257 1008.9 81 3
DallasTexas 2/23/2019 7:00 10.5 10.5 99.73 0.33 0 10.1 225 1009.3 97.2 10.1
DallasTexas 2/23/2019 8:00 11.6 11.1 96.74 0.01 0 11.4 241 1009.6 68.6 14.4
DallasTexas 2/23/2019 9:00 13.3 9.8 79.73 0.04 0 17.1 245 1010 15.7 15.8
DallasTexas 2/23/2019 10:00 15.2 2.2 41.46 0 0 30.6 263 1010.1 24.7 15.8
DallasTexas 2/23/2019 11:00 16.4 0.4 33.85 0 0 30.8 268 1010.1 45 16
DallasTexas 2/23/2019 12:00 18 -1.5 26.61 0 0 33.5 256 1009.7 50 16
DallasTexas 2/23/2019 13:00 19 -2.9 22.49 0 0 31.8 248 1008.7 43.9 16
DallasTexas 2/23/2019 14:00 19.4 -3.4 21.27 0 0 31.6 243 1008.4 35.4 16
DallasTexas 2/23/2019 15:00 19.9 -3.4 20.59 0 0 32.6 239 1008.4 35.4 16
DallasTexas 2/23/2019 16:00 20.1 -3.5 20.01 0 0 29.1 239 1008.9 29.7 16
DallasTexas 2/23/2019 17:00 20 -3.6 20.07 0 0 36.7 258 1009.7 21.5 15.8
DallasTexas 2/23/2019 18:00 18.9 -3.6 21.56 0 0 30 268 1010.8 27.4 13
DallasTexas 2/23/2019 19:00 16.8 0.1 32.16 0 0 34.4 297 1013 32.6 14.5
DallasTexas 2/23/2019 20:00 13.2 0.7 42.55 0 0 32.1 311 1016 14 16
DallasTexas 2/23/2019 21:00 11.5 0.5 46.6 0 0 33.3 310 1017.4 13.5 16
DallasTexas 2/23/2019 22:00 10.7 0.3 48.71 0 0 22.1 303 1019 15.4 16
DallasTexas 2/23/2019 23:00 9.8 0.6 52.68 0 0 22.6 307 1020.2 15.4 16
DallasTexas 2/24/2019 0:00 9 -0.2 52.32 0 0 30.6 318 1021.5 15.4 16
DallasTexas 2/24/2019 1:00 7.8 -0.4 55.99 0 0 17.3 323 1022.6 15.4 16
DallasTexas 2/24/2019 2:00 6.7 -0.3 60.86 0 0 16.7 319 1023.7 13.4 16
DallasTexas 2/24/2019 3:00 6.1 -0.5 62.75 0 0 18.4 329 1024.3 14.2 16
DallasTexas 2/24/2019 4:00 5.1 -0.5 67.15 0 0 18.7 335 1024.9 15.1 16
DallasTexas 2/24/2019 5:00 4.3 -1 68.41 0 0 17.1 335 1025.7 14.9 16
DallasTexas 2/24/2019 6:00 3.4 -1.1 72.26 0 0 12.3 330 1026.3 14.2 16
DallasTexas 2/24/2019 7:00 2.3 -1.6 75.33 0 0 11.5 331 1026.9 15 16
DallasTexas 2/24/2019 8:00 3.8 -1.2 69.9 0 0 16.5 335 1027.4 15 16
DallasTexas 2/24/2019 9:00 6.4 -2.4 53.37 0 0 18.2 351 1028.7 20.2 16
DallasTexas 2/24/2019 10:00 8.3 -4.2 41.09 0 0 21 359 1029.1 2.6 16
DallasTexas 2/24/2019 11:00 9.7 -5.3 34.33 0 0 19.3 18 1029.1 2 16
DallasTexas 2/24/2019 12:00 11.4 -5.2 30.82 0 0 14.1 24 1028.8 2.8 16
DallasTexas 2/24/2019 13:00 12.9 -4.3 29.93 0 0 11.8 10 1028.6 2 16
DallasTexas 2/24/2019 14:00 14.2 -4.5 27.11 0 0 8.9 26 1027.5 2 16
DallasTexas 2/24/2019 15:00 14.5 -5.4 24.75 0 0 10 20 1026.9 0 16
DallasTexas 2/24/2019 16:00 15.1 -5.6 23.43 0 0 11.3 59 1026.9 0 16
DallasTexas 2/24/2019 17:00 14.7 -5.5 24.25 0 0 7.8 95 1026.6 1.8 16
DallasTexas 2/24/2019 18:00 13.5 -5.2 26.91 0 0 12.2 83 1026.3 2 16
DallasTexas 2/24/2019 19:00 11.6 -4.4 32.42 0 0 7.3 78 1026.7 15.4 16
DallasTexas 2/24/2019 20:00 10.2 -3.4 38.44 0 0 4.6 72 1027.1 13.5 16
DallasTexas 2/24/2019 21:00 8.6 -2.4 45.9 0 0 5.9 71 1027.4 15.4 16
DallasTexas 2/24/2019 22:00 7.3 -1.9 52.13 0 0 5.5 80 1027.2 16.7 16
DallasTexas 2/24/2019 23:00 6.7 -1.6 55.73 0 0 0.2 5 1027.3 16.9 16
DallasTexas 2/25/2019 0:00 5.2 -1.2 63.24 0 0 4.1 58 1027.1 17.6 16
DallasTexas 2/25/2019 1:00 4.8 -1.2 65.07 0 0 0.6 7 1026.7 19.4 16
DallasTexas 2/25/2019 2:00 3.9 -0.9 70.99 0 0 0.3 7 1026.8 21.1 16
DallasTexas 2/25/2019 3:00 3.5 -1.2 71.38 0 0 3.6 77 1026.3 26 16
DallasTexas 2/25/2019 4:00 4 -1.6 66.96 0 0 5.8 86 1025.9 26 16
DallasTexas 2/25/2019 5:00 4.1 -1.8 65.37 0 0 8 110 1025.9 27.4 16
DallasTexas 2/25/2019 6:00 4.7 -1.6 63.77 0 0 9.7 105 1026.3 74.4 16
DallasTexas 2/25/2019 7:00 5.1 -1.8 60.89 0 0 10.6 113 1026.2 67.1 16
DallasTexas 2/25/2019 8:00 5.8 -1.5 59.36 0 0 9.3 101 1026.4 34.8 16
DallasTexas 2/25/2019 9:00 8.1 -0.7 53.75 0 0 13.8 129 1027 87.4 16
DallasTexas 2/25/2019 10:00 10.7 -0.9 44.59 0 0 21.6 139 1027.3 55.3 16
DallasTexas 2/25/2019 11:00 12.9 -0.7 39.2 0 0 28.4 138 1026.8 35 16
DallasTexas 2/25/2019 12:00 14.8 -0.2 35.92 0 0 23 137 1026.4 28.9 16
DallasTexas 2/25/2019 13:00 16.5 -1.8 28.61 0 0 28.1 144 1024.8 31 16
DallasTexas 2/25/2019 14:00 17.1 -2.3 26.53 0 0 24.8 154 1023.2 15.6 16
DallasTexas 2/25/2019 15:00 17.5 -1.9 26.62 0 0 25.4 157 1022.1 14.3 16
DallasTexas 2/25/2019 16:00 17.2 -0.4 30.33 0 0 25.1 151 1021.5 17.6 16
DallasTexas 2/25/2019 17:00 16.9 0.3 32.31 0 0 21.6 140 1021.1 2.3 16
DallasTexas 2/25/2019 18:00 15.7 0.6 35.68 0 0 23.7 143 1021.4 2.4 16
DallasTexas 2/25/2019 19:00 14.1 1.2 41.48 0 0 18.7 138 1021.6 15.3 16
DallasTexas 2/25/2019 20:00 13 1.8 46.57 0 0 19 138 1021.7 15.3 16
DallasTexas 2/25/2019 21:00 12.7 2.3 49.41 0 0 17.7 147 1022 5.1 16
DallasTexas 2/25/2019 22:00 12 2.9 53.83 0 0 19.4 153 1022.1 40.7 16
DallasTexas 2/25/2019 23:00 11.4 3.2 56.74 0 0 19.6 148 1022.2 29.1 16
DallasTexas 2/26/2019 0:00 11 3.7 60.97 0 0 16.6 155 1021.8 17.2 16
DallasTexas 2/26/2019 1:00 10.4 4.8 67.95 0 0 16.5 150 1021.5 35.6 16
DallasTexas 2/26/2019 2:00 10.3 5.5 71.8 0 0 16.1 157 1021.3 72.8 16
DallasTexas 2/26/2019 3:00 10.1 6.3 77 0 0 16.9 150 1020.8 76.9 16
DallasTexas 2/26/2019 4:00 10.4 6.3 75.63 0 0 12.8 155 1020.8 83.1 16
DallasTexas 2/26/2019 5:00 10.4 6.4 75.99 0 0 12.1 142 1020.9 84.1 16
DallasTexas 2/26/2019 6:00 10.4 6.6 76.98 0 0 10.2 122 1021.3 83.4 16
DallasTexas 2/26/2019 7:00 10.5 6.9 78.7 0 0 9.2 109 1021.7 94.8 16
DallasTexas 2/26/2019 8:00 10.6 6.8 77.6 0 0 7.5 118 1022.2 96.7 15.9
DallasTexas 2/26/2019 9:00 11.3 7.4 76.97 0 0 9.2 113 1022.8 97.7 15.7
DallasTexas 2/26/2019 10:00 11.9 8.4 79.29 0 0 12.1 131 1022.6 99.6 14.9
DallasTexas 2/26/2019 11:00 12.7 9.1 78.7 0 0 12.5 140 1022.8 99.3 15.7
DallasTexas 2/26/2019 12:00 13.1 9.7 79.78 0 0 14.8 158 1022.5 100 15.8
DallasTexas 2/26/2019 13:00 14.2 10.6 78.81 0 0 13.4 141 1021.7 92.9 16
DallasTexas 2/26/2019 14:00 15.3 11 75.68 0 0 14.2 119 1020.3 77.8 16
DallasTexas 2/26/2019 15:00 16.1 11.5 74.15 0 0 13.3 125 1019.3 88.4 16
DallasTexas 2/26/2019 16:00 16.2 11.9 75.88 0 0 15.2 126 1019 85.7 16
DallasTexas 2/26/2019 17:00 16.4 12 75.13 0 0 18.2 119 1018.5 93.8 16
DallasTexas 2/26/2019 18:00 15.8 12.5 80.9 0 0 17.2 126 1018.3 100 16
DallasTexas 2/26/2019 19:00 14.8 12.7 87.04 0 0 19.2 130 1018.5 99.6 16
DallasTexas 2/26/2019 20:00 14.4 12.9 90.59 0 0 14.3 118 1019 100 15.7
DallasTexas 2/26/2019 21:00 14.2 12.9 91.73 0 0 17.7 128 1018.9 99.9 15.6
DallasTexas 2/26/2019 22:00 13.9 13.1 95.01 0 0 12.8 138 1019.2 99.9 12.1
DallasTexas 2/26/2019 23:00 13.8 13.1 95.39 0 0 11 147 1019 100 7.2
DallasTexas 2/27/2019 0:00 13.8 13.1 95.57 0 0 7.2 121 1019.1 100 5.2
DallasTexas 2/27/2019 1:00 13.4 13.1 97.78 0.01 0 10.8 122 1018.6 100 2
DallasTexas 2/27/2019 2:00 13.4 13.1 97.99 0 0 9.4 137 1018.5 99.2 3.6
DallasTexas 2/27/2019 3:00 13.4 13.1 98 0 0 8.5 146 1018 99.2 3
DallasTexas 2/27/2019 4:00 13.4 13 97.91 0 0 12.2 132 1017.4 97 2.3
DallasTexas 2/27/2019 5:00 13.4 13 97.91 0 0 9.3 142 1017.6 96.9 1.8
DallasTexas 2/27/2019 6:00 13.4 13.1 97.95 0.03 0 8.2 143 1017.9 84.1 2.6
DallasTexas 2/27/2019 7:00 13.4 13.1 98.23 0 0 6.4 71 1017.9 86.8 2.2
DallasTexas 2/27/2019 8:00 13.7 13.3 97.89 0 0 7.2 326 1018 97.8 2.1
DallasTexas 2/27/2019 9:00 14.1 13.9 98.66 0 0 6.2 243 1018.5 77.6 2.1
DallasTexas 2/27/2019 10:00 14.7 14.1 96.37 0 0 5 59 1018.4 99.6 4.5
DallasTexas 2/27/2019 11:00 15.3 14.4 94.16 0 0 0.8 24 1018.3 99.6 6
DallasTexas 2/27/2019 12:00 16.1 14.4 90 0 0 5.3 314 1018.8 99.6 7.1
DallasTexas 2/27/2019 13:00 16.4 14.9 90.75 0 0 6.6 6 1018.2 100 7.1
DallasTexas 2/27/2019 14:00 16.7 14.5 86.43 0.01 0 7 355 1017.2 96.9 8.8
DallasTexas 2/27/2019 15:00 15.8 13.6 86.48 0.01 0 2.9 359 1016.6 79.8 9.3
DallasTexas 2/27/2019 16:00 10 9.2 94.55 0.02 0 25.3 345 1017.7 97.7 5.5
DallasTexas 2/27/2019 17:00 7.6 6.7 93.7 0 0 28 339 1018.6 97 6.8
DallasTexas 2/27/2019 18:00 6 5 93.35 0 0 26.4 334 1019.7 100 10.8
DallasTexas 2/27/2019 19:00 3.7 2.4 91.5 0 0 29.7 330 1020.6 100 14.9
DallasTexas 2/27/2019 20:00 1.8 0.5 91.25 0 0 25.2 335 1021.3 100 12.9
DallasTexas 2/27/2019 21:00 0.8 -0.6 90.57 0 0 25.2 342 1021.1 100 9.8
DallasTexas 2/27/2019 22:00 0.6 -0.7 90.92 0 0 21.7 334 1021.4 100 9.1
DallasTexas 2/27/2019 23:00 0.4 -0.9 91.08 0 0 18.6 346 1021.1 100 8.1
DallasTexas 2/28/2019 0:00 0.1 -1 92.11 0 0 22 334 1020.9 99.7 6.7
DallasTexas 2/28/2019 1:00 -0.5 -1.2 94.88 0 0 24.4 330 1020.8 100 3.9
DallasTexas 2/28/2019 2:00 -0.5 -1.5 92.94 0 0 22.9 329 1020.7 99.7 3.4
DallasTexas 2/28/2019 3:00 -1.1 -1.7 95.76 0 0 22.5 327 1020.6 99.9 3.4
DallasTexas 2/28/2019 4:00 -0.9 -1.7 94.27 0 0 20.5 336 1020.1 99.9 4.2
DallasTexas 2/28/2019 5:00 -1 -1.8 94.54 0 0 18.1 337 1020.4 99.6 3.4
DallasTexas 2/28/2019 6:00 -1 -1.9 93.17 0 0 17.2 332 1021 99.5 3.6
DallasTexas 2/28/2019 7:00 -1 -1.9 93.61 0 0 18.3 330 1021 99.5 3
DallasTexas 2/28/2019 8:00 -1 -1.7 94.89 0 0 17.4 331 1021.5 100 3.1
DallasTexas 2/28/2019 9:00 -0.5 -1.4 93.8 0 0 17.1 329 1022.4 99.7 3.4
DallasTexas 2/28/2019 10:00 -0.4 -1.4 92.95 0 0 16.6 324 1022.5 99.6 3.4
DallasTexas 2/28/2019 11:00 0.1 -1.3 90.29 0 0 14.6 332 1022.8 100 5
DallasTexas 2/28/2019 12:00 0.6 -0.8 89.94 0 0 17.4 343 1022.5 100 8.9
DallasTexas 2/28/2019 13:00 1.3 -1.2 83.3 0 0 17.7 327 1021.7 100 11.2
DallasTexas 2/28/2019 14:00 2.2 -1.3 78.12 0 0 15.7 341 1020.9 99.6 12
DallasTexas 2/28/2019 15:00 2.8 -1.5 73.56 0 0 17.8 352 1019.8 94.5 14.5
DallasTexas 2/28/2019 16:00 3.2 -1.4 71.81 0 0 18 350 1019.4 86.5 15.3
DallasTexas 2/28/2019 17:00 2.7 -1.8 72.36 0 0 15 352 1019 70.2 15.8
DallasTexas 2/28/2019 18:00 2.1 -2.3 72.88 0 0 12.3 350 1018.7 58.9 15.7
DallasTexas 2/28/2019 19:00 1.8 -2.6 72.56 0 0 11.7 350 1019.7 72 15.8
DallasTexas 2/28/2019 20:00 2 -2.6 71.5 0 0 6.5 17 1020 70.5 15.8
DallasTexas 2/28/2019 21:00 2 -2.6 71.65 0 0 9.7 358 1021.3 75.7 16
DallasTexas 2/28/2019 22:00 1.7 -2.6 73.34 0 0 11.5 3 1021.2 78 16
DallasTexas 2/28/2019 23:00 1.2 -2.7 75.61 0 0 9.8 1 1020.2 73.6 16
DallasTexas 3/1/2019 0:00 1.1 -2.8 75.14 0 0 13.1 12 1019.7 66.3 16
DallasTexas 3/1/2019 1:00 0.9 -3.1 74.88 0 0 10.9 15 1019.5 82.8 16
DallasTexas 3/1/2019 2:00 0.8 -2.9 76.43 0 0 8.8 20 1019.4 84.8 15.9
DallasTexas 3/1/2019 3:00 0.8 -2.8 76.59 0 0 8.9 343 1019.5 85.4 16
DallasTexas 3/1/2019 4:00 0.8 -2.8 76.88 0 0 10 11 1019 84.6 15
DallasTexas 3/1/2019 5:00 0.9 -2.8 76.64 0 0 8.8 20 1018.7 85.6 15.1
DallasTexas 3/1/2019 6:00 1.1 -2.7 75.43 0 0 7.4 16 1019.4 84.2 15
DallasTexas 3/1/2019 7:00 1.3 -2.3 77.12 0 0 7.3 39 1019.1 99.6 13.5
DallasTexas 3/1/2019 8:00 1.6 -2.2 75.77 0 0 2.8 48 1019.2 99.4 11.9
DallasTexas 3/1/2019 9:00 2.2 -1.9 74.35 0 0 4.9 40 1019.9 93.8 11.8
DallasTexas 3/1/2019 10:00 2.5 -1.7 73.79 0 0 6.4 65 1019.8 87.7 12.3
DallasTexas 3/1/2019 11:00 2.9 -1.6 72.17 0 0 2.7 335 1020.1 96.9 13.8
DallasTexas 3/1/2019 12:00 4 -1.1 69.32 0 0 4.2 47 1019.5 100 12.6
DallasTexas 3/1/2019 13:00 5.2 -0.4 67.12 0 0 5.3 23 1018.4 99.3 13.2
DallasTexas 3/1/2019 14:00 5.8 -0.2 65.54 0 0 3 49 1017.4 99.5 12.8
DallasTexas 3/1/2019 15:00 6.2 -0.1 63.85 0 0 6.9 96 1016.6 99.6 15.4
DallasTexas 3/1/2019 16:00 6.5 0.5 65.8 0 0 6.1 100 1016.7 99.6 15.6
DallasTexas 3/1/2019 17:00 6.6 1 67.36 0 0 5.4 59 1017 99.6 15.5
DallasTexas 3/1/2019 18:00 6.6 0.8 66.43 0 0 8.2 78 1017.1 83.8 14.8
DallasTexas 3/1/2019 19:00 6.2 0.8 68.32 0 0 6.6 62 1017.7 82.5 14.7
DallasTexas 3/1/2019 20:00 6.3 1.2 69.84 0 0 9.1 44 1018.8 97.8 16
DallasTexas 3/1/2019 21:00 5.9 1.2 71.82 0 0 8.9 55 1019.1 98.9 15.8
DallasTexas 3/1/2019 22:00 5.8 1.6 74.23 0 0 11.6 44 1020 99.2 15.8
DallasTexas 3/1/2019 23:00 5.3 2 79.28 0 0 11.3 44 1020.1 100 14.6
DallasTexas 3/2/2019 0:00 5.2 2.3 81.43 0 0 13.4 43 1020.4 83.6 11.5
DallasTexas 3/2/2019 1:00 5 2.5 83.95 0 0 8.8 33 1020.6 85.9 10.1
DallasTexas 3/2/2019 2:00 4.9 2.3 82.99 0 0 10.2 36 1020.7 85.9 12.1
DallasTexas 3/2/2019 3:00 4.9 2 81.76 0 0 13.3 23 1020.3 85.8 11.9
DallasTexas 3/2/2019 4:00 4.4 2 83.87 0 0 16.1 20 1019.8 85.9 12
DallasTexas 3/2/2019 5:00 4.4 1.5 81.67 0 0 14.8 20 1019.9 85.8 12.2
DallasTexas 3/2/2019 6:00 4 1.3 82.64 0 0 13 16 1020.4 85.9 11.7
DallasTexas 3/2/2019 7:00 3.9 1.2 82.77 0 0 9.8 35 1020.8 100 10.4
DallasTexas 3/2/2019 8:00 3.9 1.5 84.48 0 0 9.2 14 1021.3 100 8.9
DallasTexas 3/2/2019 9:00 4 2.1 87.3 0 0 8.3 21 1021.5 100 6.2
DallasTexas 3/2/2019 10:00 4.2 2.6 89.76 0 0 7.7 14 1021.6 100 4.9
DallasTexas 3/2/2019 11:00 4.9 3.4 90.31 0 0 8.2 21 1021.5 100 4.8
DallasTexas 3/2/2019 12:00 5.2 4 91.66 0.03 0 6.5 341 1020.9 100 3.8
DallasTexas 3/2/2019 13:00 5.7 4.5 91.81 0.2 0 9.3 345 1020 85.9 4.4
DallasTexas 3/2/2019 14:00 5.6 4.7 93.68 0 0 14.9 330 1019.1 76.5 2.3
DallasTexas 3/2/2019 15:00 5.6 4.8 94.12 0.02 0 15.2 345 1019 79.1 1.9
DallasTexas 3/2/2019 16:00 5.9 5.2 94.83 0.21 0 12 1 1018.6 97.2 2.1
DallasTexas 3/2/2019 17:00 6.2 5.4 94.69 0.23 0 13.8 358 1018.6 97.2 2.3
DallasTexas 3/2/2019 18:00 6.2 5.6 96.36 0.21 0 10.1 12 1018.7 87.1 2.9
DallasTexas 3/2/2019 19:00 6.2 5.6 95.92 0.05 0 9.6 33 1018.3 97 5.1
DallasTexas 3/2/2019 20:00 6.2 5.4 94.94 0.01 0 8.9 41 1017.8 82.8 9.5
DallasTexas 3/2/2019 21:00 6.4 5.7 95.32 0.34 0 10 30 1018.1 87.1 3.9
DallasTexas 3/2/2019 22:00 6.5 6 96.74 0.38 0 12 360 1019 84.9 3.8
DallasTexas 3/2/2019 23:00 6.2 5.4 94.69 0.38 0 13.7 7 1018.4 85.4 6.8
DallasTexas 3/3/2019 0:00 6.1 5.4 94.7 0.01 0 13.8 10 1017.4 85.8 6.3
DallasTexas 3/3/2019 1:00 5.8 5 94.69 0.18 0 13.2 358 1017.1 85.9 5.3
DallasTexas 3/3/2019 2:00 5.4 4.5 93.99 0.11 0 11.8 4 1016.5 85.9 7.2
DallasTexas 3/3/2019 3:00 5 4.5 96.38 0.03 0 12.5 358 1016.1 85.9 5.3
DallasTexas 3/3/2019 4:00 4.7 4 94.88 0.03 0 24.1 341 1017.1 85.9 3.2
DallasTexas 3/3/2019 5:00 4.1 3.2 94.19 0.18 0 25.1 348 1016.9 81.5 9.1
DallasTexas 3/3/2019 6:00 3.6 2.7 93.83 0.01 0 23.1 351 1017.6 85.4 6.3
DallasTexas 3/3/2019 7:00 3.1 2.1 93.23 0.62 0 23.2 352 1018.7 97.3 12
DallasTexas 3/3/2019 8:00 2.6 1.4 91.76 0.05 0 25.5 348 1020.3 100 8.7
DallasTexas 3/3/2019 9:00 2 0.8 91.99 0.04 0 31.9 351 1021.8 100 7.3
DallasTexas 3/3/2019 10:00 1.8 0.2 89.63 0 0 28.7 352 1023 94 10.3
DallasTexas 3/3/2019 11:00 1.7 -0.4 85.62 0 0 28.8 354 1023.3 96.6 13.6
DallasTexas 3/3/2019 12:00 2.5 -0.7 79.82 0 0 26.8 346 1023.7 96.3 14.6
DallasTexas 3/3/2019 13:00 3 -1.5 72.47 0 0 32.8 352 1023.3 96.9 15.5
DallasTexas 3/3/2019 14:00 3.6 -1.9 67.06 0 0 31.9 348 1022.8 91.9 16
DallasTexas 3/3/2019 15:00 3.3 -3.1 62.78 0 0 31 358 1023.1 93.8 16
DallasTexas 3/3/2019 16:00 2.4 -3.9 63.08 0 0 32.7 360 1023.8 93.8 16
DallasTexas 3/3/2019 17:00 1.4 -4.8 63.25 0 0 31.4 7 1024.3 90.2 16
DallasTexas 3/3/2019 18:00 0.4 -5.4 65.21 0 0 30.3 6 1024.7 94.6 16
DallasTexas 3/3/2019 19:00 -0.4 -6 65.84 0 0 23.3 5 1025.2 87.5 16
DallasTexas 3/3/2019 20:00 -0.9 -6.4 66.11 0 0 25.9 9 1025.8 73 16
DallasTexas 3/3/2019 21:00 -1.4 -6.7 67.15 0 0 25.6 13 1026.5 47.7 16
DallasTexas 3/3/2019 22:00 -1.7 -7.1 66.58 0 0 21.7 17 1027 52.6 16
DallasTexas 3/3/2019 23:00 -2.2 -7.6 66.11 0 0 24.8 24 1027.2 76.8 16
DallasTexas 3/4/2019 0:00 -2.3 -7.8 66.04 0 0 23 13 1027 82.2 16
DallasTexas 3/4/2019 1:00 -2.7 -8.6 64.09 0 0 18.3 17 1028.4 79.9 16
DallasTexas 3/4/2019 2:00 -3.5 -9.6 62.71 0 0 28.3 8 1028.7 57.1 16
DallasTexas 3/4/2019 3:00 -4 -9.8 63.99 0 0 22.4 4 1028.8 37.9 16
DallasTexas 3/4/2019 4:00 -4.3 -9.8 65.68 0 0 30.1 360 1029.3 72.7 16
DallasTexas 3/4/2019 5:00 -5.2 -11.2 62.81 0 0 26.7 2 1030.1 31.1 16
DallasTexas 3/4/2019 6:00 -5.8 -12.3 60.23 0 0 24.5 2 1030.5 30.1 16
DallasTexas 3/4/2019 7:00 -5.5 -13.4 53.62 0 0 26.2 355 1030.6 56.6 16
DallasTexas 3/4/2019 8:00 -5.4 -14.9 46.93 0 0 27.7 6 1031.3 76.2 16
DallasTexas 3/4/2019 9:00 -4.7 -14.9 44.64 0 0 26.9 360 1032 95.4 16
DallasTexas 3/4/2019 10:00 -4.3 -13.5 48.89 0 0 25.1 1 1032.5 98.4 16
DallasTexas 3/4/2019 11:00 -3.7 -12.9 49.06 0 0 24.2 2 1032.3 96.8 16
DallasTexas 3/4/2019 12:00 -2.8 -11.8 50.22 0 0 25.1 352 1031.6 82.3 16
DallasTexas 3/4/2019 13:00 -2.2 -11.1 50.74 0 0 25.7 350 1031.2 59.8 16
DallasTexas 3/4/2019 14:00 -1.8 -11 49.27 0 0 25.7 353 1030.6 74.2 16
DallasTexas 3/4/2019 15:00 -1.2 -11.3 46.31 0 0 22.7 351 1030.1 77 16
DallasTexas 3/4/2019 16:00 -0.7 -11.6 43.37 0 0 20.3 337 1029.8 85.8 16
DallasTexas 3/4/2019 17:00 -0.1 -11.2 42.92 0 0 21.3 338 1029.4 69.7 16
DallasTexas 3/4/2019 18:00 -0.5 -11.5 43.21 0 0 16 336 1029.2 36 16
DallasTexas 3/4/2019 19:00 -0.8 -11.4 44.6 0 0 10.9 358 1029.3 16.2 16
DallasTexas 3/4/2019 20:00 -1.2 -11.5 45.56 0 0 10 352 1029.8 21.8 16
DallasTexas 3/4/2019 21:00 -1.8 -11.9 46.3 0 0 13 357 1030.8 0 16
DallasTexas 3/4/2019 22:00 -2.4 -11.7 48.8 0 0 11.3 357 1031.4 0 16
DallasTexas 3/4/2019 23:00 -2.5 -12.2 47.38 0 0 12.1 359 1032.1 17.6 16
DallasTexas 3/5/2019 0:00 -3.4 -12.4 50.01 0 0 9.2 20 1031.6 2 16
DallasTexas 3/5/2019 1:00 -3.9 -12.6 50.98 0 0 9.8 360 1031.5 2 16
DallasTexas 3/5/2019 2:00 -4 -12.1 53.33 0 0 10.8 354 1031.2 15.4 16
DallasTexas 3/5/2019 3:00 -4.2 -12.8 51.48 0 0 15.5 344 1031.5 0 16
DallasTexas 3/5/2019 4:00 -4.6 -13 52.01 0 0 12.3 352 1031.5 0 16
DallasTexas 3/5/2019 5:00 -5.3 -12.6 56.46 0 0 9.9 344 1032.2 0 16
DallasTexas 3/5/2019 6:00 -5.4 -12.6 57.04 0 0 10.7 348 1032.7 0 16
DallasTexas 3/5/2019 7:00 -5.4 -12.5 57.53 0 0 11.3 346 1033.5 17.6 16
DallasTexas 3/5/2019 8:00 -3.9 -12 53.4 0 0 16 346 1033.9 13.9 16
DallasTexas 3/5/2019 9:00 -2.1 -13 43.08 0 0 19.7 354 1035.1 15.4 16
DallasTexas 3/5/2019 10:00 -0.5 -12.9 38.72 0 0 22.8 354 1035.8 13.5 16
DallasTexas 3/5/2019 11:00 0.6 -12.9 35.5 0 0 17.8 342 1036.1 15.4 16
DallasTexas 3/5/2019 12:00 1.9 -12.3 34.18 0 0 18.7 349 1035.8 13.5 16
DallasTexas 3/5/2019 13:00 3.6 -12 30.95 0 0 14.2 327 1034.8 13.5 16
DallasTexas 3/5/2019 14:00 4.7 -12.1 28.32 0 0 17.8 355 1033.7 13.5 16
DallasTexas 3/5/2019 15:00 5.6 -11.8 27.38 0 0 18.1 358 1033.1 13.5 16
DallasTexas 3/5/2019 16:00 6.8 -11.4 26.01 0 0 10.3 325 1032.7 15.3 16
DallasTexas 3/5/2019 17:00 7.2 -11.1 25.83 0 0 14.4 329 1032.5 11.8 16
DallasTexas 3/5/2019 18:00 6.4 -10.8 28.03 0 0 12.2 353 1032.3 11.8 16
DallasTexas 3/5/2019 19:00 5.1 -10.7 30.93 0 0 7 358 1032.3 13.5 16
DallasTexas 3/5/2019 20:00 3.7 -9.8 36.53 0 0 5.1 357 1032.3 0 16
DallasTexas 3/5/2019 21:00 2.5 -8.8 43.13 0 0 1.5 3 1032.6 0 16
DallasTexas 3/5/2019 22:00 1.2 -7.8 51.1 0 0 0.1 2 1032.9 0 16
DallasTexas 3/5/2019 23:00 1.1 -7.7 51.9 0 0 1.7 296 1033.1 0 16
DallasTexas 3/6/2019 0:00 -0.9 -6.7 64.76 0 0 0.2 354 1032.8 0 16
DallasTexas 3/6/2019 1:00 -1.1 -6.8 65.67 0 0 1.3 301 1032.7 13.4 16
DallasTexas 3/6/2019 2:00 -1.6 -6.6 68.5 0 0 0 0 1033.2 26.5 16
DallasTexas 3/6/2019 3:00 -1.5 -6.5 68.68 0 0 1.8 305 1033.1 26.5 16
DallasTexas 3/6/2019 4:00 -2.3 -7.1 69.74 0 0 2.6 295 1032.7 15.4 16
DallasTexas 3/6/2019 5:00 -2.1 -6.7 70.76 0 0 0.5 334 1032.3 15.4 16
DallasTexas 3/6/2019 6:00 -3.2 -6.6 77.03 0 0 1.4 63 1032.4 15.4 16
DallasTexas 3/6/2019 7:00 -2.7 -6.8 73.5 0 0 4.3 44 1032.5 27.2 16
DallasTexas 3/6/2019 8:00 0.1 -5.5 66.28 0 0 5.6 85 1032.4 19.1 14.9
DallasTexas 3/6/2019 9:00 4 -6.9 44.95 0 0 10.1 72 1033.1 29.7 16
DallasTexas 3/6/2019 10:00 6 -8.5 34.6 0 0 15 146 1032.6 33.5 16
DallasTexas 3/6/2019 11:00 7.4 -9 30.25 0 0 19.3 151 1031.7 30.5 16
DallasTexas 3/6/2019 12:00 8.6 -8.7 28.61 0 0 18.4 144 1030.3 29.7 16
DallasTexas 3/6/2019 13:00 9.9 -8.5 26.44 0 0 17.9 147 1028.7 43.9 16
DallasTexas 3/6/2019 14:00 10.6 -8 26.22 0 0 18.8 158 1027.5 37.1 16
DallasTexas 3/6/2019 15:00 11.3 -7.7 25.55 0 0 21.2 141 1026.3 40 16
DallasTexas 3/6/2019 16:00 11.9 -7.1 25.88 0 0 24 163 1025 34.5 16
DallasTexas 3/6/2019 17:00 12 -6.4 27.27 0 0 22.8 159 1024.4 18.3 16
DallasTexas 3/6/2019 18:00 11.6 -5.6 29.47 0 0 22.7 157 1023.4 13.5 16
DallasTexas 3/6/2019 19:00 10.4 -4.3 35.28 0 0 20 169 1022.5 13.5 16
DallasTexas 3/6/2019 20:00 9.6 -2.9 41.37 0 0 16 162 1022.3 0 16
DallasTexas 3/6/2019 21:00 8.8 -2.3 45.69 0 0 16.1 162 1022.3 0.7 16
DallasTexas 3/6/2019 22:00 8.1 -1.6 50.42 0 0 13.4 156 1022.5 33.9 16
DallasTexas 3/6/2019 23:00 8.3 -0.7 53.31 0 0 16.3 156 1022 35.3 16
DallasTexas 3/7/2019 0:00 8.5 1.2 59.97 0 0 18.5 161 1021.2 36.7 16
DallasTexas 3/7/2019 1:00 9.2 3.1 65.8 0 0 16.6 21 1020.6 72.3 16
DallasTexas 3/7/2019 2:00 9.6 4.4 69.95 0 0 18.5 173 1020.5 65.6 16
DallasTexas 3/7/2019 3:00 9.8 5.7 75.58 0 0 21.2 165 1019.7 68.1 16
DallasTexas 3/7/2019 4:00 9.7 6.4 79.76 0 0 21.4 170 1019.1 99.3 16
DallasTexas 3/7/2019 5:00 9.7 6.9 82.2 0 0 23.1 168 1018.5 98.1 16
DallasTexas 3/7/2019 6:00 9.7 7.3 84.79 0 0 20.7 169 1018.7 100 16
DallasTexas 3/7/2019 7:00 9.7 7.6 86.53 0 0 21.2 172 1019.2 100 14.4
DallasTexas 3/7/2019 8:00 10.1 8.1 87.32 0 0 23.1 162 1018.8 100 14.7
DallasTexas 3/7/2019 9:00 10.7 8.6 86.92 0 0 21.5 168 1019 100 14.9
DallasTexas 3/7/2019 10:00 12 9.1 82.44 0 0 24.6 170 1018.4 100 15.1
DallasTexas 3/7/2019 11:00 13.7 9.8 77.06 0 0 23.1 182 1018.2 99.6 16
DallasTexas 3/7/2019 12:00 17 10.9 67.1 0 0 26.9 196 1016.6 70.2 15.1
DallasTexas 3/7/2019 13:00 18.5 11.4 63.29 0 0 27.4 191 1015.3 50.1 16
DallasTexas 3/7/2019 14:00 20.1 12 59.52 0 0 25 190 1014 37.1 16
DallasTexas 3/7/2019 15:00 21.5 12.4 56.21 0 0 25.3 187 1012.5 28.2 16
DallasTexas 3/7/2019 16:00 21.6 12.7 56.65 0 0 23.4 196 1012.3 37.4 16
DallasTexas 3/7/2019 17:00 21.5 13.1 58.69 0 0 24.7 173 1012.1 29.9 16
DallasTexas 3/7/2019 18:00 20.6 13.3 62.73 0 0 20.3 169 1011.3 35.5 16
DallasTexas 3/7/2019 19:00 19.9 13.5 66.34 0 0 21.5 169 1011.2 27.8 16
DallasTexas 3/7/2019 20:00 19.2 13.4 69.29 0 0 17.5 186 1011.8 27.8 16
DallasTexas 3/7/2019 21:00 18.7 13.4 71.28 0 0 24 187 1011.3 36.3 16
DallasTexas 3/7/2019 22:00 18.4 13.4 72.7 0 0 20.6 193 1011.5 30.6 16
DallasTexas 3/7/2019 23:00 17.7 13.6 77.08 0 0 23.9 188 1011.2 43.9 16
DallasTexas 3/8/2019 0:00 17.8 13.6 76.84 0 0 23.6 194 1010.8 44.4 16
DallasTexas 3/8/2019 1:00 17.7 13.8 78.06 0 0 24.3 197 1010.5 45.1 16
DallasTexas 3/8/2019 2:00 17.6 13.9 79.07 0 0 22.1 202 1010.1 39.8 16
DallasTexas 3/8/2019 3:00 17.2 14.2 82.59 0 0 21.1 197 1009.5 35.5 16
DallasTexas 3/8/2019 4:00 17.2 14.5 84.07 0 0 18.3 198 1008.9 41.7 16
DallasTexas 3/8/2019 5:00 16.9 15 88.58 0 0 16.1 205 1009.2 67.3 16
DallasTexas 3/8/2019 6:00 16.5 14.9 90.58 0 0 12.1 208 1010 74.9 15.1
DallasTexas 3/8/2019 7:00 16.5 15 90.61 0 0 11 211 1010.4 74.3 14.7
DallasTexas 3/8/2019 8:00 16.6 15 90.1 0 0 12.8 207 1011.2 54.9 14.8
DallasTexas 3/8/2019 9:00 17.6 15.5 87.48 0 0 13.1 205 1012 41.9 15.8
DallasTexas 3/8/2019 10:00 19.2 15.4 78.29 0 0 15.7 208 1012.2 40.8 16
DallasTexas 3/8/2019 11:00 20.8 15 69.07 0 0 16.7 200 1012.1 25.7 16
DallasTexas 3/8/2019 12:00 22.5 14.7 61.48 0 0 16 209 1011.6 34.9 16
DallasTexas 3/8/2019 13:00 23.3 14.5 57.5 0 0 14 216 1010.5 32.8 16
DallasTexas 3/8/2019 14:00 24.7 15 54.8 0 0 15.4 209 1009.5 20.9 16
DallasTexas 3/8/2019 15:00 25.4 15.7 55.07 0 0 15.1 203 1008.5 35 16
DallasTexas 3/8/2019 16:00 25.8 16.1 55.3 0 0 15.9 201 1008.1 45.5 16
DallasTexas 3/8/2019 17:00 25.4 16.7 58.6 0 0 19.6 177 1007.3 34.7 16
DallasTexas 3/8/2019 18:00 24.1 17.3 65.94 0 0 20 162 1007.3 31.8 16
DallasTexas 3/8/2019 19:00 22.7 17.3 71.83 0 0 20.4 170 1007 30.2 16
DallasTexas 3/8/2019 20:00 21.9 17.5 76.05 0 0 20.9 161 1006.8 31 16
DallasTexas 3/8/2019 21:00 21.5 17.7 78.86 0 0 19.3 165 1006.5 43.1 16
DallasTexas 3/8/2019 22:00 21.6 18 80.04 0 0 23.3 164 1006.3 48.6 16
DallasTexas 3/8/2019 23:00 21.3 18.5 84.35 0 0 26 172 1005.7 68.3 16
DallasTexas 3/9/2019 0:00 21.6 18.6 83.11 0 0 31.8 182 1004.9 100 16
DallasTexas 3/9/2019 1:00 21.6 18.4 82.14 0 0 23.2 192 1004.8 99.6 16
DallasTexas 3/9/2019 2:00 22 18.2 78.83 0 0 21.7 203 1005.5 94.8 16
DallasTexas 3/9/2019 3:00 21.6 18.2 80.68 0 0 24.3 191 1004.5 72.5 16
DallasTexas 3/9/2019 4:00 21.6 18.1 80.93 0 0 22.1 192 1003.3 62.4 16
DallasTexas 3/9/2019 5:00 21.5 18.2 81.32 0 0 25.1 191 1002.4 82.5 16
DallasTexas 3/9/2019 6:00 20 17.4 85.2 0.04 0 17.1 233 1003.5 89.9 14.7
DallasTexas 3/9/2019 7:00 20.6 18 84.66 0.08 0 18.9 216 1003.5 94.9 16
DallasTexas 3/9/2019 8:00 17.3 15.7 90.17 7.23 0 17.7 239 1004.9 64.1 14.3
DallasTexas 3/9/2019 9:00 19.7 13.1 65.56 0.57 0 29.1 267 1005.8 14.4 16
DallasTexas 3/9/2019 10:00 21.2 8.7 44.71 0 0 31.5 274 1006.2 13.5 16
DallasTexas 3/9/2019 11:00 21.7 2.9 29.07 0 0 38 275 1007.1 13.9 16
DallasTexas 3/9/2019 12:00 22.6 0.4 22.91 0 0 32.9 274 1007.8 13.5 16
DallasTexas 3/9/2019 13:00 23.6 0.3 21.5 0 0 33.1 285 1007.9 13.5 16
DallasTexas 3/9/2019 14:00 24.4 0 19.99 0 0 26.6 291 1007.4 13.5 16
DallasTexas 3/9/2019 15:00 25.1 0.5 19.94 0 0 21.2 282 1007.5 13.5 16
DallasTexas 3/9/2019 16:00 25.2 0.4 19.69 0 0 19.6 290 1007.7 14.2 16
DallasTexas 3/9/2019 17:00 25 0 19.26 0 0 12.7 294 1007.7 24.7 16
DallasTexas 3/9/2019 18:00 23.3 0.3 21.82 0 0 10.6 317 1008 43.9 16
DallasTexas 3/9/2019 19:00 21.1 0.2 24.85 0 0 2.5 355 1009.2 44.6 16
DallasTexas 3/9/2019 20:00 18.3 2.1 33.69 0 0 3.6 27 1010.6 44.6 16
DallasTexas 3/9/2019 21:00 16.8 3.3 40.69 0 0 3.7 30 1011.1 44.6 16
DallasTexas 3/9/2019 22:00 15.8 4 45.3 0 0 4.1 92 1011.8 44.6 16
DallasTexas 3/9/2019 23:00 15.5 3.4 44.38 0 0 1.5 59 1012.3 44.3 16
DallasTexas 3/10/2019 0:00 14.7 3.2 46.15 0 0 7.5 107 1012.2 44.3 16
DallasTexas 3/10/2019 1:00 13.9 3 47.64 0 0 7.8 108 1012.3 43.9 16
DallasTexas 3/10/2019 3:00 13.9 3 47.76 0 0 11.3 73 1012.7 25.3 16
DallasTexas 3/10/2019 4:00 13.6 2.5 47.06 0 0 15.1 46 1013.7 15.5 16
DallasTexas 3/10/2019 5:00 13.6 2.2 46.14 0 0 14 25 1014.1 35.4 16
DallasTexas 3/10/2019 6:00 13 2 47.2 0 0 15.1 26 1015.4 29.7 16
DallasTexas 3/10/2019 7:00 12.1 2.3 51.25 0 0 15.4 34 1015.8 44.7 16
DallasTexas 3/10/2019 8:00 11.6 2.7 54.51 0 0 11.2 29 1017.5 44.4 16
DallasTexas 3/10/2019 9:00 11.4 2.9 55.88 0 0 12.1 25 1018.6 42.8 16
DallasTexas 3/10/2019 10:00 11.8 3.1 55.42 0 0 14.8 25 1019.4 31.5 16
DallasTexas 3/10/2019 11:00 12.2 3.2 54.07 0 0 14 24 1020.3 53.9 16
DallasTexas 3/10/2019 12:00 12.9 3.5 52.8 0 0 17.9 30 1020.6 75.9 16
DallasTexas 3/10/2019 13:00 13.3 3.7 52.33 0 0 17.8 17 1020.6 79.3 16
DallasTexas 3/10/2019 14:00 13.5 4.1 52.86 0 0 15.5 40 1020 42.2 16
DallasTexas 3/10/2019 15:00 14.5 4.5 51.22 0 0 18.3 40 1018.7 53.7 16
DallasTexas 3/10/2019 16:00 15.6 5.2 49.83 0 0 19.8 63 1018.1 41.2 16
DallasTexas 3/10/2019 17:00 15.2 5.4 51.85 0 0 14.5 47 1018.5 41.5 15.7
DallasTexas 3/10/2019 18:00 14.3 5 53.8 0 0 15.1 31 1018.5 46.5 16
DallasTexas 3/10/2019 19:00 13.1 4.3 55.01 0 0 17.6 17 1019.3 49.1 16
DallasTexas 3/10/2019 20:00 12.4 3.5 54.61 0 0 18.2 23 1019.6 74.7 16
DallasTexas 3/10/2019 21:00 12.6 3.1 52.62 0 0 16.9 32 1019.7 80.7 16
DallasTexas 3/10/2019 22:00 12.9 3.9 54.27 0 0 13.8 48 1020 76.7 16
DallasTexas 3/10/2019 23:00 11.8 5.9 67.03 0.58 0 14.2 50 1020 82.4 16
DallasTexas 3/11/2019 0:00 12.3 6.4 67.23 0.01 0 11.6 55 1020.4 99.2 16
DallasTexas 3/11/2019 1:00 12.5 6.9 68.92 0.2 0 13.7 20 1020.9 100 15.7
DallasTexas 3/11/2019 2:00 11.3 7.8 78.91 0.03 0 18.8 11 1021.2 99.9 16
DallasTexas 3/11/2019 3:00 12 7.3 72.61 0.01 0 22.3 63 1020.3 99.8 16
DallasTexas 3/11/2019 4:00 12.4 6.7 68.15 0.05 0 20 54 1020.7 100 16
DallasTexas 3/11/2019 5:00 12.2 6.6 68.74 0 0 15.2 47 1021.3 100 16
DallasTexas 3/11/2019 6:00 11.6 6.6 71.44 0.05 0 18.9 46 1022.2 100 16
DallasTexas 3/11/2019 7:00 11.1 6.2 71.81 0 0 24.2 60 1022.8 100 16
DallasTexas 3/11/2019 8:00 11.1 5.9 70.64 0 0 18 74 1023.2 99.6 16
DallasTexas 3/11/2019 9:00 11.4 6.4 71.56 0 0 20.4 87 1023.6 100 16
DallasTexas 3/11/2019 10:00 12.5 7.1 69.74 0 0 20.1 90 1024 99.9 16
DallasTexas 3/11/2019 11:00 13.3 8 70.01 0 0 19.4 95 1024.5 99.2 16
DallasTexas 3/11/2019 12:00 14.1 8.7 70.16 0 0 19 78 1024.2 99.9 16
DallasTexas 3/11/2019 13:00 15 9.2 68.35 0 0 18.2 88 1024.2 99.5 16
DallasTexas 3/11/2019 14:00 15.9 9.8 67.17 0 0 14.8 89 1023.5 99.6 16
DallasTexas 3/11/2019 15:00 16.2 10 66.86 0 0 12.6 77 1022.8 99.6 16
DallasTexas 3/11/2019 16:00 16.7 10.4 66.5 0 0 15 84 1022.3 99.6 16
DallasTexas 3/11/2019 17:00 16.7 10.5 66.73 0 0 14.5 62 1021.8 93.7 16
DallasTexas 3/11/2019 18:00 16.3 10.7 69.28 0 0 12.2 77 1021.9 97.4 16
DallasTexas 3/11/2019 19:00 15.8 10.9 72.91 0 0 12 57 1022.4 88.7 16
DallasTexas 3/11/2019 20:00 15.3 11 75.47 0 0 8.8 60 1023 99.5 15.9
DallasTexas 3/11/2019 21:00 15.5 11.3 76.26 0 0 8.8 59 1023.2 96.4 16
DallasTexas 3/11/2019 22:00 15.5 11.5 77.42 0 0 9.8 84 1023.1 97.8 15.9
DallasTexas 3/11/2019 23:00 15.3 11.7 79.27 0 0 10.6 90 1022.9 99.2 16
DallasTexas 3/12/2019 0:00 15.4 11.6 77.93 0 0 13.1 99 1022.4 100 16
DallasTexas 3/12/2019 1:00 15.3 11.6 78.76 0 0 9.3 103 1022 100 16
DallasTexas 3/12/2019 2:00 15.2 12 81.12 0 0 13.7 104 1021.6 100 15.9
DallasTexas 3/12/2019 3:00 14.8 12.5 85.78 0 0 14.5 116 1021.6 100 14.9
DallasTexas 3/12/2019 4:00 14.3 12.8 90.8 0 0 15.3 121 1020.9 100 9.5
DallasTexas 3/12/2019 5:00 14.2 13.1 92.89 0 0 10.8 107 1020.4 100 6.3
DallasTexas 3/12/2019 6:00 13.9 13.3 96.47 0.02 0 11.8 96 1020.3 100 4.2
DallasTexas 3/12/2019 7:00 13.9 13.4 96.68 0.04 0 8.3 85 1020.8 99.6 3.3
DallasTexas 3/12/2019 8:00 13.8 13.3 97.1 0.2 0 12.4 83 1020.1 99.6 2.1
DallasTexas 3/12/2019 9:00 13.8 13.5 97.61 0.08 0 15.2 92 1020.5 97.3 2
DallasTexas 3/12/2019 10:00 13.9 13.3 96.2 0.35 0 16.4 102 1020.6 100 2.4
DallasTexas 3/12/2019 11:00 13.9 13.4 96.53 0.56 0 12 91 1020 99.2 3.3
DallasTexas 3/12/2019 12:00 14.4 13.6 95.15 0.34 0 16.9 110 1019.4 97.2 2.6
DallasTexas 3/12/2019 13:00 14.5 14.1 97.22 0.42 0 24.9 124 1017.7 100 3
DallasTexas 3/12/2019 14:00 15.1 14.7 97.27 0.02 0 24 141 1016.3 87.6 1.9
DallasTexas 3/12/2019 15:00 15.9 15.6 97.79 0 0 17.4 145 1015.6 100 2.6
DallasTexas 3/12/2019 16:00 16.6 16.2 97.39 0 0 18.6 149 1014.2 100 2.8
DallasTexas 3/12/2019 17:00 17.2 16.8 97.06 0 0 17.2 137 1013.3 99.6 4
DallasTexas 3/12/2019 18:00 18.4 17.1 92.18 0 0 18.1 129 1012.6 94.1 5.8
DallasTexas 3/12/2019 19:00 18.7 17.3 91.61 0 0 29 131 1010.9 66.9 9.4
DallasTexas 3/12/2019 20:00 18.9 17.6 91.99 0 0 29.5 137 1010.8 66.3 10.2
DallasTexas 3/12/2019 21:00 19.4 17.6 89.66 0 0 35.4 137 1009.6 51.4 10.8
DallasTexas 3/12/2019 22:00 19.5 17.6 88.96 0 0 40.4 147 1008.6 88.7 12.8
DallasTexas 3/12/2019 23:00 19.8 17.4 86.35 0 0 47.5 148 1007 81.5 13.4
DallasTexas 3/13/2019 0:00 19.8 17 84.38 0.02 0 37.7 152 1005.5 95 14.6
DallasTexas 3/13/2019 1:00 19.8 17 83.89 0 0 37.6 148 1005.1 99.4 16
DallasTexas 3/13/2019 2:00 19.5 17 85.36 0 0 37.2 145 1003 99.6 15.8
DallasTexas 3/13/2019 3:00 19.1 17.6 91.26 0.01 0 35.4 150 1002.6 98.4 10.2
DallasTexas 3/13/2019 4:00 18.9 18 94.41 0.45 0 35.3 155 1001 99.6 8.2
DallasTexas 3/13/2019 5:00 18.7 17.8 94.72 1.97 0 35.6 169 1000.8 99 6.1
DallasTexas 3/13/2019 6:00 13.3 12 92.02 15.27 0 17.8 262 1004.4 81 7.1
DallasTexas 3/13/2019 7:00 12.8 11.8 93.69 3.63 0 9.3 199 1004.7 73.7 10.5
DallasTexas 3/13/2019 8:00 12.6 11.7 94.63 2.18 0 13.3 244 1005.7 70.2 10.5
DallasTexas 3/13/2019 9:00 12.5 11.5 93.52 1.27 0 20.1 160 1005.8 73.2 9.5
DallasTexas 3/13/2019 10:00 12.5 11.4 93.06 0.86 0 19.9 166 1005 62.8 15.8
DallasTexas 3/13/2019 11:00 12.9 11.8 93.08 0.22 0 20.3 166 1004.5 61.1 16
DallasTexas 3/13/2019 12:00 15.2 12.3 82.79 0 0 24 175 1003.8 32.7 16
DallasTexas 3/13/2019 13:00 17.1 11.9 71.49 0 0 26.9 170 1002.6 18.2 16
DallasTexas 3/13/2019 14:00 18.3 12.2 67.29 0 0 30.2 168 1001.2 14.2 16
DallasTexas 3/13/2019 15:00 19.5 11.9 61.54 0 0 34.4 169 999.8 13.5 16
DallasTexas 3/13/2019 16:00 21.1 12.2 56.67 0 0 35.1 176 998.6 13.5 16
DallasTexas 3/13/2019 17:00 21.6 12.2 55.04 0 0 29.7 182 998.1 13.5 16
DallasTexas 3/13/2019 18:00 21.7 12.3 55.34 0 0 32.7 179 998.1 13.5 16
DallasTexas 3/13/2019 19:00 21.4 12.7 57.39 0 0 24.4 185 998.9 13.5 16
DallasTexas 3/13/2019 20:00 19.9 13 64.4 0 0 18.8 177 999.7 13.7 16
DallasTexas 3/13/2019 21:00 18.9 13.4 70.12 0 0 18.8 184 1000.3 13.7 16
DallasTexas 3/13/2019 22:00 18.2 13.2 72.47 0 0 15 178 1000.8 14.3 16
DallasTexas 3/13/2019 23:00 17.9 14.9 82.9 0 0 16.6 172 1001.1 42.9 15.9
DallasTexas 3/14/2019 0:00 18.4 16.5 88.87 0 0 17.6 259 1003.3 91.4 15.3
DallasTexas 3/14/2019 1:00 18.4 15.1 80.94 0.1 0 12.1 243 1003.4 57.2 15.9
DallasTexas 3/14/2019 2:00 18.6 9 53.62 0.14 0 17.4 247 1004 83.5 13.1
DallasTexas 3/14/2019 3:00 18.7 3.9 37.43 0 0 17.6 250 1004.9 89.7 10.9
DallasTexas 3/14/2019 4:00 18.3 3.2 36.7 0 0 25.8 269 1005.6 86.3 10.1
DallasTexas 3/14/2019 5:00 17 2.3 37.31 0 0 29.6 293 1007 46.1 14.9
DallasTexas 3/14/2019 6:00 13.2 1.2 44.01 0 0 28.4 307 1008.4 11.8 16
DallasTexas 3/14/2019 7:00 11.7 0.8 46.91 0 0 26.4 307 1009.3 13.7 16
DallasTexas 3/14/2019 8:00 10.9 0.7 49.37 0 0 22.3 313 1011.2 24.9 16
DallasTexas 3/14/2019 9:00 11.5 0.3 46.08 0 0 24.7 309 1013 43.9 16
DallasTexas 3/14/2019 10:00 12.1 0.1 43.56 0 0 24.5 308 1014.6 43.6 16
DallasTexas 3/14/2019 11:00 13.2 0.4 41.53 0 0 27.1 304 1015.5 24.7 16
DallasTexas 3/14/2019 12:00 14.7 0.9 39.17 0 0 28.9 302 1016.3 15 16
DallasTexas 3/14/2019 13:00 15.5 1.2 37.98 0 0 29.2 306 1016.7 13.5 16
DallasTexas 3/14/2019 14:00 16.2 1.5 36.98 0 0 31.1 310 1016.8 13.5 16
DallasTexas 3/14/2019 15:00 17 1.6 35.44 0 0 26.7 295 1016.6 13.5 16
DallasTexas 3/14/2019 16:00 17.7 1.3 33.23 0 0 27.4 305 1016.4 13.5 16
DallasTexas 3/14/2019 17:00 17.7 1.6 33.73 0 0 23 314 1016.9 13.7 16
DallasTexas 3/14/2019 18:00 17.3 1.6 34.81 0 0 22.8 316 1017.5 13.5 16
DallasTexas 3/14/2019 19:00 16.1 1 35.86 0 0 26.1 322 1018.2 13.5 16
DallasTexas 3/14/2019 20:00 14.5 1.2 40.28 0 0 20.5 328 1019.3 13.7 16
DallasTexas 3/14/2019 21:00 13.5 1.3 43.44 0 0 15.3 336 1020.4 23.5 16
DallasTexas 3/14/2019 22:00 12.9 1.1 44.7 0 0 22.4 340 1021.6 23.3 16
DallasTexas 3/14/2019 23:00 11.9 0 43.9 0 0 25.3 354 1023.2 23.3 16
DallasTexas 3/15/2019 0:00 10.7 -1.3 43.24 0 0 19.5 357 1024.4 41.5 16
DallasTexas 3/15/2019 1:00 10 -1.2 45.5 0 0 13.8 355 1025 41.5 16
DallasTexas 3/15/2019 2:00 8.7 -0.9 50.81 0 0 11.9 348 1025.3 24.7 16
DallasTexas 3/15/2019 3:00 8.8 -0.6 51.66 0 0 17.1 346 1025.9 41.5 16
DallasTexas 3/15/2019 4:00 8.4 -1.2 50.87 0 0 20.1 348 1026.1 41.5 16
DallasTexas 3/15/2019 5:00 7.8 -2.3 48.75 0 0 18.9 351 1026.6 41.5 16
DallasTexas 3/15/2019 6:00 7.2 -3.1 47.96 0 0 20.8 348 1027.2 43.6 16
DallasTexas 3/15/2019 7:00 6.5 -3.6 48.36 0 0 22.3 346 1027.8 24.9 16
DallasTexas 3/15/2019 8:00 6.1 -2.6 53.63 0 0 21 345 1028.8 44.3 16
DallasTexas 3/15/2019 9:00 6.7 -2.8 50.84 0 0 21.6 349 1029.9 43.9 16
DallasTexas 3/15/2019 10:00 8 -3.7 43.47 0 0 25 355 1030.9 43.9 16
DallasTexas 3/15/2019 11:00 9.5 -4.4 37.16 0 0 25.1 4 1030.9 41.5 16
DallasTexas 3/15/2019 12:00 11.5 -4.3 33.02 0 0 26.6 357 1030.2 15 16
DallasTexas 3/15/2019 13:00 12.7 -5.8 27.21 0 0 28.7 6 1029.8 15 16
DallasTexas 3/15/2019 14:00 13.5 -5.5 26.3 0 0 30.5 9 1029.3 24.7 16
DallasTexas 3/15/2019 15:00 14.3 -5.1 25.71 0 0 26.3 10 1028.3 29.7 16
DallasTexas 3/15/2019 16:00 15.1 -5.4 23.91 0 0 24.7 13 1027.5 29.7 16
DallasTexas 3/15/2019 17:00 15 -5.8 23.38 0 0 21 357 1027.6 28.6 16
DallasTexas 3/15/2019 18:00 15.1 -5.9 22.96 0 0 24.3 1 1027.6 26.5 16
DallasTexas 3/15/2019 19:00 14.1 -6.1 24.15 0 0 16.9 11 1027.6 17.6 16
DallasTexas 3/15/2019 20:00 12.4 -5.7 27.82 0 0 11.7 6 1027.9 17.8 16
DallasTexas 3/15/2019 21:00 11.5 -5.2 30.69 0 0 7.3 14 1028.5 13.7 16
DallasTexas 3/15/2019 22:00 9.6 -3.6 39.21 0 0 6.3 20 1028.7 24.7 16
DallasTexas 3/15/2019 23:00 9.6 -4.5 36.81 0 0 6.6 349 1029.2 43.9 16
DallasTexas 3/16/2019 0:00 8 -2.8 46.53 0 0 8.3 355 1029.7 41.5 16
DallasTexas 3/16/2019 1:00 7.3 -3.1 47.64 0 0 10 4 1029.4 43.9 16
DallasTexas 3/16/2019 2:00 7.4 -4.1 44.04 0 0 9.4 7 1029.5 43.9 16
DallasTexas 3/16/2019 3:00 6.7 -3.9 46.87 0 0 6.1 351 1029.8 24 16
DallasTexas 3/16/2019 4:00 5.2 -3.5 53.36 0 0 6.6 357 1029.4 14.2 16
DallasTexas 3/16/2019 5:00 4.1 -2.9 60.32 0 0 8.7 347 1029.4 14.4 16
DallasTexas 3/16/2019 6:00 3.9 -2.3 63.84 0 0 6.8 350 1030 14.4 16
DallasTexas 3/16/2019 7:00 3.3 -2.4 66.46 0 0 6.7 351 1030.9 14.4 16
DallasTexas 3/16/2019 8:00 3.3 -2.2 67.29 0 0 2.7 16 1031.5 13.7 16
DallasTexas 3/16/2019 9:00 7.1 -2.7 49.7 0 0 10.4 52 1031.7 13.5 16
DallasTexas 3/16/2019 10:00 9.5 -4.8 36.2 0 0 16.2 72 1032.1 13.5 16
DallasTexas 3/16/2019 11:00 11.3 -5.3 30.78 0 0 17.4 70 1032.2 25.4 16
DallasTexas 3/16/2019 12:00 12 -5.6 28.7 0 0 14.8 60 1032 25.4 16
DallasTexas 3/16/2019 13:00 13 -5.5 27.04 0 0 13.7 62 1031 26.2 16
DallasTexas 3/16/2019 14:00 14 -5.1 26.2 0 0 11.8 75 1029.7 26.2 16
DallasTexas 3/16/2019 15:00 14.7 -5.3 24.63 0 0 10.4 28 1028.4 17 16
DallasTexas 3/16/2019 16:00 15.5 -5 23.93 0 0 12 36 1027.5 16.4 16
DallasTexas 3/16/2019 17:00 16 -4.5 24.22 0 0 11.9 40 1026.7 14.3 16
DallasTexas 3/16/2019 18:00 15.8 -4.7 24.25 0 0 12.3 49 1026.4 13.5 16
DallasTexas 3/16/2019 19:00 14.7 -4.7 25.89 0 0 9.7 61 1026.7 13.5 16
DallasTexas 3/16/2019 20:00 12.9 -4.6 29.4 0 0 7.8 65 1027.2 13.7 16
DallasTexas 3/16/2019 21:00 11.6 -3.3 35.22 0 0 5.2 56 1027.6 13.7 16
DallasTexas 3/16/2019 22:00 10.3 -2.5 40.75 0 0 5.1 65 1027.7 14 16
DallasTexas 3/16/2019 23:00 8.5 -1.2 50.32 0 0 0 0 1027.5 13.5 16
DallasTexas 3/17/2019 0:00 7.9 -0.7 54.62 0 0 0.2 357 1027.6 13.5 16
DallasTexas 3/17/2019 1:00 6.7 -0.5 59.97 0 0 0.8 356 1027.4 13.5 16
DallasTexas 3/17/2019 2:00 5.5 -0.1 66.91 0 0 0.5 358 1027.3 15.6 16
DallasTexas 3/17/2019 3:00 5.4 0 68.02 0 0 0.5 355 1027.3 16.1 16
DallasTexas 3/17/2019 4:00 5.2 0.1 69.6 0 0 1.2 331 1026.9 24 16
DallasTexas 3/17/2019 5:00 4.7 -0.1 71.46 0 0 0.4 354 1026.3 24.7 16
DallasTexas 3/17/2019 6:00 4.9 0.1 70.92 0 0 3.3 338 1026.9 14.2 16
DallasTexas 3/17/2019 7:00 3.9 0.2 76.95 0 0 2.6 349 1027.5 13.7 16
DallasTexas 3/17/2019 8:00 3.8 0.5 78.92 0 0 5.8 357 1027.7 13.7 16
DallasTexas 3/17/2019 9:00 7.8 2.4 68.81 0 0 0.6 360 1028.2 13.5 16
DallasTexas 3/17/2019 10:00 11.4 1 48.62 0 0 3.3 313 1028.8 14.3 16
DallasTexas 3/17/2019 11:00 13.9 -0.1 38.44 0 0 0.8 7 1028.8 15 16
DallasTexas 3/17/2019 12:00 15.3 -1.2 32.31 0 0 7.4 19 1028.4 15.6 16
DallasTexas 3/17/2019 13:00 16.5 -1.4 29.35 0 0 5.8 98 1027.6 12.5 16
DallasTexas 3/17/2019 14:00 17.6 -2.3 25.78 0 0 7.7 79 1026.8 13.5 16
DallasTexas 3/17/2019 15:00 18 -2.4 24.84 0 0 8.1 50 1025.4 13.5 16
DallasTexas 3/17/2019 16:00 18.3 -2.5 24.19 0 0 5.9 57 1024.4 13.5 16
DallasTexas 3/17/2019 17:00 18.6 -2.4 23.86 0 0 8.2 132 1024 13.5 16
DallasTexas 3/17/2019 18:00 18.5 -2.3 24.3 0 0 5.1 86 1023.7 13.5 16
DallasTexas 3/17/2019 19:00 17.7 -1.8 26.5 0 0 9.6 84 1023.8 23.3 16
DallasTexas 3/17/2019 20:00 15.9 -1.2 31.05 0 0 8.2 99 1024.4 24.9 16
DallasTexas 3/17/2019 21:00 14.3 -1 34.97 0 0 7.8 99 1024.8 24.9 16
DallasTexas 3/17/2019 22:00 12.4 0 42.5 0 0 6.1 93 1025.3 24.7 16
DallasTexas 3/17/2019 23:00 11 0.7 49.1 0 0 2.7 75 1025.6 24.7 16
DallasTexas 3/18/2019 0:00 9.5 1.6 57.84 0 0 2.6 37 1025.4 15 16
DallasTexas 3/18/2019 1:00 8.4 1.9 63.56 0 0 2.7 43 1025.4 15 16
DallasTexas 3/18/2019 2:00 8.1 1.6 63.4 0 0 2.7 39 1025.2 15 16
DallasTexas 3/18/2019 3:00 7.5 2.1 68.64 0 0 0.7 359 1025 15 16
DallasTexas 3/18/2019 4:00 6.7 1.9 71.41 0 0 0.7 351 1024.7 13.5 16
DallasTexas 3/18/2019 5:00 6.1 1.9 74.42 0 0 0.4 357 1024.5 13.5 16
DallasTexas 3/18/2019 6:00 6.6 1.5 69.61 0 0 0.5 357 1025 13.5 16
DallasTexas 3/18/2019 7:00 6 1.2 71.25 0 0 0.2 5 1025.4 13.7 16
DallasTexas 3/18/2019 8:00 6 1.9 75.01 0 0 3.1 24 1025.8 13.7 16
DallasTexas 3/18/2019 9:00 10.3 4.2 65.92 0 0 0.5 360 1026.3 14.3 16
DallasTexas 3/18/2019 10:00 14.1 2.7 46.21 0 0 2.1 56 1026.9 15.6 16
DallasTexas 3/18/2019 11:00 17.3 1.7 35.19 0 0 3.9 330 1027.3 15 16
DallasTexas 3/18/2019 12:00 18.4 0.1 28.99 0 0 4.8 60 1027 15.7 16
DallasTexas 3/18/2019 13:00 19.3 0.1 27.59 0 0 11.9 122 1026.4 19.1 16
DallasTexas 3/18/2019 14:00 20.1 -0.3 25.53 0 0 9 148 1025.6 13.5 16
DallasTexas 3/18/2019 15:00 20.8 0.4 25.51 0 0 10.5 1 1024.4 13.9 16
DallasTexas 3/18/2019 16:00 20.9 0 24.79 0 0 11.4 76 1023.6 13.5 16
DallasTexas 3/18/2019 17:00 20.9 -0.1 24.6 0 0 11.6 154 1023.2 13.5 16
DallasTexas 3/18/2019 18:00 20.8 0.1 25.22 0 0 11 4 1023 13.5 16
DallasTexas 3/18/2019 19:00 19.7 0.7 27.99 0 0 10.9 162 1023.1 13.5 15.9
DallasTexas 3/18/2019 20:00 17.8 0.7 31.51 0 0 7.4 135 1023.4 13.5 16
DallasTexas 3/18/2019 21:00 16.2 1.1 35.94 0 0 5.7 131 1023.5 17.8 16
DallasTexas 3/18/2019 22:00 14.6 1.8 41.9 0 0 2.9 295 1023.9 25.8 16
DallasTexas 3/18/2019 23:00 14 2.3 45.26 0 0 2.7 292 1024.2 41.5 16
DallasTexas 3/19/2019 0:00 12.3 2.8 52.56 0 0 6.5 357 1024.2 43.9 16
DallasTexas 3/19/2019 1:00 12 2.6 52.56 0 0 2.3 48 1024.1 29.7 16
DallasTexas 3/19/2019 2:00 11.1 3.5 59.71 0 0 0.5 24 1023.9 29.7 16
DallasTexas 3/19/2019 3:00 10.6 3.1 59.95 0 0 0.2 7 1023.8 28.6 16
DallasTexas 3/19/2019 4:00 10.5 3.1 59.86 0 0 2.1 299 1023.3 42 16
DallasTexas 3/19/2019 5:00 10.6 2.8 58.47 0 0 6.5 9 1023.1 23 16
DallasTexas 3/19/2019 6:00 10.5 2.8 58.87 0 0 4.4 18 1023.5 43.9 16
DallasTexas 3/19/2019 7:00 10.9 2.7 56.91 0 0 5.5 226 1023.9 44.3 16
DallasTexas 3/19/2019 8:00 11.3 2.7 55.65 0 0 3.2 285 1024.2 44.3 15.9
DallasTexas 3/19/2019 9:00 12.8 3.8 54.36 0 0 5.3 243 1024.7 29.7 16
DallasTexas 3/19/2019 10:00 15.2 2.9 43.57 0 0 9.2 216 1025.1 34.6 16
DallasTexas 3/19/2019 11:00 17.6 2.4 36.16 0 0 13.9 204 1025.2 29.7 16
DallasTexas 3/19/2019 12:00 19 2.9 34.18 0 0 15.7 203 1025.1 28.8 16
DallasTexas 3/19/2019 13:00 19.3 3.5 35.15 0 0 22.2 167 1024.9 39.8 16
DallasTexas 3/19/2019 14:00 20.1 3.5 33.35 0 0 17.4 184 1023.8 39.6 16
DallasTexas 3/19/2019 15:00 20.9 3.5 31.81 0 0 22.2 174 1022.5 47.7 16
DallasTexas 3/19/2019 16:00 20.4 3.2 32.16 0 0 21.6 165 1022.1 83 16
DallasTexas 3/19/2019 17:00 20.6 3.5 32.6 0 0 21.1 169 1021.6 58.2 16
DallasTexas 3/19/2019 18:00 20.5 3 31.55 0 0 16.4 173 1021.1 57 16
DallasTexas 3/19/2019 19:00 19.6 3 33.37 0 0 18.7 168 1021 28.1 16
DallasTexas 3/19/2019 20:00 17.8 3.4 38.39 0 0 13.4 155 1021.3 16 16
DallasTexas 3/19/2019 21:00 16.3 3.8 43.32 0 0 10.8 341 1021.6 15.1 16
DallasTexas 3/19/2019 22:00 14.8 4.2 48.94 0 0 10.3 168 1022.1 13.5 16
DallasTexas 3/19/2019 23:00 14.6 3.7 47.96 0 0 11.8 162 1022.2 13.5 16
DallasTexas 3/20/2019 0:00 13.6 3.6 50.64 0 0 8.1 247 1022.4 13.5 16
DallasTexas 3/20/2019 1:00 12.9 3.6 53.09 0 0 11.3 223 1022.3 1.8 16
DallasTexas 3/20/2019 2:00 13.7 3.6 50.41 0 0 8.1 232 1022.1 15.4 16
DallasTexas 3/20/2019 3:00 12.2 4.2 58.04 0 0 10.5 3 1021.8 13.5 16
DallasTexas 3/20/2019 4:00 12 4.4 59.61 0 0 4.1 265 1021.7 11.8 16
DallasTexas 3/20/2019 5:00 11.4 5.4 66.57 0 0 5.7 249 1021.7 15.2 16
DallasTexas 3/20/2019 6:00 10.8 5.1 67.55 0 0 5.2 248 1022 28.3 16
DallasTexas 3/20/2019 7:00 10.5 5.7 72.44 0 0 3.1 288 1022.6 54 16
DallasTexas 3/20/2019 8:00 10.5 5.8 72.91 0 0 3.4 294 1023 69 16
DallasTexas 3/20/2019 9:00 12.5 6.4 66.43 0 0 10.3 306 1024.2 53 16
DallasTexas 3/20/2019 10:00 14.8 6.9 59.22 0 0 9.2 300 1024.5 50.4 16
DallasTexas 3/20/2019 11:00 16.4 7 53.63 0 0 12.5 300 1024.5 76.3 16
DallasTexas 3/20/2019 12:00 16.5 7.3 54.6 0 0 14.2 318 1024.7 74.2 16
DallasTexas 3/20/2019 13:00 16.5 6.7 52.23 0 0 23 345 1024.9 65 16
DallasTexas 3/20/2019 14:00 16.6 6.3 50.35 0 0 21.6 355 1024.7 65.6 16
DallasTexas 3/20/2019 15:00 16.6 5.3 47.23 0 0 20.1 19 1023.8 67.4 16
DallasTexas 3/20/2019 16:00 18.1 5.4 43.27 0 0 15 355 1023 32.6 16
DallasTexas 3/20/2019 17:00 18 5.3 43.24 0 0 13.9 320 1022.3 57.6 16
DallasTexas 3/20/2019 18:00 18.7 4 37.94 0 0 13.9 334 1021.9 30.8 16
DallasTexas 3/20/2019 19:00 17.8 2.3 35.33 0 0 16.3 334 1022 13.5 16
DallasTexas 3/20/2019 20:00 15.3 2.1 40.81 0 0 10.8 316 1022.5 11.9 16
DallasTexas 3/20/2019 21:00 13.4 3.3 50.46 0 0 9.1 319 1023.1 0 16
DallasTexas 3/20/2019 22:00 13 3.2 51.22 0 0 4.2 319 1023.3 0 16
DallasTexas 3/20/2019 23:00 12.5 3.6 54.43 0 0 4.6 302 1023.4 0 16
DallasTexas 3/21/2019 0:00 11.5 3.4 57.43 0 0 4.7 281 1023.3 0 16
DallasTexas 3/21/2019 1:00 11.2 3.6 59.4 0 0 8.2 224 1023 0 16
DallasTexas 3/21/2019 2:00 10.7 3.8 62.64 0 0 5.8 276 1022.8 0 16
DallasTexas 3/21/2019 3:00 10.1 3.6 63.76 0 0 5.6 279 1022.6 0 16
DallasTexas 3/21/2019 4:00 10.2 3.4 62.57 0 0 6.3 282 1022 0 16
DallasTexas 3/21/2019 5:00 9.8 3.2 63.31 0 0 6 284 1021.7 0 16
DallasTexas 3/21/2019 6:00 9.3 3.1 65.11 0 0 7.7 257 1022 0 16
DallasTexas 3/21/2019 7:00 8.7 3 67.82 0 0 4.2 308 1022.2 0 16
DallasTexas 3/21/2019 8:00 9 3.4 67.75 0 0 4.7 306 1022.6 0 16
DallasTexas 3/21/2019 9:00 12 3.8 57.25 0 0 9.3 270 1023 0 16
DallasTexas 3/21/2019 10:00 15.6 4.8 48.78 0 0 10.4 286 1023.3 13.5 16
DallasTexas 3/21/2019 11:00 18.4 5.5 42.51 0 0 14.1 286 1023.1 13.5 16
DallasTexas 3/21/2019 12:00 20.7 5.8 37.85 0 0 21.3 306 1022.9 15 16
DallasTexas 3/21/2019 13:00 22.2 4.8 32.19 0 0 13.5 309 1022.4 13.5 16
DallasTexas 3/21/2019 14:00 23.5 4.1 28.26 0 0 18.5 307 1021.6 13.5 16
DallasTexas 3/21/2019 15:00 23.9 2 23.86 0 0 17.5 306 1020.8 27.2 16
DallasTexas 3/21/2019 16:00 24.3 1.8 22.92 0 0 14 327 1019.9 43.9 16
DallasTexas 3/21/2019 17:00 24.6 1.8 22.4 0 0 13 334 1019.5 43.9 16
DallasTexas 3/21/2019 18:00 24 1.4 22.72 0 0 12.5 317 1019.1 43.9 15.8
DallasTexas 3/21/2019 19:00 22.2 1.7 25.89 0 0 10.7 336 1019 29.7 16
DallasTexas 3/21/2019 20:00 20.5 1 27.43 0 0 5.3 12 1019.3 35.7 16
DallasTexas 3/21/2019 21:00 18.9 1.4 31.02 0 0 4.5 50 1019.2 30 16
DallasTexas 3/21/2019 22:00 15.7 3.1 42.86 0 0 6.1 33 1019.8 29.7 16
DallasTexas 3/21/2019 23:00 14.9 3.6 46.85 0 0 3.5 39 1020.5 27.2 16
DallasTexas 3/22/2019 0:00 14.1 3.3 47.95 0 0 0.9 16 1020.8 27.2 16
DallasTexas 3/22/2019 1:00 12.9 3.8 53.84 0 0 1.6 43 1020.6 26.5 16
DallasTexas 3/22/2019 2:00 12.2 3.7 56.24 0 0 4.2 67 1020.4 13.5 16
DallasTexas 3/22/2019 3:00 11.4 3.8 59.29 0 0 1.6 53 1020.2 1.8 16
DallasTexas 3/22/2019 4:00 11 3.8 61.21 0 0 4.4 98 1020 1.8 16
DallasTexas 3/22/2019 5:00 10.7 3.7 62.03 0 0 4.9 106 1020.3 13.5 16
DallasTexas 3/22/2019 6:00 10 3.8 65.63 0 0 6.7 82 1020.4 13.5 16
DallasTexas 3/22/2019 7:00 11 3.6 60.44 0 0 9.8 101 1020.7 13.7 16
DallasTexas 3/22/2019 8:00 11.2 3.3 58.34 0 0 8.3 94 1021.3 15.1 16
DallasTexas 3/22/2019 9:00 13.9 4.2 51.83 0 0 6.1 77 1022.5 24.7 16
DallasTexas 3/22/2019 10:00 16.6 3.5 41.41 0 0 16.7 115 1022 29.7 16
DallasTexas 3/22/2019 11:00 18.5 3.9 38.1 0 0 14.4 115 1021.7 27.8 16
DallasTexas 3/22/2019 12:00 20.2 3.7 33.7 0 0 7.1 139 1021.7 27.8 16
DallasTexas 3/22/2019 13:00 22 4.9 32.8 0 0 9.2 132 1020.7 42 16
DallasTexas 3/22/2019 14:00 23.5 5 30.19 0 0 13.2 268 1019.5 27.8 16
DallasTexas 3/22/2019 15:00 24 5.9 31.22 0 0 14.2 154 1018.3 29.9 16
DallasTexas 3/22/2019 16:00 23.8 6 31.64 0 0 16.4 159 1017.1 35.8 16
DallasTexas 3/22/2019 17:00 23.8 6.1 31.84 0 0 18.6 146 1016.6 30.6 16
DallasTexas 3/22/2019 18:00 23.9 6.3 32.13 0 0 19.9 151 1016.3 27.8 16
DallasTexas 3/22/2019 19:00 22.6 6 34.31 0 0 16.2 146 1016.8 28.6 16
DallasTexas 3/22/2019 20:00 21.1 6.5 38.66 0 0 12.2 143 1017 28.6 16
DallasTexas 3/22/2019 21:00 19.5 6.9 43.82 0 0 14 128 1016.8 31.2 16
DallasTexas 3/22/2019 22:00 19.2 6.4 43.38 0 0 13.4 135 1016.7 30.2 16
DallasTexas 3/22/2019 23:00 18.8 6.7 45.26 0 0 22.4 141 1015.9 36.6 16
DallasTexas 3/23/2019 0:00 19.2 6.5 43.54 0 0 21.7 145 1015.8 35.4 16
DallasTexas 3/23/2019 1:00 18.7 6.6 45.5 0 0 16.1 132 1015.6 40.8 16
DallasTexas 3/23/2019 2:00 18.3 6.5 46.2 0 0 10.8 236 1016.3 38.5 16
DallasTexas 3/23/2019 3:00 17.9 7.3 49.9 0.03 0 11.9 172 1016.5 66.9 16
DallasTexas 3/23/2019 4:00 17.4 8.1 54.16 0 0 15.7 180 1016 58.5 16
DallasTexas 3/23/2019 5:00 16.8 8.5 58.01 0 0 11.5 188 1016 51.3 16
DallasTexas 3/23/2019 6:00 16.1 7.9 58.35 0 0 16.2 171 1015.9 56.7 16
DallasTexas 3/23/2019 7:00 15.5 8.5 63.03 0 0 13.7 174 1016.5 45.1 16
DallasTexas 3/23/2019 8:00 15.8 9.4 65.96 0 0 16.8 171 1017.2 87.2 16
DallasTexas 3/23/2019 9:00 16.3 11.1 71.31 0 0 20.6 179 1017.6 83.5 16
DallasTexas 3/23/2019 10:00 17.1 12.3 73.48 0.02 0 23.5 172 1017.9 72.5 15.4
DallasTexas 3/23/2019 11:00 17.8 13.5 75.92 0.08 0 24.2 173 1017.9 84.7 16
DallasTexas 3/23/2019 12:00 18.4 14 75.39 0.11 0 16.6 183 1018 92.4 16
DallasTexas 3/23/2019 13:00 19.3 14.4 73.61 0 0 22.8 189 1017.5 83.2 16
DallasTexas 3/23/2019 14:00 19.9 14.7 71.96 0.02 0 23.4 184 1016.5 90.5 16
DallasTexas 3/23/2019 15:00 20.7 15.2 70.66 0 0 27.4 179 1015.5 93.4 16
DallasTexas 3/23/2019 16:00 20.8 15.1 69.72 0 0 25.3 189 1014.9 96.3 16
DallasTexas 3/23/2019 17:00 21.2 15 67.95 0 0 20.2 186 1014.7 96.9 16
DallasTexas 3/23/2019 18:00 21 15.1 69.02 0 0 18.1 184 1014.7 83.1 16
DallasTexas 3/23/2019 19:00 21.1 15.1 68.55 0.03 0 20.2 180 1014.9 78 15.7
DallasTexas 3/23/2019 20:00 20.4 15 71.42 0 0 24.2 174 1014.6 61.1 16
DallasTexas 3/23/2019 21:00 20 14.6 71.29 0 0 24.2 169 1014.8 51.6 16
DallasTexas 3/23/2019 22:00 19.8 14.5 71.93 0 0 18.4 162 1015.4 53.4 16
DallasTexas 3/23/2019 23:00 19.2 13.9 71.38 0 0 20.4 170 1015.7 50.6 16
DallasTexas 3/24/2019 0:00 19.1 14.1 72.6 0 0 22.6 178 1015.9 69.8 16
DallasTexas 3/24/2019 1:00 18.8 14.4 75.87 0 0 20.5 175 1016.2 77.1 16
DallasTexas 3/24/2019 2:00 18.4 14.5 78.15 0 0 22.3 179 1016.3 69 16
DallasTexas 3/24/2019 3:00 18 14.7 80.9 0 0 18.6 179 1016.1 63.9 16
DallasTexas 3/24/2019 4:00 17.5 14.7 83.72 0 0 14.6 175 1015.9 59.6 16
DallasTexas 3/24/2019 5:00 17 14.8 86.66 0 0 16.1 171 1015.6 38.1 16
DallasTexas 3/24/2019 6:00 16.6 14.8 89.47 0 0 15.4 178 1015.8 40.9 16
DallasTexas 3/24/2019 7:00 16.5 14.9 90.07 0 0 14 171 1016.1 26.2 15.5
DallasTexas 3/24/2019 8:00 16.5 15.5 93.57 0 0 14.7 177 1016.5 59.3 14.3
DallasTexas 3/24/2019 9:00 18 16.2 88.99 0 0 17.3 188 1016.8 99.1 15.1
DallasTexas 3/24/2019 10:00 20 16.5 80.32 0 0 19.6 199 1017 91.3 16
DallasTexas 3/24/2019 11:00 22.6 16.7 69.2 0 0 20 215 1016.9 58.7 16
DallasTexas 3/24/2019 12:00 23.2 16.7 66.75 0 0 21.2 211 1016.7 87.3 16
DallasTexas 3/24/2019 13:00 24.2 16.5 62.3 0 0 20.9 214 1016.2 89.6 16
DallasTexas 3/24/2019 14:00 25.1 16.7 59.35 0 0 16.4 205 1015.4 79.9 16
DallasTexas 3/24/2019 15:00 26.7 16.6 53.85 0 0 18 189 1014.4 74.8 16
DallasTexas 3/24/2019 16:00 26.8 16.7 54.04 0 0 20.5 182 1014 55.7 16
DallasTexas 3/24/2019 17:00 26.5 17.4 57.45 0.21 0 22.1 180 1013.4 31.9 16
DallasTexas 3/24/2019 18:00 26.2 16.9 56.28 0 0 25.4 173 1012.8 22.8 16
DallasTexas 3/24/2019 19:00 24.9 16.7 60.42 0.06 0 29.7 178 1012.5 19.3 15.8
DallasTexas 3/24/2019 20:00 23.5 16.3 63.94 0.04 0 19.8 174 1013 29.4 16
DallasTexas 3/24/2019 21:00 22.8 16.5 67.78 0.29 0 10.6 248 1013.7 23 16
DallasTexas 3/24/2019 22:00 22.1 16.6 70.99 0 0 8.5 258 1014.7 37.6 15.8
DallasTexas 3/24/2019 23:00 21.2 17 76.78 0.65 0 5.5 299 1015.3 36 16
DallasTexas 3/25/2019 0:00 20.5 16.8 79.31 0.23 0 10.1 280 1015.5 24.3 15.8
DallasTexas 3/25/2019 1:00 18.9 15.4 80.21 5.19 0 18.3 318 1016 67.7 12.1
DallasTexas 3/25/2019 2:00 17.3 15.2 87.24 0.98 0 22.8 343 1015.9 36.5 16
DallasTexas 3/25/2019 3:00 16.8 13.5 81.03 0 0 10.6 30 1016.1 60.1 16
DallasTexas 3/25/2019 4:00 16.4 12.8 79.29 0.58 0 7 29 1016.5 83.7 16
DallasTexas 3/25/2019 5:00 15.7 11.2 74.56 0 0 14.5 15 1017.3 67.9 16
DallasTexas 3/25/2019 6:00 15.2 10 71.02 0 0 15 11 1018.4 88.6 16
DallasTexas 3/25/2019 7:00 13.8 9.4 74.53 0 0 11.7 8 1019.2 64.5 16
DallasTexas 3/25/2019 8:00 13 9.1 77.32 0 0 8.2 355 1019.8 19.6 16
DallasTexas 3/25/2019 9:00 15.1 9.1 67.45 0 0 14.7 6 1020.5 14.3 16
DallasTexas 3/25/2019 10:00 17 8.8 58.68 0 0 17.7 7 1021.3 13.5 16
DallasTexas 3/25/2019 11:00 18.4 8.9 53.87 0 0 18.8 6 1022.4 0 16
DallasTexas 3/25/2019 12:00 19.3 9.7 53.67 0 0 20.4 345 1022.7 13.5 16
DallasTexas 3/25/2019 13:00 20.4 9 47.98 0 0 19.9 359 1022.7 13.5 16
DallasTexas 3/25/2019 14:00 20.8 9.4 47.88 0 0 24.3 348 1022.5 13.5 16
DallasTexas 3/25/2019 15:00 21.5 9 44.72 0 0 18.5 347 1022.1 13.5 16
DallasTexas 3/25/2019 16:00 21.7 9.6 46.04 0 0 19.8 360 1021.4 13.4 16
DallasTexas 3/25/2019 17:00 22.1 9.5 44.65 0 0 19.3 341 1021.1 11.8 16
DallasTexas 3/25/2019 18:00 21.7 9.3 45.17 0 0 16.8 349 1021.2 13.5 16
DallasTexas 3/25/2019 19:00 20.8 8.6 45.58 0 0 16.5 8 1021.6 13.5 16
DallasTexas 3/25/2019 20:00 18.6 8.4 51.53 0 0 12.4 353 1021.9 13.7 16
DallasTexas 3/25/2019 21:00 17.6 8.3 54.27 0 0 8.5 2 1022.3 0 16
DallasTexas 3/25/2019 22:00 16.3 8.7 60.87 0 0 10.4 351 1023.2 0 16
DallasTexas 3/25/2019 23:00 15.4 8.8 65.14 0 0 11.5 353 1023.9 0 16
DallasTexas 3/26/2019 0:00 14.7 8.6 66.72 0 0 11.7 358 1024.4 0 16
DallasTexas 3/26/2019 1:00 15.1 8.3 63.82 0 0 18.8 37 1024.8 0 16
DallasTexas 3/26/2019 2:00 13.8 7.8 67.16 0 0 14.3 45 1025.3 0 16
DallasTexas 3/26/2019 3:00 12.9 7.3 68.7 0 0 8 45 1025.3 0 16
DallasTexas 3/26/2019 4:00 12.1 7.1 71.28 0 0 8.6 36 1025.4 0 16
DallasTexas 3/26/2019 5:00 11.2 7 75.19 0 0 8.6 18 1025.3 0 16
DallasTexas 3/26/2019 6:00 10.6 6.8 77.18 0 0 8.2 16 1025.8 0.7 16
DallasTexas 3/26/2019 7:00 10.1 6.7 79.51 0 0 7.2 12 1026.5 0.7 16
DallasTexas 3/26/2019 8:00 10.7 7 78.15 0 0 4 17 1027.1 0 16
DallasTexas 3/26/2019 9:00 12.9 7.7 70.57 0 0 9.4 41 1027.7 13.5 16
DallasTexas 3/26/2019 10:00 14.4 7.2 62.05 0 0 12.9 60 1028.2 13.9 16
DallasTexas 3/26/2019 11:00 15.6 7.2 57.14 0 0 6.5 90 1028.4 13.9 16
DallasTexas 3/26/2019 12:00 17 7.5 53.51 0 0 6.3 34 1028.3 11.8 16
DallasTexas 3/26/2019 13:00 18.1 7.4 49.39 0 0 7.2 11 1027.5 11.8 16
DallasTexas 3/26/2019 14:00 19.4 7 44.73 0 0 11 67 1026.8 13.5 16
DallasTexas 3/26/2019 15:00 20.2 6.3 40.31 0 0 12.9 28 1025.8 13.5 16
DallasTexas 3/26/2019 16:00 21 5.3 35.99 0 0 11.8 40 1025.1 11.8 16
DallasTexas 3/26/2019 17:00 21.3 5.2 34.93 0 0 9.9 39 1024.7 13.5 16
DallasTexas 3/26/2019 18:00 21 6.5 38.87 0 0 9.6 69 1024.1 13.5 16
DallasTexas 3/26/2019 19:00 19.8 6.4 41.61 0 0 12.1 78 1024.1 13.5 16
DallasTexas 3/26/2019 20:00 18.2 6.9 47.68 0 0 10.6 92 1024.2 13.7 16
DallasTexas 3/26/2019 21:00 16.9 7.2 53.03 0 0 11 91 1024.5 13.7 16
DallasTexas 3/26/2019 22:00 15.8 7.8 58.8 0 0 8.2 107 1025.4 13.5 16
DallasTexas 3/26/2019 23:00 14.9 7.8 62.48 0 0 8.7 112 1025.5 15 16
DallasTexas 3/27/2019 0:00 13.9 7.9 67.08 0 0 6.2 111 1025.3 27.2 16
DallasTexas 3/27/2019 1:00 13.2 7.8 69.92 0 0 7.6 104 1024.6 27.2 16
DallasTexas 3/27/2019 2:00 13 7.4 68.57 0 0 9.1 118 1024.3 5.7 16
DallasTexas 3/27/2019 3:00 13.3 7.1 65.91 0 0 13.3 128 1024.2 17.4 16
DallasTexas 3/27/2019 4:00 12.8 7 67.43 0 0 17 139 1023.9 17.4 16
DallasTexas 3/27/2019 5:00 12.5 6.8 67.92 0 0 15.4 139 1023.8 15 16
DallasTexas 3/27/2019 6:00 11.7 6.6 70.97 0 0 13 132 1023.9 15 16
DallasTexas 3/27/2019 7:00 11.7 6.5 70.26 0 0 12.3 139 1024.5 15.1 16
DallasTexas 3/27/2019 8:00 11.4 6.8 73.72 0 0 11.9 144 1025 24.1 16
DallasTexas 3/27/2019 9:00 13.6 6.6 62.75 0 0 19.6 167 1025.9 21.5 16
DallasTexas 3/27/2019 10:00 16.1 6.8 54.2 0 0 20.3 173 1026.2 42 16
DallasTexas 3/27/2019 11:00 17.6 6.9 49.35 0 0 23.4 166 1026.4 42 16
DallasTexas 3/27/2019 12:00 19.2 7.6 47.1 0 0 23.5 175 1026 42 16
DallasTexas 3/27/2019 13:00 20.6 8.1 44.63 0 0 24 161 1025 43.9 16
DallasTexas 3/27/2019 14:00 21.6 8.6 43.57 0 0 22.3 156 1023.7 43.9 16
DallasTexas 3/27/2019 15:00 22.5 9.1 42.56 0 0 26.9 148 1022.2 35.4 16
DallasTexas 3/27/2019 16:00 22.8 9.3 42.1 0 0 24.3 144 1021.4 28.6 16
DallasTexas 3/27/2019 17:00 23.1 9.4 41.7 0 0 27.8 156 1020.7 27.8 16
DallasTexas 3/27/2019 18:00 22.9 8.7 40.41 0 0 23.9 155 1020.4 27.8 16
DallasTexas 3/27/2019 19:00 21.9 8.4 42.1 0 0 24.8 150 1020 32.5 16
DallasTexas 3/27/2019 20:00 20.5 8.7 46.62 0 0 18.5 154 1020.2 32.1 16
DallasTexas 3/27/2019 21:00 19.4 8.8 50.51 0 0 16 154 1020.4 27.5 16
DallasTexas 3/27/2019 22:00 18.8 8.7 51.75 0 0 16.2 163 1020.7 24.7 16
DallasTexas 3/27/2019 23:00 17.9 8.6 54.54 0 0 17.2 158 1020.8 13.5 16
DallasTexas 3/28/2019 0:00 17.5 8.2 54.39 0 0 18.1 157 1020.3 15.5 15.5
DallasTexas 3/28/2019 1:00 17 8 55.68 0 0 16.3 162 1020.3 15 15.5
DallasTexas 3/28/2019 2:00 16.6 8.3 58.02 0 0 18.4 164 1020.1 15 15.3
DallasTexas 3/28/2019 3:00 16.1 9.1 63.28 0 0 17.1 172 1019.9 27.2 16
DallasTexas 3/28/2019 4:00 15.6 9.5 67.08 0 0 17.2 176 1019.5 15.9 16
DallasTexas 3/28/2019 5:00 14.8 9.1 68.82 0 0 17.5 170 1019.2 27.2 16
DallasTexas 3/28/2019 6:00 14.2 8.6 69.05 0 0 16.9 177 1019.7 29.7 16
DallasTexas 3/28/2019 7:00 13.9 8.8 71.13 0 0 18.5 176 1019.9 28.1 16
DallasTexas 3/28/2019 8:00 13.5 8.2 70.36 0 0 18.5 167 1020.5 31.8 16
DallasTexas 3/28/2019 9:00 14.3 9.4 72.62 0 0 24.7 175 1020.7 57 16
DallasTexas 3/28/2019 10:00 15.8 11.3 74.65 0 0 24.5 187 1020.8 70.9 16
DallasTexas 3/28/2019 11:00 17.4 12 70.81 0 0 24.2 185 1020.6 70.5 16
DallasTexas 3/28/2019 12:00 18.5 12.5 68.07 0 0 25.9 175 1020.2 52.6 16
DallasTexas 3/28/2019 13:00 20.5 12.6 60.65 0 0 27.6 181 1019 27.6 16
DallasTexas 3/28/2019 14:00 22.2 11.7 51.48 0 0 29.1 169 1018.2 49.6 16
DallasTexas 3/28/2019 15:00 23.1 11.5 47.83 0 0 30.1 173 1017.2 32.7 16
DallasTexas 3/28/2019 16:00 23.6 11.8 47.27 0 0 33.1 171 1016.1 30.6 16
DallasTexas 3/28/2019 17:00 24.7 11.9 44.74 0 0 30.2 178 1015.7 19.6 16
DallasTexas 3/28/2019 18:00 24.4 11.4 44.09 0 0 31.2 173 1015.3 29 16
DallasTexas 3/28/2019 19:00 23.7 10.9 44.55 0 0 28.9 182 1015.5 18.3 16
DallasTexas 3/28/2019 20:00 22.8 11 47.35 0 0 25.2 172 1015.8 28.8 16
DallasTexas 3/28/2019 21:00 21.7 11.8 53.17 0 0 21.9 164 1016 18.5 16
DallasTexas 3/28/2019 22:00 20.7 11.9 57 0 0 23.2 169 1016.4 26.5 16
DallasTexas 3/28/2019 23:00 20.1 12.2 60.71 0 0 28.7 176 1016.2 27.8 16
DallasTexas 3/29/2019 0:00 19.1 12.1 64.04 0 0 25.8 176 1015.7 35.4 16
DallasTexas 3/29/2019 1:00 18.5 12.2 67.07 0 0 23.2 182 1015.7 29.7 16
DallasTexas 3/29/2019 2:00 18 12.3 69.29 0 0 26.6 176 1014.9 29.7 16
DallasTexas 3/29/2019 3:00 17.5 12.5 72.73 0 0 22.1 172 1014.2 29.7 16
DallasTexas 3/29/2019 4:00 17.2 12.9 75.95 0 0 22.8 174 1013.6 44.3 16
DallasTexas 3/29/2019 5:00 17.2 13 76.45 0 0 21.8 171 1013.4 44.3 16
DallasTexas 3/29/2019 6:00 17.2 13.2 77.73 0 0 24.6 163 1013.6 37.7 16
DallasTexas 3/29/2019 7:00 17.2 13.4 78.53 0 0 20.2 169 1014.3 62.4 16
DallasTexas 3/29/2019 8:00 17.2 13.6 79.51 0 0 16.3 172 1014.8 80 16
DallasTexas 3/29/2019 9:00 17.6 13.9 78.93 0 0 15 151 1015 68 16
DallasTexas 3/29/2019 10:00 18.7 14.4 75.84 0 0 24.3 157 1014.8 65.7 16
DallasTexas 3/29/2019 11:00 19.8 14.2 70.33 0 0 24.4 175 1014.7 92.1 16
DallasTexas 3/29/2019 12:00 20 14.3 69.62 0 0 19.9 189 1014.4 92.2 16
DallasTexas 3/29/2019 13:00 21.2 14.5 65.5 0 0 18.1 191 1013.8 81.5 16
DallasTexas 3/29/2019 14:00 21.8 14.5 63.27 0 0 22.8 189 1012.9 95.5 16
DallasTexas 3/29/2019 15:00 22.8 14.7 60.05 0 0 24.4 195 1011.9 94.4 16
DallasTexas 3/29/2019 16:00 22.8 14.5 59.57 0 0 27.4 182 1010.8 95.6 16
DallasTexas 3/29/2019 17:00 22.4 14.5 60.87 0 0 19.6 191 1010.6 97 16
DallasTexas 3/29/2019 18:00 22.3 14.7 62 0 0 21.1 192 1010.3 96.9 16
DallasTexas 3/29/2019 19:00 22.3 15 63.52 0 0 20.8 182 1009.8 97.2 16
DallasTexas 3/29/2019 20:00 22.2 15 64.04 0 0 14.3 185 1009.9 96.6 16
DallasTexas 3/29/2019 21:00 22 15.1 64.74 0 0 15 182 1009.8 82.8 16
DallasTexas 3/29/2019 22:00 21.8 15.1 65.77 0 0 16 175 1010.1 75.1 16
DallasTexas 3/29/2019 23:00 21.5 15.1 66.82 0 0 19.4 168 1009.2 81.5 16
DallasTexas 3/30/2019 0:00 20.9 14.3 65.97 0 0 24.6 170 1009 17.5 16
DallasTexas 3/30/2019 1:00 20.2 14.4 69.33 0 0 31.1 175 1008.9 0.8 16
DallasTexas 3/30/2019 2:00 19.2 14.5 74.4 0 0 26.1 179 1008.7 26.9 16
DallasTexas 3/30/2019 3:00 18.7 15 79.52 0 0 25.7 184 1008.2 81.6 16
DallasTexas 3/30/2019 4:00 18.4 15.1 80.92 0 0 23.1 190 1007.7 63.4 16
DallasTexas 3/30/2019 5:00 18.3 15 81.23 0 0 21.2 192 1007.6 48.2 16
DallasTexas 3/30/2019 6:00 18.3 15.1 81.47 0 0 13.2 219 1009.5 82.8 16
DallasTexas 3/30/2019 7:00 17.8 15.1 84.09 0 0 10.4 254 1010.4 89.8 16
DallasTexas 3/30/2019 8:00 13.9 12.5 90.93 0.24 0 30.8 335 1013 93 5.3
DallasTexas 3/30/2019 9:00 10.6 9.1 90.25 0.24 0 32.5 337 1015.4 84.6 9.2
DallasTexas 3/30/2019 10:00 10 7 81.66 0.1 0 35.9 333 1017.3 96.2 15.3
DallasTexas 3/30/2019 11:00 10.6 5.7 71.65 0 0 37.4 339 1018.7 94.2 16
DallasTexas 3/30/2019 12:00 10.8 4.5 65.4 0 0 38 327 1019.7 100 16
DallasTexas 3/30/2019 13:00 9.8 3.8 66.12 0 0 38.2 335 1020.2 100 16
DallasTexas 3/30/2019 14:00 9.3 2.9 64.13 0 0 35.3 344 1020.7 100 16
DallasTexas 3/30/2019 15:00 9.6 2.6 61.85 0 0 36.6 343 1021.2 95.8 16
DallasTexas 3/30/2019 16:00 11.1 2.3 54.5 0 0 30.8 353 1021.2 96.1 16
DallasTexas 3/30/2019 17:00 11.1 1.8 52.75 0 0 36.2 357 1021.4 85.1 16
DallasTexas 3/30/2019 18:00 11.2 1.3 50.68 0 0 34.1 354 1021.8 83.1 16
DallasTexas 3/30/2019 19:00 10.7 0.8 50.54 0 0 30 358 1022.6 93.1 16
DallasTexas 3/30/2019 20:00 10.3 0.2 49.49 0 0 29 3 1023.4 99.5 16
DallasTexas 3/30/2019 21:00 10 -0.2 48.93 0 0 29.2 3 1024.2 78.2 16
DallasTexas 3/30/2019 22:00 9.7 -0.7 48.36 0 0 28.8 360 1025.4 83.5 16
DallasTexas 3/30/2019 23:00 9.4 -0.8 49.05 0 0 22 355 1026.4 51.2 16
DallasTexas 3/31/2019 0:00 8.6 -0.9 51.24 0 0 22.8 3 1026.7 34.1 16
DallasTexas 3/31/2019 1:00 7.9 -1.2 52.79 0 0 22.3 357 1027.2 31.6 16
DallasTexas 3/31/2019 2:00 7.3 -1.1 55.2 0 0 17.7 358 1027.4 34.9 16
DallasTexas 3/31/2019 3:00 6.9 -1.5 55.38 0 0 22.8 2 1027 50.3 16
DallasTexas 3/31/2019 4:00 6.2 -1.5 57.7 0 0 20.4 358 1027 41.5 16
DallasTexas 3/31/2019 5:00 5.6 -2.2 57.22 0 0 19.5 9 1027.2 41.5 16
DallasTexas 3/31/2019 6:00 5.1 -2.7 57.36 0 0 21.7 9 1027.7 41.5 16
DallasTexas 3/31/2019 7:00 4.5 -2.9 58.54 0 0 19.8 10 1028.7 44.3 16
DallasTexas 3/31/2019 8:00 4.2 -2.6 61.55 0 0 17.5 359 1029.5 44.3 16
DallasTexas 3/31/2019 9:00 5.3 -3.1 54.82 0 0 20 20 1030.2 43.9 16
DallasTexas 3/31/2019 10:00 6.8 -3.9 46.46 0 0 22.8 36 1030.5 43.9 16
DallasTexas 3/31/2019 11:00 7.5 -4 43.62 0 0 24.2 38 1030.4 29.7 16
DallasTexas 3/31/2019 12:00 8.8 -3.5 41.6 0 0 24.9 29 1029.5 29.7 16
DallasTexas 3/31/2019 13:00 9.8 -3.8 38.17 0 0 18.6 10 1028.8 29.7 16
DallasTexas 3/31/2019 14:00 10.9 -3.9 35.24 0 0 15.8 30 1028.3 42 16
DallasTexas 3/31/2019 15:00 12.1 -3.5 33.5 0 0 11.7 14 1027.3 33.5 16
DallasTexas 3/31/2019 16:00 13.1 -3.7 31 0 0 17.8 10 1026.1 27.8 16
DallasTexas 3/31/2019 17:00 13.3 -3.3 31.32 0 0 15.7 353 1025.4 27.8 16
DallasTexas 3/31/2019 18:00 13 -4 30.61 0 0 14.4 11 1024.9 27.8 16
DallasTexas 3/31/2019 19:00 12.5 -4.6 30.09 0 0 15.4 29 1024.7 26.5 16
DallasTexas 3/31/2019 20:00 10.7 -3.9 35.59 0 0 10.5 25 1024.9 13.5 16
DallasTexas 3/31/2019 21:00 9.5 -3.3 40.44 0 0 7.6 32 1025.2 13.7 16
DallasTexas 3/31/2019 22:00 8 -2.8 46.49 0 0 6.5 21 1025.6 15 16
DallasTexas 3/31/2019 23:00 7.3 -2.8 48.6 0 0 7.5 32 1025.5 27.2 16
DallasTexas 4/1/2019 0:00 6.3 -2.8 52.28 0 0 6.7 30 1025.1 27.2 16
DallasTexas 4/1/2019 1:00 5.5 -3 54.1 0 0 7.3 32 1025.1 21.5 16
DallasTexas 4/1/2019 2:00 5.3 -3.6 52.83 0 0 9.5 26 1024.9 29.7 16
DallasTexas 4/1/2019 3:00 4.9 -3.3 55.3 0 0 8.9 22 1024.9 27.2 16
DallasTexas 4/1/2019 4:00 5.2 -3 55.48 0 0 3.2 350 1024.8 26 16
DallasTexas 4/1/2019 5:00 4.7 -2.1 61.19 0 0 5.3 343 1024.7 46.3 16
DallasTexas 4/1/2019 6:00 5.7 -2 57.58 0 0 5.1 341 1024.7 65.4 15.8
DallasTexas 4/1/2019 7:00 6.2 -1.8 56.61 0 0 2.4 359 1025.3 85.2 16
DallasTexas 4/1/2019 8:00 6.2 -0.9 60.46 0 0 6 347 1026.2 57.1 16
DallasTexas 4/1/2019 9:00 7.6 -0.8 55.5 0 0 0.2 4 1026.7 47.3 16
DallasTexas 4/1/2019 10:00 8.7 -0.6 52.07 0 0 4.6 86 1026.2 69.5 16
DallasTexas 4/1/2019 11:00 9.5 -0.2 50.82 0 0 1.6 359 1026.5 65.1 16
DallasTexas 4/1/2019 12:00 10.7 -0.4 46.08 0 0 10.5 146 1025.5 65.3 16
DallasTexas 4/1/2019 13:00 12.9 -1.2 37.69 0 0 6.4 79 1024.6 23 16
DallasTexas 4/1/2019 14:00 14.1 -1.6 33.96 0 0 8.8 331 1023.7 29.9 16
DallasTexas 4/1/2019 15:00 14.5 -1.9 32.24 0 0 4.9 323 1022.4 28.5 16
DallasTexas 4/1/2019 16:00 15.8 -1.9 29.64 0 0 7.8 18 1021.4 38.8 16
DallasTexas 4/1/2019 17:00 15.4 -2.2 29.81 0 0 9.9 248 1021 22.1 16
DallasTexas 4/1/2019 18:00 15.6 -2.5 28.79 0 0 4.6 291 1020.4 16.5 16
DallasTexas 4/1/2019 19:00 15.6 -2.3 29.38 0 0 5.4 336 1020.4 11.8 16
DallasTexas 4/1/2019 20:00 13.4 -2 34.52 0 0 7.9 92 1020.7 11.9 16
DallasTexas 4/1/2019 21:00 11.9 1 47.08 0 0 14 136 1021.4 0 16
DallasTexas 4/1/2019 22:00 10.5 1.4 53.59 0 0 15.2 157 1022.6 0 16
DallasTexas 4/1/2019 23:00 9.6 1.3 56.32 0 0 11.4 154 1023.2 0 16
DallasTexas 4/2/2019 0:00 8.8 1.2 59.03 0 0 10.8 135 1023.2 0 16
DallasTexas 4/2/2019 1:00 8.3 1 60.36 0 0 12.3 156 1022.8 0 16
DallasTexas 4/2/2019 2:00 7.8 1.1 62.26 0 0 13.2 147 1022.2 11.8 16
DallasTexas 4/2/2019 3:00 7.2 1.1 65.06 0 0 14.2 165 1021.8 13.5 16
DallasTexas 4/2/2019 4:00 6.8 1.2 67.65 0 0 13.3 220 1021.4 11.8 16
DallasTexas 4/2/2019 5:00 6.4 1 68.24 0 0 12.3 233 1021 13.5 16
DallasTexas 4/2/2019 6:00 5.7 0.9 71.48 0 0 9.7 237 1021.1 13.5 16
DallasTexas 4/2/2019 7:00 5.5 0.5 69.8 0 0 8.3 30 1021.2 13.7 16
DallasTexas 4/2/2019 8:00 6.3 0.8 67.9 0 0 11 136 1022.1 13.7 16
DallasTexas 4/2/2019 9:00 8.5 1.7 62.13 0 0 12.2 193 1022.9 13.5 16
DallasTexas 4/2/2019 10:00 12 1.5 48.53 0 0 19.8 201 1023 15 16
DallasTexas 4/2/2019 11:00 14 2.3 45.19 0 0 18.1 210 1023.3 27.2 16
DallasTexas 4/2/2019 12:00 16.4 2.9 40.63 0 0 16.2 205 1023.4 43.9 16
DallasTexas 4/2/2019 13:00 17.9 3.1 37.07 0 0 17.4 204 1022.4 43.9 16
DallasTexas 4/2/2019 14:00 19.5 3.4 34.63 0 0 14.2 182 1021.3 27.2 16
DallasTexas 4/2/2019 15:00 20.6 3.8 33.21 0 0 19.7 183 1020.3 15 16
DallasTexas 4/2/2019 16:00 20.9 3.8 32.52 0 0 21.7 157 1019.3 15 16
DallasTexas 4/2/2019 17:00 21.3 3.5 30.98 0 0 22.3 158 1018.6 24.7 16
DallasTexas 4/2/2019 18:00 20.8 3.1 31.01 0 0 22.2 159 1018 27.2 16
DallasTexas 4/2/2019 19:00 19.5 3.2 33.84 0 0 22.6 152 1018.1 43.9 16
DallasTexas 4/2/2019 20:00 17.8 2.8 36.57 0 0 18.2 150 1018.6 30 16
DallasTexas 4/2/2019 21:00 16.1 3.7 43.63 0 0 13.9 143 1019.1 45 16
DallasTexas 4/2/2019 22:00 14.5 4 49.3 0 0 14.5 142 1019.9 43.9 16
DallasTexas 4/2/2019 23:00 14.8 3.6 47.01 0 0 21.1 153 1020.1 43.9 16
DallasTexas 4/3/2019 0:00 14 3.6 49.36 0 0 18.4 157 1020.2 43.9 16
DallasTexas 4/3/2019 1:00 13.7 3.7 50.94 0 0 14.2 154 1020.1 43.9 16
DallasTexas 4/3/2019 2:00 12.8 3.7 53.99 0 0 14.5 149 1019.8 43.9 16
DallasTexas 4/3/2019 3:00 11.8 4.1 59.47 0 0 13.8 138 1019.4 43.9 16
DallasTexas 4/3/2019 4:00 12 4 58.12 0 0 16.5 162 1019.2 43.9 16
DallasTexas 4/3/2019 5:00 10.6 4.4 65.21 0 0 11.8 157 1019.4 43.9 16
DallasTexas 4/3/2019 6:00 10.3 4.9 69.2 0 0 12.7 157 1019.9 43.9 16
DallasTexas 4/3/2019 7:00 10.1 5.1 71 0 0 12.9 161 1020.2 48.7 16
DallasTexas 4/3/2019 8:00 10.4 5.7 72.73 0 0 15.5 151 1020.6 32.8 16
DallasTexas 4/3/2019 9:00 12.1 6.9 70.37 0 0 14.8 153 1020.8 30.9 16
DallasTexas 4/3/2019 10:00 14.9 7 59.02 0 0 18.1 156 1020.8 56.8 16
DallasTexas 4/3/2019 11:00 15.5 7.2 57.92 0 0 26.1 151 1020.8 95.6 15.1
DallasTexas 4/3/2019 12:00 16 7.8 58.31 0 0 19.8 154 1020.6 97.6 16
DallasTexas 4/3/2019 13:00 17.2 8.2 55.51 0 0 22 158 1019.8 77.4 16
DallasTexas 4/3/2019 14:00 19 8.7 51.46 0 0 25.7 144 1018.4 63.7 16
DallasTexas 4/3/2019 15:00 19.8 9.2 50.22 0 0 26.1 156 1017.5 95.6 16
DallasTexas 4/3/2019 16:00 20.5 9.9 50.82 0 0 25.8 150 1016.6 83.6 16
DallasTexas 4/3/2019 17:00 20.1 9.4 50.07 0 0 28.7 143 1015.7 93.3 16
DallasTexas 4/3/2019 18:00 19.8 8.5 47.9 0 0 26.4 154 1015.3 97.3 16
DallasTexas 4/3/2019 19:00 19.2 7.7 47.22 0 0 25.8 158 1015.3 99.4 16
DallasTexas 4/3/2019 20:00 18.3 8.2 51.67 0 0 28.3 157 1015 94.9 16
DallasTexas 4/3/2019 21:00 17.8 9.1 56.8 0 0 24.3 146 1015.2 95.5 16
DallasTexas 4/3/2019 22:00 17.6 10.6 63.69 0 0 22.9 148 1015.9 99.9 16
DallasTexas 4/3/2019 23:00 17.3 11.3 67.89 0 0 23.6 153 1015.6 98.9 16
DallasTexas 4/4/2019 0:00 17.3 12 71.05 0 0 24 150 1015.4 97.2 16
DallasTexas 4/4/2019 1:00 17.4 12.7 73.72 0 0 25.5 157 1014.6 100 16
DallasTexas 4/4/2019 2:00 17.3 13 75.78 0 0 24.8 160 1013.9 100 16
DallasTexas 4/4/2019 3:00 17.3 13.7 78.99 0 0 22.3 173 1013.9 97.3 16
DallasTexas 4/4/2019 4:00 17.2 14.4 83.65 0 0 18.2 183 1013.9 100 14.5
DallasTexas 4/4/2019 5:00 17 15.1 88.19 0 0 13.2 176 1013.8 100 11.3
DallasTexas 4/4/2019 6:00 16.7 15.6 93.48 0.01 0 7.6 117 1014.6 99.4 8.9
DallasTexas 4/4/2019 7:00 17 15.7 92.1 0.01 0 10.3 148 1014.4 99.7 8.2
DallasTexas 4/4/2019 8:00 17.2 15.7 91.04 0 0 13.8 162 1014.1 100 6.7
DallasTexas 4/4/2019 9:00 17.7 16.2 91.32 0 0 13.8 173 1014.3 99.6 7.6
DallasTexas 4/4/2019 10:00 18.8 16.8 88.3 0 0 15.1 188 1013.9 96.9 10.4
DallasTexas 4/4/2019 11:00 21.5 17.3 76.98 0 0 14.9 216 1013.9 77.4 15.3
DallasTexas 4/4/2019 12:00 23.4 17.6 69.53 0 0 10.7 246 1013.9 70.6 15.8
DallasTexas 4/4/2019 13:00 24.8 17 61.71 0 0 13 284 1013.6 71.9 15.9
DallasTexas 4/4/2019 14:00 26.6 16.6 54.24 0 0 8.2 345 1013.1 46.4 16
DallasTexas 4/4/2019 15:00 27.8 15.9 48.25 0 0 10.9 327 1012.4 35.5 16
DallasTexas 4/4/2019 16:00 28.3 14.9 44.18 0 0 11.7 359 1011.8 35.9 16
DallasTexas 4/4/2019 17:00 28 15 45.26 0 0 15 1 1011.5 34.3 16
DallasTexas 4/4/2019 18:00 25 16.4 58.57 0 0 24.6 63 1012 24.2 16
DallasTexas 4/4/2019 19:00 23 15.7 63.76 0 0 19.3 49 1013 16.4 16
DallasTexas 4/4/2019 20:00 21.3 15 67.41 0 0 16.3 57 1013.8 13.7 16
DallasTexas 4/4/2019 21:00 20.1 13.9 67.66 0 0 12.1 53 1014.8 13.7 16
DallasTexas 4/4/2019 22:00 18.8 13 69.14 0 0 9.6 70 1015.7 1.8 16
DallasTexas 4/4/2019 23:00 17.9 12.4 70.16 0 0 9.1 81 1015.9 15 16
DallasTexas 4/5/2019 0:00 17.1 12.1 72.52 0 0 8 87 1016.1 15 16
DallasTexas 4/5/2019 1:00 16.1 12.4 79.11 0 0 5.6 72 1016.6 3.2 16
DallasTexas 4/5/2019 2:00 15 12.4 84.52 0 0 6.9 44 1016.5 17.4 15.9
DallasTexas 4/5/2019 3:00 14.7 12.7 87.64 0 0 6.2 49 1016 17.4 15.7
DallasTexas 4/5/2019 4:00 13.9 12.4 90.35 0 0 2.3 22 1015.4 25.3 13.8
DallasTexas 4/5/2019 5:00 13.1 11.6 90.47 0 0 2.6 39 1015.1 28.3 13.4
DallasTexas 4/5/2019 6:00 12.8 11.3 90.94 0 0 4.2 88 1015.3 29.6 11.3
DallasTexas 4/5/2019 7:00 13.3 12 92.15 0 0 6.4 77 1015.5 62.2 9.4
DallasTexas 4/5/2019 8:00 12.8 11.9 94.3 0 0 7.9 67 1016.1 59.4 5.5
DallasTexas 4/5/2019 9:00 13.7 12.2 90.39 0 0 10.8 95 1016.6 72.9 9.1
DallasTexas 4/5/2019 10:00 15 12.1 82.92 0 0 13.5 99 1016.9 66.4 12.4
DallasTexas 4/5/2019 11:00 17.9 12.3 69.96 0 0 16.4 104 1017.4 35 15.9
DallasTexas 4/5/2019 12:00 20.6 13 61.64 0 0 12.9 101 1017.3 22 16
DallasTexas 4/5/2019 13:00 22.3 13.5 57.23 0 0 12.3 97 1016.9 43.9 16
DallasTexas 4/5/2019 14:00 24.1 13.8 52.34 0 0 14.3 79 1015.6 17.4 15.5
DallasTexas 4/5/2019 15:00 24.7 14.2 52.09 0 0 15.3 111 1014.4 17.6 16
DallasTexas 4/5/2019 16:00 25.5 14.5 50.46 0 0 15.8 108 1013.4 22.1 15.5
DallasTexas 4/5/2019 17:00 25.8 15.2 51.76 0 0 16.2 114 1012.6 23.5 16
DallasTexas 4/5/2019 18:00 24.8 15.3 55.35 0 0 15.6 119 1012.6 44.8 16
DallasTexas 4/5/2019 19:00 24.2 15.7 59.04 0 0 19.4 132 1012.5 60.7 16
DallasTexas 4/5/2019 20:00 22.8 16.3 66.88 0 0 20.3 144 1013 49 16
DallasTexas 4/5/2019 21:00 21.7 16.6 72.78 0 0 17.2 142 1013.4 43.7 15.3
DallasTexas 4/5/2019 22:00 20.7 16.6 77.43 0 0 18.1 131 1013.9 59.2 14.5
DallasTexas 4/5/2019 23:00 19.7 16.2 80.37 0 0 19.3 131 1013.5 46.6 12.9
DallasTexas 4/6/2019 0:00 18.7 16.2 85.1 0 0 15.9 124 1013.4 60.6 14
DallasTexas 4/6/2019 1:00 18.6 16.2 86.09 0 0 15.7 132 1013.4 90.7 13
DallasTexas 4/6/2019 2:00 18.8 16.7 87.64 0 0 19.3 136 1013.2 100 13.5
DallasTexas 4/6/2019 3:00 18.8 16.9 88.23 0 0 16.2 132 1012.4 96.9 12.8
DallasTexas 4/6/2019 4:00 18.9 16.9 88.39 0 0 16.9 138 1012.3 100 11.3
DallasTexas 4/6/2019 5:00 18.8 17.2 90.65 0 0 16.6 122 1011.9 99.8 10.2
DallasTexas 4/6/2019 6:00 18.5 17.3 92.87 0 0 12.8 122 1012.2 97.8 8
DallasTexas 4/6/2019 7:00 18.5 17.2 92.27 0 0 10.4 112 1013 100 9.9
DallasTexas 4/6/2019 8:00 18.8 17.4 91.69 0 0 16.3 122 1012.8 97.3 8.8
DallasTexas 4/6/2019 9:00 18.9 17.8 93.61 0 0 12.4 114 1013.4 100 7.3
DallasTexas 4/6/2019 10:00 19.1 17.7 91.91 0.24 0 11.4 86 1013.2 96.2 5.7
DallasTexas 4/6/2019 11:00 15 14 93.8 20.43 0 12 316 1014.3 76.8 4.3
DallasTexas 4/6/2019 12:00 15.1 14 93.01 2.61 0 21.9 64 1010.7 41.3 15.5
DallasTexas 4/6/2019 13:00 15.5 14.2 91.91 1.39 0 16.7 117 1012.8 68.6 15.3
DallasTexas 4/6/2019 14:00 15.6 14 90.39 3.57 0 24.5 94 1009.9 60 14.1
DallasTexas 4/6/2019 15:00 16.5 14.5 88.12 0.06 0 13.4 122 1010.1 38 15.9
DallasTexas 4/6/2019 16:00 17.7 15 84.45 0 0 6.6 91 1010.5 67.1 16
DallasTexas 4/6/2019 17:00 17.6 15.1 85.62 0 0 8.6 342 1010.7 84.1 16
DallasTexas 4/6/2019 18:00 17.5 15.2 86.13 0 0 12.5 123 1009.8 42.7 16
DallasTexas 4/6/2019 19:00 17.6 15.2 85.94 0 0 8.9 120 1010.4 62.2 16
DallasTexas 4/6/2019 20:00 16.8 15.1 89.51 0 0 5 289 1010.1 29.1 15.9
DallasTexas 4/6/2019 21:00 16.3 14.8 90.75 0 0 7 300 1010.9 20.2 15.4
DallasTexas 4/6/2019 22:00 16.3 15 91.89 0 0 6.8 241 1011.7 22.9 14.9
DallasTexas 4/6/2019 23:00 16.1 15 93.24 0 0 5.3 264 1011.8 22 14
DallasTexas 4/7/2019 0:00 16.2 15.1 93.16 0 0 4.6 281 1012.1 31.6 12.3
DallasTexas 4/7/2019 1:00 16.3 15.1 92.56 0 0 5.3 277 1012.4 56.4 11.8
DallasTexas 4/7/2019 2:00 16.1 15 92.8 0 0 3.3 67 1012.2 88.5 10.1
DallasTexas 4/7/2019 3:00 16.6 15.6 93.35 0 0 6.4 96 1011.6 97.7 10.1
DallasTexas 4/7/2019 4:00 16.9 15.9 93.87 0 0 8.2 114 1011.1 99.6 9
DallasTexas 4/7/2019 5:00 17.2 16.2 93.84 0 0 8.2 124 1010.9 99.6 8.7
DallasTexas 4/7/2019 6:00 17.3 16.5 95.16 0 0 9.1 122 1011.7 97.8 6
DallasTexas 4/7/2019 7:00 17.3 16.6 95.4 0 0 10.7 120 1012 100 3.5
DallasTexas 4/7/2019 8:00 17.3 16.6 95.53 0 0 11.8 131 1011.9 84.1 2.8
DallasTexas 4/7/2019 9:00 17.9 17.1 94.97 0 0 8.3 121 1011.7 95.9 3.4
DallasTexas 4/7/2019 10:00 18.7 17.5 92.5 0 0 18.8 151 1014.1 99.8 5.4
DallasTexas 4/7/2019 11:00 19.3 18.1 92.62 0 0 13.5 157 1015 94 6.1
DallasTexas 4/7/2019 12:00 20.1 18.5 90.61 0 0 11.9 143 1014 99.7 6
DallasTexas 4/7/2019 13:00 20.6 18.6 88.06 0 0 14.2 158 1012.9 92.9 8.6
DallasTexas 4/7/2019 14:00 20.6 18 85.01 0 0 8.8 31 1011.6 75.5 11.7
DallasTexas 4/7/2019 15:00 21.1 17.8 81.16 0.02 0 2.1 338 1010 64.9 12.5
DallasTexas 4/7/2019 16:00 21 18.2 83.85 0.03 0 15.8 340 1008.9 66.1 10.9
DallasTexas 4/7/2019 17:00 21 18.3 84.77 0.26 0 5.8 46 1009.4 76.8 9.3
DallasTexas 4/7/2019 18:00 20.5 18.3 87.34 0.32 0 12 122 1010 65.1 8.7
DallasTexas 4/7/2019 19:00 19.2 17.3 88.64 0.21 0 7.4 96 1010.7 71 11.3
DallasTexas 4/7/2019 20:00 18.5 16.1 85.67 0.68 0 9.7 78 1011.6 71.9 13.2
DallasTexas 4/7/2019 21:00 18 15.6 86.11 0.63 0 4 21 1012.6 65.7 15.6
DallasTexas 4/7/2019 22:00 17.4 15.3 87.7 0.76 0 9.7 251 1012 80.2 13.5
DallasTexas 4/7/2019 23:00 17.1 15.5 90.47 0.02 0 4.1 336 1012.6 57 16
DallasTexas 4/8/2019 0:00 17 15.4 90.32 0 0 4.4 321 1013.1 55.4 15.3
DallasTexas 4/8/2019 1:00 16.7 15.5 92.33 0 0 10.3 307 1012.9 64.8 15
DallasTexas 4/8/2019 2:00 16.5 15.4 92.77 0 0 9.8 348 1013.1 69.3 14.3
DallasTexas 4/8/2019 3:00 16.2 14.8 91.54 0.35 0 4.8 337 1013 54.6 12.3
DallasTexas 4/8/2019 4:00 16.1 14.6 90.73 0 0 12.2 315 1012.5 41.5 15.3
DallasTexas 4/8/2019 5:00 16 13.9 87.85 0 0 13.7 315 1012.1 35.7 14.6
DallasTexas 4/8/2019 6:00 15.7 13.7 88.07 0 0 13.4 318 1012 45.2 15.8
DallasTexas 4/8/2019 7:00 15.4 13.7 89.48 0.36 0 11.7 320 1012.3 28.4 16
DallasTexas 4/8/2019 8:00 16.4 13.8 84.75 0 0 12.9 310 1013 20.5 15.5
DallasTexas 4/8/2019 9:00 18.3 14.8 80.08 0 0 16.8 308 1013.4 18.5 16
DallasTexas 4/8/2019 10:00 20.1 16.1 77.93 0 0 16.4 314 1013.4 19.2 16
DallasTexas 4/8/2019 11:00 22.1 16.3 69.75 0 0 15.7 335 1013.7 31.9 16
DallasTexas 4/8/2019 12:00 23.7 16.8 65.32 0 0 14.6 332 1013.9 32.1 16
DallasTexas 4/8/2019 13:00 25.2 16.8 59.87 0 0 14.2 341 1013.5 36.1 16
DallasTexas 4/8/2019 14:00 26.2 16.6 55.44 0 0 21.8 346 1013.3 51.7 16
DallasTexas 4/8/2019 15:00 27.2 15 47.25 0 0 23.7 332 1012.8 47.3 16
DallasTexas 4/8/2019 16:00 27.6 14.3 44.22 0 0 18.1 321 1011.9 44.7 16
DallasTexas 4/8/2019 17:00 28 10.9 34.5 0 0 22.7 325 1011.6 26.9 16
DallasTexas 4/8/2019 18:00 27.8 10 32.96 0 0 21.1 332 1011.4 18.5 16
DallasTexas 4/8/2019 19:00 26.9 10.2 35.09 0 0 15.6 333 1011.6 18.5 16
DallasTexas 4/8/2019 20:00 25.1 10.6 40.14 0 0 8.2 334 1011.8 13.7 16
DallasTexas 4/8/2019 21:00 23.5 10.4 43.71 0 0 7.6 320 1012.8 11.9 16
DallasTexas 4/8/2019 22:00 22.2 9.9 45.57 0 0 5.2 316 1013.4 0 16
DallasTexas 4/8/2019 23:00 20.9 9.9 49.15 0 0 6.4 293 1013.4 0 16
DallasTexas 4/9/2019 0:00 19.4 10.3 55.48 0 0 4.2 305 1013.1 0 16
DallasTexas 4/9/2019 1:00 17.8 10.8 63.51 0 0 3.8 329 1013.3 0 16
DallasTexas 4/9/2019 2:00 16.7 10.8 68.5 0 0 3.1 338 1013.1 0 16
DallasTexas 4/9/2019 3:00 15.9 11 72.53 0 0 3.4 332 1012.8 0 16
DallasTexas 4/9/2019 4:00 15.1 11.1 77.02 0 0 2.8 329 1012.6 0 16
DallasTexas 4/9/2019 5:00 14.9 10.8 76.34 0 0 5.3 304 1012.6 0 16
DallasTexas 4/9/2019 6:00 14.5 10.7 78.09 0 0 2.3 317 1012.6 13.5 16
DallasTexas 4/9/2019 7:00 13.4 10.6 83.09 0 0 3.1 302 1012.7 13.7 16
DallasTexas 4/9/2019 8:00 15 11.4 78.72 0 0 2.7 323 1013.3 8.6 16
DallasTexas 4/9/2019 9:00 17.2 12.2 72.82 0 0 1.7 325 1013.4 13.5 16
DallasTexas 4/9/2019 10:00 21.5 11.8 53.9 0 0 2.3 57 1013.4 13.5 16
DallasTexas 4/9/2019 11:00 24.9 10.1 39.21 0 0 7 248 1013.6 13.5 16
DallasTexas 4/9/2019 12:00 26.8 10.4 35.87 0 0 10.3 184 1013.4 13.5 16
DallasTexas 4/9/2019 13:00 28.5 10.2 31.99 0 0 5.8 14 1012.6 13.5 16
DallasTexas 4/9/2019 14:00 29.6 9.4 28.31 0 0 13.1 183 1011.6 13.5 16
DallasTexas 4/9/2019 15:00 30.3 9.2 26.93 0 0 16.3 157 1010.5 13.5 16
DallasTexas 4/9/2019 16:00 30.4 9 26.42 0 0 18.2 161 1009.6 15 16
DallasTexas 4/9/2019 17:00 30.2 10.1 28.89 0 0 21.3 170 1008.8 27.8 15.9
DallasTexas 4/9/2019 18:00 29 9.6 29.72 0 0 20.5 149 1008.3 43.9 16
DallasTexas 4/9/2019 19:00 27.9 10.9 34.9 0 0 19.3 164 1008.1 43.9 16
DallasTexas 4/9/2019 20:00 26 10.4 37.7 0 0 12.4 156 1008.3 30 16
DallasTexas 4/9/2019 21:00 24.1 11.1 43.91 0 0 11.4 153 1007.9 29.7 16
DallasTexas 4/9/2019 22:00 23.2 11.3 47.2 0 0 14.4 151 1007.9 29.7 16
DallasTexas 4/9/2019 23:00 22.3 11.9 51.67 0 0 13.8 159 1007.8 29.7 16
DallasTexas 4/10/2019 0:00 21.9 12.1 53.94 0 0 14.6 148 1007.2 29.7 16
DallasTexas 4/10/2019 1:00 21.8 11.3 50.98 0 0 18.2 158 1006.7 29.7 16
DallasTexas 4/10/2019 2:00 21.2 10.8 51.42 0 0 17.5 151 1006.1 17.4 16
DallasTexas 4/10/2019 3:00 20.6 10.5 52.5 0 0 19.5 153 1005.3 43.9 16
DallasTexas 4/10/2019 4:00 19.5 10.5 56.03 0 0 19.3 152 1004.9 43.9 16
DallasTexas 4/10/2019 5:00 19.4 10.8 57.41 0 0 17.9 155 1004.8 24.7 16
DallasTexas 4/10/2019 6:00 18.6 11.4 63.26 0 0 18.3 163 1004.6 21.5 16
DallasTexas 4/10/2019 7:00 18.6 12.3 66.99 0 0 19.6 155 1004.5 34.5 16
DallasTexas 4/10/2019 8:00 19.1 12.5 65.88 0 0 17.4 160 1004.6 44.3 16
DallasTexas 4/10/2019 9:00 20.7 12.5 59.49 0 0 20.1 160 1004.6 28.6 16
DallasTexas 4/10/2019 10:00 23.6 11.8 47.53 0 0 24.6 165 1004.1 28.6 16
DallasTexas 4/10/2019 11:00 26.7 11 37.48 0 0 27.5 165 1003.5 29.7 16
DallasTexas 4/10/2019 12:00 27.6 10.4 34.17 0 0 34.9 158 1002.6 29.7 16
DallasTexas 4/10/2019 13:00 29.1 10.7 31.96 0 0 33.7 165 1001.5 29.7 16
DallasTexas 4/10/2019 14:00 30.2 11.5 31.66 0 0 33.6 169 1000.2 29.7 16
DallasTexas 4/10/2019 15:00 31.1 11.4 29.74 0 0 36.4 169 999.1 28.6 16
DallasTexas 4/10/2019 16:00 31.2 12 30.89 0 0 38.2 165 997.9 29.7 16
DallasTexas 4/10/2019 17:00 30.9 13 33.35 0 0 34.3 168 996.9 22.1 16
DallasTexas 4/10/2019 18:00 30.1 12.9 34.8 0 0 33.4 156 995.8 19.1 16
DallasTexas 4/10/2019 19:00 29.5 12.9 35.95 0 0 31.5 166 995.9 21.5 16
DallasTexas 4/10/2019 20:00 27.8 12.7 39.27 0 0 32 155 995.4 30 16
DallasTexas 4/10/2019 21:00 26.3 12.9 43.57 0 0 24.1 166 996.3 30 16
DallasTexas 4/10/2019 22:00 25.4 12.7 45.2 0 0 27.4 160 996.5 29.7 16
DallasTexas 4/10/2019 23:00 24.1 12.4 48.09 0 0 34.7 160 996.2 30.4 16
DallasTexas 4/11/2019 0:00 23 12.8 52.43 0 0 32.5 160 995.9 29.7 16
DallasTexas 4/11/2019 1:00 22 12.9 56.13 0 0 30.2 172 996 28.8 16
DallasTexas 4/11/2019 2:00 22 13 56.92 0 0 18.6 225 999.5 32.2 16
DallasTexas 4/11/2019 3:00 21.3 13.1 59.66 0 0 20.4 195 997.9 45 16
DallasTexas 4/11/2019 4:00 20.1 13.2 64.18 0 0 19 172 997.7 32.8 16
DallasTexas 4/11/2019 5:00 19.4 13.1 66.9 0 0 14.4 185 998.5 62.7 16
DallasTexas 4/11/2019 6:00 19 12.8 67.17 0 0 10 205 999.4 64.9 16
DallasTexas 4/11/2019 7:00 17.6 11.9 69.35 0 0 8.3 225 1000.3 41.3 16
DallasTexas 4/11/2019 8:00 18.9 8.8 52.01 0 0 8.8 258 1001.1 41.4 16
DallasTexas 4/11/2019 9:00 20.8 1.1 26.85 0 0 15.4 289 1001.7 65 16
DallasTexas 4/11/2019 10:00 19.7 2.6 32.11 0 0 28.3 310 1002.8 54.5 16
DallasTexas 4/11/2019 11:00 17 6.4 49.54 0 0 26.7 309 1004.6 57.6 16
DallasTexas 4/11/2019 12:00 16.5 6.6 51.82 0 0 20.9 311 1005.7 35.5 16
DallasTexas 4/11/2019 13:00 16.4 5.9 49.77 0 0 24.7 317 1006.1 29.7 16
DallasTexas 4/11/2019 14:00 15.8 3.8 44.84 0 0 23.7 322 1006.6 35.4 16
DallasTexas 4/11/2019 15:00 16.9 2.6 38.48 0 0 21 303 1006.8 35.4 16
DallasTexas 4/11/2019 16:00 17.3 2.5 37.18 0 0 18.2 304 1006.4 19.5 16
DallasTexas 4/11/2019 17:00 18.7 1.6 31.85 0 0 18.2 289 1006.4 17.6 16
DallasTexas 4/11/2019 18:00 19.5 2.2 31.83 0 0 18.7 309 1006.7 13.5 16
DallasTexas 4/11/2019 19:00 18.4 1.6 32.47 0 0 17.9 316 1007.7 13.5 16
DallasTexas 4/11/2019 20:00 15.9 1.2 36.91 0 0 15 330 1008.1 13.7 16
DallasTexas 4/11/2019 21:00 14.4 1.2 40.81 0 0 10.3 341 1008.6 11.9 16
DallasTexas 4/11/2019 22:00 13.3 1.3 43.84 0 0 11.2 352 1009.4 0 16
DallasTexas 4/11/2019 23:00 12.4 1.3 46.77 0 0 8.7 14 1010 0 16
DallasTexas 4/12/2019 0:00 12 1.3 47.99 0 0 4.9 14 1010.3 0 16
DallasTexas 4/12/2019 1:00 10.4 2.3 57.16 0 0 2.9 23 1010.9 0 16
DallasTexas 4/12/2019 2:00 9.5 2.4 61.41 0 0 8.3 36 1010.8 0 16
DallasTexas 4/12/2019 3:00 10 1.5 55.69 0 0 7.1 20 1009.7 0 16
DallasTexas 4/12/2019 4:00 9.2 1.7 59.5 0 0 6.9 28 1009.5 0 16
DallasTexas 4/12/2019 5:00 8.6 1.1 59.23 0 0 2.3 31 1010 0 16
DallasTexas 4/12/2019 6:00 8.5 0.5 57.45 0 0 5.5 65 1010.6 0 16
DallasTexas 4/12/2019 7:00 8.1 0.6 59.16 0 0 5.5 53 1012.2 13.7 16
DallasTexas 4/12/2019 8:00 9.3 1.6 58.46 0 0 8.3 81 1013.2 11.9 16
DallasTexas 4/12/2019 9:00 12 1.3 48.02 0 0 13.5 57 1013.9 14.8 16
DallasTexas 4/12/2019 10:00 13.6 0.2 39.78 0 0 16.8 70 1014.2 20.4 16
DallasTexas 4/12/2019 11:00 15.6 0.4 35.67 0 0 19.5 80 1014.6 19.6 16
DallasTexas 4/12/2019 12:00 16.9 0.3 32.54 0 0 17.8 83 1014.1 17.6 16
DallasTexas 4/12/2019 13:00 18.4 1.5 32.1 0 0 16.9 62 1013.2 23.9 16
DallasTexas 4/12/2019 14:00 19.1 1.9 31.74 0 0 16.5 84 1012.5 19.1 16
DallasTexas 4/12/2019 15:00 20.4 2.6 30.96 0 0 16.4 86 1011.4 35.4 16
DallasTexas 4/12/2019 16:00 20.9 3.5 31.74 0 0 19.4 87 1010.1 35.4 16
DallasTexas 4/12/2019 17:00 21.2 3.7 31.81 0 0 16 76 1009.3 35.4 16
DallasTexas 4/12/2019 18:00 21.1 4.7 34.34 0 0 18.2 88 1009.3 34.2 16
DallasTexas 4/12/2019 19:00 20.5 5.2 36.66 0 0 16 84 1009.3 36.1 16
DallasTexas 4/12/2019 20:00 19.4 5.6 40.54 0 0 12.8 61 1009.2 23 16
DallasTexas 4/12/2019 21:00 18.4 5.8 43.73 0 0 11.9 51 1009.7 53.7 16
DallasTexas 4/12/2019 22:00 17.9 5.9 45.14 0 0 14.3 69 1010.3 54.1 16
DallasTexas 4/12/2019 23:00 17.7 6.3 46.98 0.06 0 13.8 69 1010.2 60.3 16
DallasTexas 4/13/2019 0:00 17.3 7.2 51.17 0 0 15.8 56 1009.5 81.4 16
DallasTexas 4/13/2019 1:00 17.3 7.9 54.11 0 0 13.9 55 1008.8 86 16
DallasTexas 4/13/2019 2:00 17.3 8.2 55.27 0 0 16.8 62 1007.9 94.8 16
DallasTexas 4/13/2019 3:00 16.2 9.5 64.39 0.04 0 16.3 72 1007.3 83.1 16
DallasTexas 4/13/2019 4:00 15.8 10.7 71.85 0 0 18.7 70 1006.4 88.2 16
DallasTexas 4/13/2019 5:00 15.4 11.4 77.22 0.17 0 24.1 61 1005.4 66.5 15.7
DallasTexas 4/13/2019 6:00 14.1 12.5 90.12 6.62 0 17 74 1005.3 72.3 5
DallasTexas 4/13/2019 7:00 13.8 12.5 91.98 2.72 0 14.8 48 1006.1 95.6 6.1
DallasTexas 4/13/2019 8:00 13.5 12.8 95.33 0.64 0 14.3 45 1005.7 80.9 4.3
DallasTexas 4/13/2019 9:00 13.6 12.6 93.35 1.09 0 18.1 41 1004.6 87 3.4
DallasTexas 4/13/2019 10:00 14 12.7 91.91 5.15 0 26.1 52 1002.6 93.9 6.6
DallasTexas 4/13/2019 11:00 13.8 12.6 92.1 3.25 0 25.6 60 1001.2 94.1 3.8
DallasTexas 4/13/2019 12:00 13.6 12.6 93.29 10.56 0 25.5 39 1000.6 70.2 2.7
DallasTexas 4/13/2019 13:00 12.9 11.9 94.17 15.93 0 15 314 1002.7 67.8 3.2
DallasTexas 4/13/2019 14:00 12.9 11.7 92.46 3.56 0 18.9 290 1003.8 78.9 5.6
DallasTexas 4/13/2019 15:00 13 11.8 92.19 1.83 0 30.1 8 999 75.3 15.6
DallasTexas 4/13/2019 16:00 15.1 12.3 83.47 1.59 0 20.7 20 998.4 58.9 16
DallasTexas 4/13/2019 17:00 14.6 11.7 82.92 0.01 0 22 24 997.9 96.3 15.9
DallasTexas 4/13/2019 18:00 13.5 11.5 87.7 0.78 0 14.5 2 999.4 97.2 5.2
DallasTexas 4/13/2019 19:00 11.9 10.5 91.14 4.73 0 23.6 345 1000 92.4 7.2
DallasTexas 4/13/2019 20:00 10.2 8.3 88.44 1.56 0 32.2 338 1001.6 75.3 10.7
DallasTexas 4/13/2019 21:00 8.7 7.3 90.31 2.35 0 34.8 311 1004 83.4 4.2
DallasTexas 4/13/2019 22:00 7.8 6.3 90.28 0.62 0 41.1 308 1005.7 92.6 7
DallasTexas 4/13/2019 23:00 6.3 4.4 87.33 0.23 0 38.6 312 1007.3 97.8 9.6
DallasTexas 4/14/2019 0:00 5.7 4.1 89.12 0.08 0 35.2 315 1008.3 97.2 6.4
DallasTexas 4/14/2019 1:00 6.3 4.7 89.8 0.66 0 29.8 316 1009.4 75.8 7.3
DallasTexas 4/14/2019 2:00 6.7 5.3 90.61 0.45 0 32.9 312 1010.1 79.8 8
DallasTexas 4/14/2019 3:00 7.2 4.7 84.23 0.31 0 31.2 311 1010.6 93 14.6
DallasTexas 4/14/2019 4:00 7.6 4.3 79.45 0 0 30 318 1011.1 64 16
DallasTexas 4/14/2019 5:00 7.5 3.7 76.78 0 0 31.1 310 1011.9 41.2 16
DallasTexas 4/14/2019 6:00 7.8 3.7 75.24 0 0 27.7 315 1012.7 63.5 16
DallasTexas 4/14/2019 7:00 7.9 3.5 73.64 0 0 19.6 304 1013.5 55.6 15.2
DallasTexas 4/14/2019 8:00 8.8 3.9 71.35 0 0 20.9 296 1014.6 28.6 16
DallasTexas 4/14/2019 9:00 10.1 3.8 65.06 0 0 22.8 304 1015.2 15.9 15.9
DallasTexas 4/14/2019 10:00 11.5 3.4 57.45 0 0 22.4 305 1015.9 15 16
DallasTexas 4/14/2019 11:00 13 3.2 51.13 0 0 22 313 1016.3 14.4 16
DallasTexas 4/14/2019 12:00 14.7 2.9 44.98 0 0 19.5 304 1016.6 12.5 16
DallasTexas 4/14/2019 13:00 16.3 2.4 39.14 0 0 19.8 301 1016.2 0 16
DallasTexas 4/14/2019 14:00 17.1 2.8 38.39 0 0 18.3 296 1015.7 0 16
DallasTexas 4/14/2019 15:00 18.4 2.6 34.81 0 0 19.4 280 1015.3 0 16
DallasTexas 4/14/2019 16:00 19 3.1 34.81 0 0 13.6 318 1014.7 14.4 16
DallasTexas 4/14/2019 17:00 19.4 3.1 33.97 0 0 12.1 284 1014.1 14.4 16
DallasTexas 4/14/2019 18:00 19.5 3 33.62 0 0 11 274 1013.5 15 16
DallasTexas 4/14/2019 19:00 19.2 2.6 33.07 0 0 9.6 225 1013.4 14.4 16
DallasTexas 4/14/2019 20:00 17.8 3.4 38.49 0 0 8 198 1013.3 14.5 16
DallasTexas 4/14/2019 21:00 16.2 4.5 45.81 0 0 7.3 161 1013.5 12.6 16
DallasTexas 4/14/2019 22:00 14.3 5.7 56.33 0 0 3.7 321 1014.5 0 16
DallasTexas 4/14/2019 23:00 13.5 5.8 59.7 0 0 7.4 144 1014.9 12.5 16
DallasTexas 4/15/2019 0:00 13 5.8 61.78 0 0 10.4 151 1014.2 0 16
DallasTexas 4/15/2019 1:00 13.2 5 57.67 0 0 13.2 160 1014.3 0 16
DallasTexas 4/15/2019 2:00 13 5 58.35 0 0 13.4 159 1014.3 12.5 16
DallasTexas 4/15/2019 3:00 12.4 5.3 61.79 0 0 15.3 152 1013.7 0 16
DallasTexas 4/15/2019 4:00 12.2 5.5 63.45 0 0 14.7 155 1013.6 12.5 16
DallasTexas 4/15/2019 5:00 12 5.5 64.67 0 0 12.8 164 1013.8 12.5 16
DallasTexas 4/15/2019 6:00 11.1 5.5 68.56 0 0 15.6 151 1014 12.5 16
DallasTexas 4/15/2019 7:00 11 5.8 70.7 0 0 16.6 154 1014.4 14.5 16
DallasTexas 4/15/2019 8:00 11.9 6.3 68.94 0 0 19.5 156 1015.2 14.5 16
DallasTexas 4/15/2019 9:00 14.7 7.1 60.51 0 0 20.6 165 1015.9 14.4 16
DallasTexas 4/15/2019 10:00 17.6 8.2 54.07 0 0 22.7 180 1016 14.4 16
DallasTexas 4/15/2019 11:00 20 8.7 48.13 0 0 27.8 177 1016 14.4 16
DallasTexas 4/15/2019 12:00 21.8 9.6 45.74 0 0 26.7 179 1016 14.4 16
DallasTexas 4/15/2019 13:00 23.9 9.9 41.31 0 0 28.2 177 1015.1 15.9 16
DallasTexas 4/15/2019 14:00 24.7 9.9 39.22 0 0 32.8 172 1014.5 15.9 16
DallasTexas 4/15/2019 15:00 25.5 9.7 36.98 0 0 30.4 171 1014.1 44 16
DallasTexas 4/15/2019 16:00 25.2 9.7 37.71 0 0 26.9 181 1013.6 34.9 16
DallasTexas 4/15/2019 17:00 25.5 9.8 37.2 0 0 32.4 175 1012.8 34.9 16
DallasTexas 4/15/2019 18:00 25.1 9.8 38.08 0 0 28.4 171 1013.3 34.9 16
DallasTexas 4/15/2019 19:00 24.3 9.3 38.59 0 0 25.4 160 1013.1 23.6 16
DallasTexas 4/15/2019 20:00 23.1 9.7 42.76 0 0 22.8 160 1013.3 35.3 16
DallasTexas 4/15/2019 21:00 21.5 10 47.83 0 0 20.3 160 1013.4 25.6 16
DallasTexas 4/15/2019 22:00 20.5 9.9 50.84 0 0 16.8 165 1014 15.1 16
DallasTexas 4/15/2019 23:00 19 10.1 56.34 0 0 19.8 157 1014.2 24.7 16
DallasTexas 4/16/2019 0:00 18.7 10.1 57.68 0 0 23.1 164 1014 14.4 16
DallasTexas 4/16/2019 1:00 18.2 10.4 60.12 0 0 25.2 172 1013.9 14.4 16
DallasTexas 4/16/2019 2:00 17.5 11.3 66.74 0 0 23.5 173 1014 15.7 16
DallasTexas 4/16/2019 3:00 16.9 12.2 73.93 0 0 27.7 173 1013.9 32.6 16
DallasTexas 4/16/2019 4:00 16.7 12.9 78.29 0 0 24.7 173 1013.7 90.2 16
DallasTexas 4/16/2019 5:00 16.7 13.4 80.51 0 0 25.4 173 1013.9 97.8 16
DallasTexas 4/16/2019 6:00 17 13.5 79.96 0 0 23.9 179 1014.2 78.6 16
DallasTexas 4/16/2019 7:00 16.5 13.9 84.21 0 0 18.6 177 1014.4 56.1 16
DallasTexas 4/16/2019 8:00 17.2 14.3 83.11 0 0 18.9 168 1015 67.1 16
DallasTexas 4/16/2019 9:00 18.1 14.4 79.22 0 0 24.2 172 1015.7 92.8 15.9
DallasTexas 4/16/2019 10:00 18.9 14.5 75.4 0 0 26.2 172 1016.1 83 16
DallasTexas 4/16/2019 11:00 20.5 14.4 68.26 0 0 27.5 174 1016 66.7 16
DallasTexas 4/16/2019 12:00 22.5 14.3 60.06 0 0 29.2 177 1016.4 63.5 16
DallasTexas 4/16/2019 13:00 23.1 14.3 57.64 0 0 32.8 169 1015.4 58.8 16
DallasTexas 4/16/2019 14:00 23.4 14.4 57.24 0 0 26.8 169 1014.5 47.3 16
DallasTexas 4/16/2019 15:00 23.5 14.2 56.13 0 0 25.1 168 1013.6 35.7 16
DallasTexas 4/16/2019 16:00 23.9 14.9 57.03 0 0 24.2 158 1012.5 44.8 16
DallasTexas 4/16/2019 17:00 24.1 15 56.76 0 0 21.1 157 1012.3 84.4 16
DallasTexas 4/16/2019 18:00 23.9 15.1 57.75 0 0 26.2 150 1011.3 53.5 16
DallasTexas 4/16/2019 19:00 23.5 15.3 60.13 0 0 22.8 150 1011.4 30.8 16
DallasTexas 4/16/2019 20:00 22.9 15.2 61.75 0 0 20.4 150 1011.1 48.8 16
DallasTexas 4/16/2019 21:00 22.5 15.2 63.56 0 0 21.1 141 1010.8 28.4 16
DallasTexas 4/16/2019 22:00 22.1 15.4 65.81 0 0 20.4 155 1011.1 42.4 16
DallasTexas 4/16/2019 23:00 21.9 14.9 64.56 0 0 19.3 179 1011.8 33.9 16
DallasTexas 4/17/2019 0:00 21.4 15.1 67.49 0 0 21.7 172 1011.4 41.3 16
DallasTexas 4/17/2019 1:00 20.5 15.7 73.9 0 0 21 170 1011.3 39.8 16
DallasTexas 4/17/2019 2:00 20 16 77.86 0 0 25.8 171 1010.7 53.6 16
DallasTexas 4/17/2019 3:00 20 16.3 79.15 0 0 24.3 166 1010 88.5 16
DallasTexas 4/17/2019 4:00 20 16.7 81.48 0 0 24.1 173 1009.9 99.2 16
DallasTexas 4/17/2019 5:00 20 17.2 84.1 0 0 16.6 165 1009.7 98 14.5
DallasTexas 4/17/2019 6:00 20 17.3 84.29 0 0 16.7 160 1009.3 86.8 16
DallasTexas 4/17/2019 7:00 20.3 17.8 85.52 0 0 18.6 160 1009.1 94.9 14.8
DallasTexas 4/17/2019 8:00 20.1 18 88.01 0 0 17.7 149 1009.5 88.6 13.2
DallasTexas 4/17/2019 9:00 20.2 18.1 87.77 0 0 20.1 148 1009.4 98.8 10.4
DallasTexas 4/17/2019 10:00 19.9 18.5 91.65 0.03 0 18.2 136 1009.1 96.9 5.2
DallasTexas 4/17/2019 11:00 20 18.9 93.54 0.25 0 14.7 139 1009.5 96.9 3.8
DallasTexas 4/17/2019 12:00 20.4 19.1 92.45 0.19 0 14.9 128 1009.1 96.9 7.6
DallasTexas 4/17/2019 13:00 22 20.1 88.84 0.05 0 17.1 132 1008.1 93 10.4
DallasTexas 4/17/2019 14:00 23 20.8 87.29 0 0 17.2 150 1006.9 78.6 15.4
DallasTexas 4/17/2019 15:00 24.3 21.1 82.07 0.02 0 21.3 156 1006 78.2 15.3
DallasTexas 4/17/2019 16:00 26.7 21.3 72.41 0.03 0 25.6 176 1004.6 76.2 15.9
DallasTexas 4/17/2019 17:00 27 20.7 68.27 0 0 26.2 160 1003.9 56.1 14.6
DallasTexas 4/17/2019 18:00 26.5 20.8 70.7 0 0 25.6 163 1004 56 14.5
DallasTexas 4/17/2019 19:00 25.5 20.8 75.09 0 0 24.3 161 1003.7 47.2 14.9
DallasTexas 4/17/2019 20:00 23.8 20.6 82.64 0 0 31.3 154 1003.4 78.3 15.4
DallasTexas 4/17/2019 21:00 23 20.5 86.01 0 0 31.6 154 1002.8 88.5 15.5
DallasTexas 4/17/2019 22:00 23.1 20.4 85.28 0 0 23.2 163 1004.6 81 15.5
DallasTexas 4/17/2019 23:00 23.1 20.1 83.05 0 0 18.9 153 1004.5 92.8 14.3
DallasTexas 4/18/2019 0:00 22.5 19.9 85.17 0.13 0 15 174 1004.7 93.3 12.1
DallasTexas 4/18/2019 1:00 17 15.7 92.42 4.82 0 22.5 321 1006.2 58.5 3.7
DallasTexas 4/18/2019 2:00 16.2 15.1 93.04 7.42 0 11.5 340 1005.6 66.7 7.7
DallasTexas 4/18/2019 3:00 16.4 15.3 92.85 0.62 0 12.6 123 1001.7 62.9 15.1
DallasTexas 4/18/2019 4:00 16.6 15.4 92.45 1.73 0 14.2 160 1003.4 63.8 14.3
DallasTexas 4/18/2019 5:00 16.6 15.4 92.17 0.21 0 24.3 134 1002.7 74.8 13.3
DallasTexas 4/18/2019 6:00 16.4 14.8 90.41 0.08 0 8.2 105 1003.1 48 15.7
DallasTexas 4/18/2019 7:00 16.5 15.1 91.36 9.9 0 3.6 340 1003.5 65.3 15.7
DallasTexas 4/18/2019 8:00 16.9 15.4 90.52 0 0 3.5 22 1006.1 79.6 15.4
DallasTexas 4/18/2019 9:00 17.3 15.7 90.32 0 0 3.6 50 1006.3 67.4 14.6
DallasTexas 4/18/2019 10:00 18.1 15.3 83.94 0 0 6.1 353 1007.2 84.5 16
DallasTexas 4/18/2019 11:00 17.5 14.8 83.76 1.28 0 20.6 336 1007.7 63.8 10.1
DallasTexas 4/18/2019 12:00 16 13.9 87.79 1.9 0 28 339 1008.5 71.8 11.2
DallasTexas 4/18/2019 13:00 16.6 13.3 80.7 1.31 0 31.8 330 1008.7 68.6 15.2
DallasTexas 4/18/2019 14:00 17.1 11.6 70.37 0.01 0 30.4 337 1009.2 63.2 16
DallasTexas 4/18/2019 15:00 20.5 9.5 49.35 0 0 35.1 333 1009.5 20.3 16
DallasTexas 4/18/2019 16:00 21.6 6.5 37.52 0 0 41 332 1009.2 13.5 16
DallasTexas 4/18/2019 17:00 21.7 5.1 33.86 0 0 40.7 340 1009 13.5 16
DallasTexas 4/18/2019 18:00 21.5 4.8 33.56 0 0 34.7 338 1009.6 15.2 16
DallasTexas 4/18/2019 19:00 20.6 4.8 35.55 0 0 35.1 334 1010 13.5 16
DallasTexas 4/18/2019 20:00 18.6 5.7 42.73 0 0 21 325 1010.5 13.7 16
DallasTexas 4/18/2019 21:00 17.6 6.9 49.52 0 0 16.1 308 1011.2 24.9 16
DallasTexas 4/18/2019 22:00 15.3 7.9 61.17 0.29 0 31.5 345 1014.1 78.3 13.8
DallasTexas 4/18/2019 23:00 13.6 7 64.17 0 0 16.1 350 1013.8 20.8 16
DallasTexas 4/19/2019 0:00 12.5 6.9 68.67 0 0 13.8 305 1014.2 13.5 16
DallasTexas 4/19/2019 1:00 12.5 7.1 69.5 0 0 15.1 306 1014.4 13.5 16
DallasTexas 4/19/2019 2:00 12 7.2 72.35 0 0 14.8 313 1014.5 13.5 16
DallasTexas 4/19/2019 3:00 12 7 71.36 0 0 15.9 312 1014.2 13.5 16
DallasTexas 4/19/2019 4:00 12 6.6 69.48 0 0 19.6 306 1014 13.5 16
DallasTexas 4/19/2019 5:00 11.9 5.5 64.87 0 0 20.1 317 1014.3 13.5 16
DallasTexas 4/19/2019 6:00 11.5 5.4 66.02 0 0 18.4 309 1014.8 13.5 16
DallasTexas 4/19/2019 7:00 11.2 5.1 66.21 0 0 21.5 315 1015.7 1.8 16
DallasTexas 4/19/2019 8:00 12.1 5.3 63.4 0 0 25.2 317 1016.8 0 16
DallasTexas 4/19/2019 9:00 13.6 5 56.34 0 0 31.6 328 1017.4 0 16
DallasTexas 4/19/2019 10:00 14.2 5.7 56.4 0 0 34 335 1018.1 14.3 16
DallasTexas 4/19/2019 11:00 15.7 6.5 54.11 0 0 28.4 341 1018.9 19.1 16
DallasTexas 4/19/2019 12:00 16.4 6.1 50.58 0 0 31.4 337 1019.1 62.9 16
DallasTexas 4/19/2019 13:00 17 5.3 45.9 0 0 33.3 332 1019.2 57.6 16
DallasTexas 4/19/2019 14:00 17.5 5.3 44.51 0 0 31.9 329 1018.8 48.7 16
DallasTexas 4/19/2019 15:00 18.2 4.6 40.79 0 0 28.6 332 1018.1 43 16
DallasTexas 4/19/2019 16:00 19 4.5 38.55 0 0 26.6 328 1017.2 21.5 16
DallasTexas 4/19/2019 17:00 19.3 3.3 34.68 0 0 29 331 1016.8 15.4 16
DallasTexas 4/19/2019 18:00 19.3 3.2 34.55 0 0 27.8 327 1016.5 13.5 16
DallasTexas 4/19/2019 19:00 18.6 3.2 35.8 0 0 25.2 319 1016.5 0 16
DallasTexas 4/19/2019 20:00 16.9 3.1 39.57 0 0 19.5 318 1016.6 0 16
DallasTexas 4/19/2019 21:00 15.4 3.3 44.57 0 0 11.1 312 1016.8 11.9 16
DallasTexas 4/19/2019 22:00 14.7 4.1 48.91 0 0 9 299 1017.2 0 16
DallasTexas 4/19/2019 23:00 13.1 4.9 57.46 0 0 4.9 306 1017.5 0 16
DallasTexas 4/20/2019 0:00 11.9 5.4 64.61 0 0 4.8 302 1017.3 0 16
DallasTexas 4/20/2019 1:00 11.8 5.4 64.77 0 0 5.5 293 1017.5 0 16
DallasTexas 4/20/2019 2:00 11.7 5.4 65.25 0 0 4.3 300 1017.3 0 16
DallasTexas 4/20/2019 3:00 10.7 5.7 71.17 0 0 4.7 298 1017.1 0 16
DallasTexas 4/20/2019 4:00 10.1 5.7 74.02 0 0 2.7 328 1017.3 0 16
DallasTexas 4/20/2019 5:00 8.5 5.9 83.44 0 0 2.4 325 1017.3 0 16
DallasTexas 4/20/2019 6:00 8.7 5.7 81.49 0 0 1.7 317 1017.4 0 16
DallasTexas 4/20/2019 7:00 8.3 5.6 82.75 0 0 2.3 303 1017.5 11.9 16
DallasTexas 4/20/2019 8:00 11.5 7.3 75.45 0 0 0 0 1018.2 13.7 16
DallasTexas 4/20/2019 9:00 15.4 7.9 60.89 0 0 1.2 341 1018.3 0 16
DallasTexas 4/20/2019 10:00 17.6 6.8 49.2 0 0 10.7 256 1018.9 0.7 16
DallasTexas 4/20/2019 11:00 19.8 5.7 39.63 0 0 10.9 300 1019 0 16
DallasTexas 4/20/2019 12:00 21.4 5.6 35.79 0 0 10.9 185 1018.5 0 16
DallasTexas 4/20/2019 13:00 22.9 5.7 32.81 0 0 12.4 213 1017.5 0 16
DallasTexas 4/20/2019 14:00 24 6 31.29 0 0 13.6 200 1016.7 0 16
DallasTexas 4/20/2019 15:00 24.8 6.7 31.39 0 0 16.5 183 1015.8 0 16
DallasTexas 4/20/2019 16:00 25.3 8 33.32 0 0 14.7 195 1014.6 0 16
DallasTexas 4/20/2019 17:00 25.4 8.8 34.87 0 0 16.2 182 1013.6 0 16
DallasTexas 4/20/2019 18:00 25.2 9.3 36.63 0 0 14.9 183 1013.1 0 16
DallasTexas 4/20/2019 19:00 24.5 9.5 38.63 0 0 17.7 170 1012.9 0 16
DallasTexas 4/20/2019 20:00 22.8 10 44.2 0 0 15.6 159 1012.6 13.7 16
DallasTexas 4/20/2019 21:00 21.1 10.9 52.16 0 0 15.4 150 1012.8 13.7 16
DallasTexas 4/20/2019 22:00 19.7 11 57.18 0 0 17.8 151 1013 1.8 16
DallasTexas 4/20/2019 23:00 18.8 10.5 58.52 0 0 17.7 162 1013 1.8 16
DallasTexas 4/21/2019 0:00 18.7 10 56.79 0 0 17.6 163 1013.1 19.1 16
DallasTexas 4/21/2019 1:00 17.9 10.2 60.6 0 0 16 164 1013.1 19.1 16
DallasTexas 4/21/2019 2:00 17.5 10.1 61.88 0 0 16.9 163 1012.8 28.6 16
DallasTexas 4/21/2019 3:00 16.9 10.1 64.28 0 0 19.2 163 1012.2 17.6 16
DallasTexas 4/21/2019 4:00 16.2 10.7 70.14 0 0 15.9 166 1012.2 13.5 16
DallasTexas 4/21/2019 5:00 15.6 11.2 75.2 0 0 12 160 1012.2 11.8 16
DallasTexas 4/21/2019 6:00 15.1 11.3 78.43 0 0 14.3 159 1012.4 11.8 16
DallasTexas 4/21/2019 7:00 14.7 11.7 82.09 0 0 14.5 161 1012.9 13.5 16
DallasTexas 4/21/2019 8:00 15.5 12.5 82.3 0 0 15.6 157 1013.7 15.1 16
DallasTexas 4/21/2019 9:00 17.8 13.7 76.95 0 0 20.7 175 1014.1 20 16
DallasTexas 4/21/2019 10:00 19.9 13.5 66.75 0 0 21.9 176 1014.6 18.2 16
DallasTexas 4/21/2019 11:00 21.7 13.4 59.17 0 0 25.6 181 1014.8 13.5 16
DallasTexas 4/21/2019 12:00 23.1 13.1 53.56 0 0 29.2 173 1014.6 13.5 16
DallasTexas 4/21/2019 13:00 24.4 13.8 51.72 0 0 28.7 158 1014 13.5 16
DallasTexas 4/21/2019 14:00 25.6 13.8 48.21 0 0 29.4 168 1013.5 13.5 16
DallasTexas 4/21/2019 15:00 26.6 14.5 47.36 0 0 31.1 164 1012.8 13.5 16
DallasTexas 4/21/2019 16:00 26.7 14.1 45.83 0 0 33.1 171 1012.1 13.5 16
DallasTexas 4/21/2019 17:00 27 13.8 44.01 0 0 31.6 162 1011.6 13.5 16
DallasTexas 4/21/2019 18:00 26.5 13.5 44.67 0 0 33.3 156 1011.9 13.5 16
DallasTexas 4/21/2019 19:00 25.8 13.9 47.58 0 0 27.2 159 1011.4 13.5 16
DallasTexas 4/21/2019 20:00 24.8 14 51.01 0 0 26.6 160 1011.6 13.7 16
DallasTexas 4/21/2019 21:00 23.7 13.8 53.89 0 0 24.3 156 1012.4 13.7 16
DallasTexas 4/21/2019 22:00 22.6 13.4 56.19 0 0 25.1 163 1013.2 11.8 16
DallasTexas 4/21/2019 23:00 22 13.3 57.7 0 0 24.7 169 1013.8 0 16
DallasTexas 4/22/2019 0:00 20.9 13.3 61.58 0 0 22.4 172 1014.2 0 16
DallasTexas 4/22/2019 1:00 20.1 13.4 65.64 0 0 24.8 168 1014.2 13.5 16
DallasTexas 4/22/2019 2:00 19.5 13.7 69.18 0 0 20.7 171 1014.4 16.3 16
DallasTexas 4/22/2019 3:00 18.3 14 76.15 0 0 19.9 161 1013.8 57.8 16
DallasTexas 4/22/2019 4:00 18.1 14.3 78.84 0 0 22.9 166 1014.2 92.6 16
DallasTexas 4/22/2019 5:00 17.9 14.8 82 0 0 21.9 170 1014.2 91.8 16
DallasTexas 4/22/2019 6:00 17.7 15.1 84.42 0 0 20.7 174 1014.4 75.2 16
DallasTexas 4/22/2019 7:00 17.7 15.1 84.85 0 0 20.4 164 1014.9 75.9 16
DallasTexas 4/22/2019 8:00 18.2 15.2 82.74 0 0 18.5 162 1015.7 59 16
DallasTexas 4/22/2019 9:00 18.9 15.4 80.4 0 0 17 160 1016.4 59 16
DallasTexas 4/22/2019 10:00 20.4 15.8 74.59 0 0 20.6 172 1017 92.7 16
DallasTexas 4/22/2019 11:00 21.4 15.4 68.96 0 0 22.7 170 1017.4 80.2 16
DallasTexas 4/22/2019 12:00 23.2 15.4 61.86 0 0 21.5 163 1017.4 61.4 16
DallasTexas 4/22/2019 13:00 23.4 15.5 61.23 0 0 18.2 161 1017.3 43.3 16
DallasTexas 4/22/2019 14:00 24.6 15.9 58.28 0 0 18.8 148 1016.6 41.1 16
DallasTexas 4/22/2019 15:00 25.4 15.9 55.71 0 0 19.5 165 1016.1 42.6 16
DallasTexas 4/22/2019 16:00 25.4 15.9 55.88 0 0 18.5 157 1015.5 33.7 16
DallasTexas 4/22/2019 17:00 25.4 15.7 54.96 0 0 18.8 147 1015.1 43.9 16
DallasTexas 4/22/2019 18:00 25 15.6 55.85 0 0 17.2 152 1014.9 44.7 16
DallasTexas 4/22/2019 19:00 24.2 16.1 60.54 0 0 14.7 139 1015.1 69.6 16
DallasTexas 4/22/2019 20:00 23.8 16.3 62.67 0 0 11.4 141 1015.1 62.5 16
DallasTexas 4/22/2019 21:00 23.1 16.3 65.48 0 0 10 123 1015.3 36.5 16
DallasTexas 4/22/2019 22:00 22.4 16.7 70.21 0 0 8.8 120 1015.7 37.7 16
DallasTexas 4/22/2019 23:00 22 16.5 70.86 0 0 14.4 134 1015.8 63.5 16
DallasTexas 4/23/2019 0:00 21.7 16.4 71.84 0 0 15.3 149 1015.8 46.2 16
DallasTexas 4/23/2019 1:00 21.3 16 71.97 0 0 14.7 157 1015.7 56.9 16
DallasTexas 4/23/2019 2:00 20.5 15.7 74.1 0 0 13.2 156 1015.3 32.3 16
DallasTexas 4/23/2019 3:00 19.9 15.7 76.68 0 0 11.2 136 1015.5 34.1 16
DallasTexas 4/23/2019 4:00 19.1 15.7 80.52 0 0 13.5 151 1015.1 37.1 16
DallasTexas 4/23/2019 5:00 18.9 15.7 81.86 0 0 13.9 151 1014.9 34 16
DallasTexas 4/23/2019 6:00 18.7 15.8 83.31 0 0 10.7 150 1015.2 70.8 16
DallasTexas 4/23/2019 7:00 19 16.2 84.06 0 0 10.2 145 1015.6 80.9 15.1
DallasTexas 4/23/2019 8:00 19.1 16.8 86.51 0 0 13.8 142 1016 63.8 12.3
DallasTexas 4/23/2019 9:00 19.8 16.9 83.39 0 0 14.7 151 1016.1 95.8 12.2
DallasTexas 4/23/2019 10:00 20.8 17.3 80.64 0 0 15.1 157 1016.1 93.2 13.4
DallasTexas 4/23/2019 11:00 22.5 17.8 75.04 0 0 16.5 162 1016.2 80.9 16
DallasTexas 4/23/2019 12:00 23.4 17.3 68.97 0 0 16.8 175 1016.1 82 16
DallasTexas 4/23/2019 13:00 23.8 17.6 68.25 0.03 0 20.5 157 1015.3 85.3 15.9
DallasTexas 4/23/2019 14:00 23.4 17.8 70.72 0.03 0 19.3 163 1015 82.6 15.4
DallasTexas 4/23/2019 15:00 23.3 17.9 71.77 0.01 0 20 147 1014.6 69.8 14.6
DallasTexas 4/23/2019 16:00 22.9 18.2 75.05 0.01 0 14.8 148 1014.1 65.4 13.9
DallasTexas 4/23/2019 17:00 22.8 18.4 76.3 0.02 0 12 139 1013.6 72.6 13.7
DallasTexas 4/23/2019 18:00 22.1 18.8 81.78 0.17 0 11.5 97 1013 74.9 11.5
DallasTexas 4/23/2019 19:00 21 19.3 90.17 2.13 0 5.7 51 1012.8 72.9 8.3
DallasTexas 4/23/2019 20:00 20.8 19.3 91.63 1.88 0 5.5 51 1012.1 71.4 8.9
DallasTexas 4/23/2019 21:00 20.8 19.3 91.54 4.49 0 10.8 119 1012 70.5 7.4
DallasTexas 4/23/2019 22:00 20.7 19.2 91.3 3.84 0 13.9 114 1012 73.1 11.6
DallasTexas 4/23/2019 23:00 17.3 16.2 93.03 8.47 0 23.6 348 1014.3 74.9 5.2
DallasTexas 4/24/2019 0:00 16.8 15.7 93.43 15.42 0 16.6 41 1014.8 72.6 5.7
DallasTexas 4/24/2019 1:00 17.3 15.7 90.82 4.67 0 9.3 84 1013.9 63.7 10
DallasTexas 4/24/2019 2:00 17 16 93.33 3.82 0 7.3 304 1014.9 74.2 8.2
DallasTexas 4/24/2019 3:00 17.2 15.9 92.53 2.7 0 8.7 74 1013.4 73.4 12.6
DallasTexas 4/24/2019 4:00 16.8 15.9 94 3.83 0 3.5 90 1013.7 73.9 9.2
DallasTexas 4/24/2019 5:00 16.6 15.5 92.97 3.46 0 1.2 19 1013.4 75.3 8.6
DallasTexas 4/24/2019 6:00 16.2 15.3 94.15 4.46 0 17.3 107 1011.5 72.1 10.3
DallasTexas 4/24/2019 7:00 16.2 15.1 93.34 1.29 0 17.4 150 1011.5 70.1 14
DallasTexas 4/24/2019 8:00 16.2 15.1 93.08 0.3 0 5.9 50 1012.7 67.4 15.9
DallasTexas 4/24/2019 9:00 16.7 15.5 92.65 0.26 0 8.4 108 1013.2 69.4 13.6
DallasTexas 4/24/2019 10:00 17 15.8 92.96 0.11 0 12.4 113 1012 88.4 15.8
DallasTexas 4/24/2019 11:00 17.7 16.2 91 0.2 0 11.5 134 1012.7 66 14.8
DallasTexas 4/24/2019 12:00 17.7 15.9 89.33 0.14 0 13.1 175 1013.1 72.8 15.8
DallasTexas 4/24/2019 13:00 19 16.3 84.48 0.68 0 5.4 25 1010.2 71.7 16
DallasTexas 4/24/2019 14:00 19.6 16.2 80.66 0 0 9.2 76 1009.9 71.9 15.9
DallasTexas 4/24/2019 15:00 19.4 16.3 82.6 0.36 0 5.6 309 1012.3 71.1 15.4
DallasTexas 4/24/2019 16:00 18.7 16.3 85.89 0.5 0 12.5 323 1010.5 71.6 14.7
DallasTexas 4/24/2019 17:00 18.4 16.1 86.48 0.26 0 9.3 329 1009.4 73.3 13.2
DallasTexas 4/24/2019 18:00 18.1 16.3 89.68 2.47 0 7.9 292 1010.2 74.6 4.7
DallasTexas 4/24/2019 19:00 17.3 16.2 93.18 6.27 0 10.3 324 1009.7 67.9 4.5
DallasTexas 4/24/2019 20:00 17.2 16.4 94.89 1.48 0 9.6 32 1008.7 61.4 7.7
DallasTexas 4/24/2019 21:00 17.1 16.1 93.66 0.37 0 9.9 27 1007.5 54 8.8
DallasTexas 4/24/2019 22:00 17.1 15.7 91.48 0 0 4.7 314 1009.5 67 11.2
DallasTexas 4/24/2019 23:00 17 15.9 93.68 0 0 6 249 1010.1 70.8 7.7
DallasTexas 4/25/2019 0:00 16.6 15.9 95.34 0.02 0 6 284 1009.2 66 5.8
DallasTexas 4/25/2019 1:00 16.5 15.8 95.2 0 0 6.7 251 1009 72.3 5.3
DallasTexas 4/25/2019 2:00 16.5 15.4 93.32 0 0 9.3 265 1008.6 74 8.3
DallasTexas 4/25/2019 3:00 16.4 15.4 93.98 0 0 6.7 275 1008.1 71.7 9.5
DallasTexas 4/25/2019 4:00 15.9 14.8 93.33 0 0 7.5 264 1008.3 65.5 9.9
DallasTexas 4/25/2019 5:00 16.1 14.8 92.32 0 0 11.9 276 1008.6 71.5 12.7
DallasTexas 4/25/2019 6:00 15.8 14.4 91.28 0 0 9.8 280 1008.7 61 13
DallasTexas 4/25/2019 7:00 14.9 13.8 92.89 0.09 0 10.3 304 1009 19.7 11.7
DallasTexas 4/25/2019 8:00 15.8 14 88.96 0 0 9.6 292 1009.3 20.5 13.7
DallasTexas 4/25/2019 9:00 17.4 14.5 83.34 0 0 7.9 299 1009.7 27.8 14.8
DallasTexas 4/25/2019 10:00 18.7 14.4 75.99 0 0 8.1 289 1009.7 21.9 16
DallasTexas 4/25/2019 11:00 20.9 14.3 65.9 0 0 10 304 1010.1 29.7 16
DallasTexas 4/25/2019 12:00 22.4 14.4 60.68 0 0 9.5 304 1010.2 18.3 16
DallasTexas 4/25/2019 13:00 23.4 14.3 56.55 0 0 13.5 327 1010.1 13.5 16
DallasTexas 4/25/2019 14:00 25.1 13.5 48.8 0 0 17 309 1010.1 15.2 16
DallasTexas 4/25/2019 15:00 25.9 13.2 45.38 0 0 17.7 328 1010.2 15.2 16
DallasTexas 4/25/2019 16:00 26.5 12.9 42.94 0 0 21.9 324 1010.2 15.2 16
DallasTexas 4/25/2019 17:00 27 11.9 38.9 0 0 21.3 331 1010.4 14.4 16
DallasTexas 4/25/2019 18:00 26.6 11.5 38.81 0 0 22 331 1011 14.4 16
DallasTexas 4/25/2019 19:00 25.9 12.2 42.33 0 0 14.3 334 1011.4 0 16
DallasTexas 4/25/2019 20:00 24.4 12.7 48.2 0 0 6.3 339 1011.8 13.7 16
DallasTexas 4/25/2019 21:00 22.2 14.1 59.85 0 0 1.4 349 1012.7 13.7 16
DallasTexas 4/25/2019 22:00 21.7 14 61.77 0 0 4.2 320 1013.9 13.5 16
DallasTexas 4/25/2019 23:00 21.3 13.4 60.83 0 0 17.2 347 1015 0 16
DallasTexas 4/26/2019 0:00 21 13 60.02 0 0 19.9 344 1015.7 0 16
DallasTexas 4/26/2019 1:00 20.4 12.7 61.01 0 0 16.1 351 1016.6 0 16
DallasTexas 4/26/2019 2:00 19.1 12.5 65.63 0 0 14.7 350 1017.2 0 16
DallasTexas 4/26/2019 3:00 18.2 11.4 64.71 0 0 13 1 1017.4 0 16
DallasTexas 4/26/2019 4:00 16.4 11.3 71.61 0 0 13 344 1018 0 16
DallasTexas 4/26/2019 5:00 16.2 11.1 72.1 0 0 13.3 355 1018.6 0 16
DallasTexas 4/26/2019 6:00 15.3 9.5 68.48 0 0 11 354 1019.5 0 16
DallasTexas 4/26/2019 7:00 14.3 8.4 67.43 0 0 9.5 9 1020.2 1.8 16
DallasTexas 4/26/2019 8:00 16.2 8.3 59.57 0 0 11 17 1021 0 16
DallasTexas 4/26/2019 9:00 18.2 7.5 49.63 0 0 12.3 34 1021.8 11.8 16
DallasTexas 4/26/2019 10:00 19.8 6.5 41.69 0 0 15.8 57 1022 11.8 16
DallasTexas 4/26/2019 11:00 21.5 6.2 36.97 0 0 16 84 1022.2 13.5 16
DallasTexas 4/26/2019 12:00 22.3 6.1 35.04 0 0 14.8 87 1022 13.5 16
DallasTexas 4/26/2019 13:00 23.5 6.1 32.48 0 0 10.6 45 1021.3 13.5 16
DallasTexas 4/26/2019 14:00 24.3 6.1 30.92 0 0 11.2 73 1020.5 13.9 16
DallasTexas 4/26/2019 15:00 24.7 5.3 28.64 0 0 13.4 101 1019.7 15.7 16
DallasTexas 4/26/2019 16:00 25.2 5.3 27.93 0 0 11.1 96 1018.5 13.9 15.7
DallasTexas 4/26/2019 17:00 24.8 5.5 28.91 0 0 12.1 139 1017.5 13.5 16
DallasTexas 4/26/2019 18:00 24.7 6.5 31.12 0 0 12.1 138 1017.2 13.5 16
DallasTexas 4/26/2019 19:00 23.5 6.8 34.18 0 0 9.3 141 1016.8 11.8 16
DallasTexas 4/26/2019 20:00 22 7.1 38.23 0 0 11.4 158 1016.1 0 16
DallasTexas 4/26/2019 21:00 20.3 7.9 44.51 0 0 9 156 1016.4 11.9 16
DallasTexas 4/26/2019 22:00 19.4 7.8 47.04 0 0 8.1 249 1016.6 0 16
DallasTexas 4/26/2019 23:00 18.3 8.3 52.09 0 0 7.1 134 1016.2 0 16
DallasTexas 4/27/2019 0:00 17.6 8.3 54.41 0 0 9.4 123 1015.4 0 16
DallasTexas 4/27/2019 1:00 17.2 7.9 54.32 0 0 9.5 139 1015.1 0 16
DallasTexas 4/27/2019 2:00 16.7 7.9 55.98 0 0 13.5 150 1013.7 0 16
DallasTexas 4/27/2019 3:00 17.1 8.2 55.9 0 0 14 168 1013.2 11.8 16
DallasTexas 4/27/2019 4:00 16.9 9.1 59.81 0 0 13.3 139 1013.1 41.5 16
DallasTexas 4/27/2019 5:00 16.5 9.1 61.32 0 0 12.7 152 1012.8 23.9 16
DallasTexas 4/27/2019 6:00 15.7 9.4 66.15 0 0 10.6 30 1012.7 33.5 16
DallasTexas 4/27/2019 7:00 16.2 9.9 66.02 0 0 10.8 151 1012.3 34.3 16
DallasTexas 4/27/2019 8:00 16.9 11.1 68.86 0 0 13.7 139 1012.4 34.5 16
DallasTexas 4/27/2019 9:00 19.5 12.8 65.54 0 0 18.8 184 1012.2 33.5 16
DallasTexas 4/27/2019 10:00 23 13.3 54.35 0 0 23.3 203 1011.6 20.1 16
DallasTexas 4/27/2019 11:00 24.5 14.2 52.86 0 0 30 199 1011.3 18.8 16
DallasTexas 4/27/2019 12:00 25.9 14.6 49.61 0 0 25.6 196 1010.4 26 16
DallasTexas 4/27/2019 13:00 26.1 15 50.28 0 0 19.3 208 1010.9 45.1 16
DallasTexas 4/27/2019 14:00 26.7 15.3 49.87 0 0 18.4 199 1010.7 43.2 16
DallasTexas 4/27/2019 15:00 27.9 15.6 47.09 0 0 19 192 1010 21.8 16
DallasTexas 4/27/2019 16:00 28.1 15.6 46.74 0 0 21.2 179 1008.8 18.3 16
DallasTexas 4/27/2019 17:00 28.5 16.1 47.12 0 0 20.1 173 1008.3 13.5 16
DallasTexas 4/27/2019 18:00 28 16 48.22 0 0 22.5 170 1008.1 14.4 16
DallasTexas 4/27/2019 19:00 27.2 16.5 52.15 0 0 18.3 171 1008.1 13.4 16
DallasTexas 4/27/2019 20:00 25.5 16.6 57.9 0 0 12.8 167 1008.7 21.4 16
DallasTexas 4/27/2019 21:00 24.6 16.9 62.37 0 0 13.3 156 1009.1 33.7 16
DallasTexas 4/27/2019 22:00 23.9 16.9 64.92 0 0 12.4 153 1010 31 16
DallasTexas 4/27/2019 23:00 23.3 17.3 69.14 0 0 10.7 112 1011.4 31.4 16
DallasTexas 4/28/2019 0:00 23 17.2 69.7 0.29 0 16.9 191 1011.7 71.1 15.6
DallasTexas 4/28/2019 1:00 20.6 15.6 73.17 1.69 0 26.5 159 1009.2 64.2 14.7
DallasTexas 4/28/2019 2:00 21.1 15.7 71.57 0.1 0 13.4 29 1008.1 44.5 16
DallasTexas 4/28/2019 3:00 21.4 15.2 67.57 0.01 0 15.7 253 1010.6 28.8 16
DallasTexas 4/28/2019 4:00 20.1 16.3 78.95 0.11 0 8.5 244 1011.4 18.3 16
DallasTexas 4/28/2019 5:00 19 16.1 83.14 0 0 1 1 1011.9 21.7 15.7
DallasTexas 4/28/2019 6:00 18.6 16.4 86.81 0 0 6.5 131 1012.1 38.4 13.4
DallasTexas 4/28/2019 7:00 18.6 16.7 88.62 0 0 13.9 168 1011.8 43 14.4
DallasTexas 4/28/2019 8:00 19.2 16.9 86.35 0 0 17.2 269 1015.1 63.1 15.3
DallasTexas 4/28/2019 9:00 19.2 17 86.92 0.2 0 19.1 329 1012.6 34 15.2
DallasTexas 4/28/2019 10:00 20.6 17.3 81.27 0 0 26.4 175 1012.3 75.1 16
DallasTexas 4/28/2019 11:00 21.7 17.3 76.19 0 0 26.3 180 1012.1 44.5 16
DallasTexas 4/28/2019 12:00 23.4 18.1 72.06 0 0 20.5 169 1012.7 37.5 16
DallasTexas 4/28/2019 13:00 25 18.3 66.37 0 0 19.5 162 1012.2 40.6 16
DallasTexas 4/28/2019 14:00 26 18.5 63.34 0 0 22.4 165 1011.7 47 16
DallasTexas 4/28/2019 15:00 26.9 18.4 59.94 0 0 23.4 170 1011.3 80.7 16
DallasTexas 4/28/2019 16:00 26.7 18.1 59.33 0 0 26.1 162 1010.5 85.8 16
DallasTexas 4/28/2019 17:00 26.6 17.5 57.12 0 0 25 167 1010 66.3 16
DallasTexas 4/28/2019 18:00 26.5 17.4 57.14 0 0 24.7 162 1009.6 27.3 16
DallasTexas 4/28/2019 19:00 25.8 17 58.5 0 0 24.5 152 1009.1 22.2 16
DallasTexas 4/28/2019 20:00 24.6 16.6 61.12 0 0 27.3 154 1008.9 41 16
DallasTexas 4/28/2019 21:00 23.7 16.4 63.51 0 0 19.1 158 1009.6 18.5 16
DallasTexas 4/28/2019 22:00 22.6 16.4 67.85 0 0 14.3 166 1010.5 19.1 16
DallasTexas 4/28/2019 23:00 22.3 16.3 68.91 0 0 20.9 157 1010.5 19.1 16
DallasTexas 4/29/2019 0:00 21.7 16.2 70.91 0 0 24.6 158 1010.6 24.7 16
DallasTexas 4/29/2019 1:00 20.9 16.4 75.6 0 0 21.3 160 1010.7 15 16
DallasTexas 4/29/2019 2:00 20.3 16.1 76.84 0 0 22.5 160 1010.4 14.3 16
DallasTexas 4/29/2019 3:00 19.8 16.1 79.34 0 0 23.7 168 1010 50.7 16
DallasTexas 4/29/2019 4:00 19.8 16.1 79.33 0 0 26.9 178 1010.2 88.3 16
DallasTexas 4/29/2019 5:00 19.8 15.9 78.1 0 0 26.7 182 1010.5 90.4 16
DallasTexas 4/29/2019 6:00 19.9 15.8 77.14 0 0 21.8 174 1010.5 92.8 16
DallasTexas 4/29/2019 7:00 19.8 16 78.67 0 0 20.7 177 1010.9 87.3 16
DallasTexas 4/29/2019 8:00 20.5 16.5 77.69 0 0 22 180 1012.1 90.6 16
DallasTexas 4/29/2019 9:00 21 16.8 77.25 0 0 18.4 179 1012.8 89.8 16
DallasTexas 4/29/2019 10:00 22.5 17.1 71.31 0 0 23.2 178 1013.2 58.9 15.9
DallasTexas 4/29/2019 11:00 23.7 17.2 66.64 0 0 24.3 178 1013.1 87.5 16
DallasTexas 4/29/2019 12:00 24 17.3 65.84 0 0 28.4 172 1013.1 77.7 16
DallasTexas 4/29/2019 13:00 25.2 17.6 62.61 0 0 22.6 171 1013.6 83.8 16
DallasTexas 4/29/2019 14:00 25.8 17.6 60.5 0 0 17.4 174 1013.5 83.8 16
DallasTexas 4/29/2019 15:00 26.2 17.7 59.53 0 0 21.5 170 1013.1 50.6 16
DallasTexas 4/29/2019 16:00 27.2 18.5 59.04 0 0 21.8 162 1012.4 51.5 16
DallasTexas 4/29/2019 17:00 27.2 18.3 58.21 0 0 23.5 158 1011.8 48 16
DallasTexas 4/29/2019 18:00 27.1 18.3 58.51 0 0 21.6 149 1011.5 42.3 15.9
DallasTexas 4/29/2019 19:00 26.4 18.8 62.8 0 0 17 139 1011.7 55.4 15.9
DallasTexas 4/29/2019 20:00 25.6 19 67.06 0 0 12.4 120 1011.7 39.3 16
DallasTexas 4/29/2019 21:00 25 19.2 70.31 0 0 10.3 110 1012.3 77.7 15.5
DallasTexas 4/29/2019 22:00 24.8 19.5 72.64 0 0 11.7 120 1012.6 51.9 15.5
DallasTexas 4/29/2019 23:00 24.7 19.7 73.38 0 0 17.8 138 1013.3 71.3 15.5
DallasTexas 4/30/2019 0:00 24.3 19.4 74.4 0 0 18.4 148 1013.3 58.1 15.5
DallasTexas 4/30/2019 1:00 23.5 19.4 78.08 0 0 20.3 146 1013.1 51.1 15.2
DallasTexas 4/30/2019 2:00 23 19.7 81.54 0 0 14.6 149 1013.1 41.9 13.4
DallasTexas 4/30/2019 3:00 22.9 20.1 84.11 0 0 14.5 153 1012.3 38.7 12.9
DallasTexas 4/30/2019 4:00 22.5 20.1 86.06 0 0 15.1 140 1012 63.3 12.7
DallasTexas 4/30/2019 5:00 22.5 20.1 86.47 0 0 16.3 140 1012 82.3 12.4
DallasTexas 4/30/2019 6:00 22.5 20.5 88.29 0 0 14 131 1012 85.1 12.5
DallasTexas 4/30/2019 7:00 22.7 20.7 88.24 0 0 17.1 144 1012.2 94.1 10.7
DallasTexas 4/30/2019 8:00 23.2 20.7 85.96 0 0 15.2 142 1012.4 95.7 9.9
DallasTexas 4/30/2019 9:00 23.6 20.8 84.17 0 0 20.6 147 1012.3 96.3 11.4
DallasTexas 4/30/2019 10:00 23.8 20.7 82.72 0.08 0 22.2 158 1012.2 92.2 11.7
DallasTexas 4/30/2019 11:00 25.1 20.6 76.39 0 0 24.9 162 1012.4 91.9 12.1
DallasTexas 4/30/2019 12:00 25.1 20.6 76.3 0 0 23.7 154 1012.4 90 13
DallasTexas 4/30/2019 13:00 25.9 20.7 73.16 0 0 22 160 1012 75.1 12.6
DallasTexas 4/30/2019 14:00 25.5 20.8 75.64 0 0 24.6 164 1011.2 68.2 14.1
DallasTexas 4/30/2019 15:00 26.1 21.1 73.94 0.01 0 24.1 163 1010.6 73.5 14.6
DallasTexas 4/30/2019 16:00 27 20.4 67.41 0 0 26.2 163 1009.6 59.3 15.1
DallasTexas 4/30/2019 17:00 26.6 19.6 65.67 0 0 23.5 156 1008.5 63.9 15.5
DallasTexas 4/30/2019 18:00 25.6 20 71.45 0.2 0 22.3 143 1007.3 36.5 16
DallasTexas 4/30/2019 19:00 25.7 19.9 70.46 0.11 0 32.9 153 1007 37.2 16
DallasTexas 4/30/2019 20:00 25.6 19.7 69.99 0 0 25.6 163 1007.9 52.9 16
DallasTexas 4/30/2019 21:00 25.2 19.7 71.58 0.01 0 28.3 162 1008.2 48.5 16
DallasTexas 4/30/2019 22:00 25.1 19.7 72.35 0.01 0 22.9 170 1009.2 46.5 16
DallasTexas 4/30/2019 23:00 24.4 20 76.6 0 0 24 173 1009.4 28.3 15.4
DallasTexas 5/1/2019 0:00 24.1 20.3 79.42 0 0 26.9 171 1009.3 45.5 15.5
DallasTexas 5/1/2019 1:00 24 20.7 81.79 0 0 21.8 165 1009.6 85.8 15.1
DallasTexas 5/1/2019 2:00 23.7 20.8 83.48 0 0 20.3 164 1009.7 83.8 13.7
DallasTexas 5/1/2019 3:00 23.4 20.8 85.15 0 0 20.3 164 1009.4 86.7 13.4
DallasTexas 5/1/2019 4:00 23.1 20.8 86.62 0 0 18.6 171 1009.3 80.4 12.3
DallasTexas 5/1/2019 5:00 22.8 20.8 89 0 0 15.1 172 1009.7 81.6 11.8
DallasTexas 5/1/2019 6:00 22.7 20.9 89.74 0 0 15.3 167 1010.4 88.9 11.2
DallasTexas 5/1/2019 7:00 22.8 21 89.85 0 0 15.5 157 1011.2 89 9.1
DallasTexas 5/1/2019 8:00 23.1 21.1 88.31 0 0 14.5 161 1011.7 91.3 10.2
DallasTexas 5/1/2019 9:00 23.7 21.1 85.44 0 0 16 161 1012.3 96.2 12.2
DallasTexas 5/1/2019 10:00 24.4 21.1 81.94 0 0 17.7 164 1012.5 96.8 12.6
DallasTexas 5/1/2019 11:00 25.7 21.4 77.02 0 0 18.1 153 1012.7 92.5 13.6
DallasTexas 5/1/2019 12:00 26.5 21.3 73.25 0 0 17 165 1013.3 72.9 14.1
DallasTexas 5/1/2019 13:00 27.2 21.2 70.04 0.01 0 22.6 156 1013 56.3 15.5
DallasTexas 5/1/2019 14:00 27.9 21.1 66.47 0 0 27.6 163 1012.4 73.4 15.5
DallasTexas 5/1/2019 15:00 27.5 20.5 65.71 0 0 27.8 162 1011.6 74.1 14.6
DallasTexas 5/1/2019 16:00 25 20.8 77.5 0.11 0 24.6 153 1011.3 81 12.1
DallasTexas 5/1/2019 17:00 25.5 21 75.76 0 0 16.7 150 1010.9 67 15.5
DallasTexas 5/1/2019 18:00 25.9 20.9 74.11 0.03 0 15.1 138 1010.4 58.7 15.3
DallasTexas 5/1/2019 19:00 26 20.8 73.09 0.05 0 13 132 1010.9 60.7 14.1
DallasTexas 5/1/2019 20:00 25.1 21.3 79.31 0.46 0 5.4 84 1011.3 60.5 14
DallasTexas 5/1/2019 21:00 20.7 17.2 80.49 0.94 0 21.8 10 1012.8 68.2 15
DallasTexas 5/1/2019 22:00 18.8 16.1 84.07 1.49 0 13.6 49 1013.8 76.6 14.8
DallasTexas 5/1/2019 23:00 17.8 16.2 90.15 2.67 0 19.5 33 1014.8 66.4 10.6
DallasTexas 5/2/2019 0:00 17.4 16.5 94.63 19.94 0 11.3 51 1015.6 69.2 6.2
DallasTexas 5/2/2019 1:00 17.3 16.1 92.83 3.87 0 8.5 19 1015.6 65.2 10
DallasTexas 5/2/2019 2:00 16.9 15.8 93.16 2.39 0 12.5 50 1014.6 71.1 12.3
DallasTexas 5/2/2019 3:00 16.8 15.9 94.59 2.82 0 7.5 53 1016.1 66.2 8.4
DallasTexas 5/2/2019 4:00 16.7 15.6 93.56 3.13 0 23.5 100 1012.5 49.5 15.4
DallasTexas 5/2/2019 5:00 16.7 15.1 90.59 0.18 0 18.5 112 1010.7 48.4 16
DallasTexas 5/2/2019 6:00 17 15.1 88.66 0.03 0 4.3 28 1012.2 30.2 16
DallasTexas 5/2/2019 7:00 16.5 14.6 88.75 1.63 0 4.4 296 1014.2 30.9 16
DallasTexas 5/2/2019 8:00 17.1 15.3 89.2 0 0 13.1 310 1015.9 27.7 16
DallasTexas 5/2/2019 9:00 18.1 16 87.6 0 0 16.8 325 1017.6 50.3 16
DallasTexas 5/2/2019 10:00 19.5 15.5 77.64 0 0 26.3 331 1019.6 67.1 16
DallasTexas 5/2/2019 11:00 18.8 15.8 82.55 1.07 0 10.2 61 1018.2 53.5 16
DallasTexas 5/2/2019 12:00 21.4 16.1 71.45 0.01 0 13.3 102 1016.9 49.4 15.3
DallasTexas 5/2/2019 13:00 23.3 16.3 64.79 0.03 0 16.9 140 1015.1 12.6 15.8
DallasTexas 5/2/2019 14:00 24.7 17.1 62.7 0 0 17.4 171 1014.2 18.3 15.9
DallasTexas 5/2/2019 15:00 26.1 16.5 55.37 0 0 13.4 189 1014.3 13.5 16
DallasTexas 5/2/2019 16:00 24.9 16.7 60.53 0.16 0 12.3 208 1013.9 42 16
DallasTexas 5/2/2019 17:00 22.3 17.1 72.07 0.25 0 21.6 202 1014 36 16
DallasTexas 5/2/2019 18:00 21.1 14.6 66.13 0.13 0 30.1 169 1011.1 54.1 15.5
DallasTexas 5/2/2019 19:00 21.8 14.4 62.85 0.04 0 22.8 339 1012.6 35.7 16
DallasTexas 5/2/2019 20:00 21.1 14.7 66.84 0 0 6.5 322 1012.6 28.1 16
DallasTexas 5/2/2019 21:00 20.7 14.7 68.22 0 0 8.4 295 1013.2 27.8 16
DallasTexas 5/2/2019 22:00 20.1 14.6 70.4 0 0 5.7 257 1013.6 18.3 16
DallasTexas 5/2/2019 23:00 18 14.9 82.06 0 0 5.9 78 1014 23.3 16
DallasTexas 5/3/2019 0:00 17.4 14.5 83.3 0 0 0.8 333 1014.7 43.9 16
DallasTexas 5/3/2019 1:00 16.6 14.7 88.68 0 0 6.5 52 1014.3 43.9 15.8
DallasTexas 5/3/2019 2:00 16.6 14.7 88.58 0 0 3 307 1013.5 43.9 16
DallasTexas 5/3/2019 3:00 16.8 14.8 87.73 0 0 1.5 321 1012.9 43.9 16
DallasTexas 5/3/2019 4:00 17.1 14.7 86.17 0 0 2.4 289 1013.1 47.5 16
DallasTexas 5/3/2019 5:00 17.5 14.9 84.97 0 0 8.9 22 1013.3 37.4 16
DallasTexas 5/3/2019 6:00 17.5 15 85.02 0 0 7.3 105 1012.9 34.5 16
DallasTexas 5/3/2019 7:00 17.3 15.2 87.2 0 0 2.8 48 1012.6 30.5 15.5
DallasTexas 5/3/2019 8:00 17.6 15.8 89.06 0 0 4 9 1012.9 36.9 15.3
DallasTexas 5/3/2019 9:00 18.6 16.2 85.84 0 0 6.4 61 1013.4 27.9 15.8
DallasTexas 5/3/2019 10:00 19.8 16.5 81.32 0 0 7.2 87 1014.1 38.4 15.9
DallasTexas 5/3/2019 11:00 22.2 16.8 71.62 0 0 8.5 119 1014.3 23.7 16
DallasTexas 5/3/2019 12:00 24.1 15.6 59 0 0 18.3 117 1014.6 29.4 16
DallasTexas 5/3/2019 13:00 24.3 14.7 54.9 0 0 22 128 1013.9 57.6 16
DallasTexas 5/3/2019 14:00 24.3 13.5 51.08 0 0 16.3 126 1012.9 72.6 15.8
DallasTexas 5/3/2019 15:00 24.5 14.2 52.68 0 0 17.3 143 1011.8 55.4 16
DallasTexas 5/3/2019 16:00 23.8 14.9 57.39 0 0 21.4 147 1010.8 85.9 16
DallasTexas 5/3/2019 17:00 23.3 16.8 66.84 0 0 19.1 146 1010.7 55.1 16
DallasTexas 5/3/2019 18:00 22.7 17.3 71.45 0 0 11.6 121 1010.4 60.1 16
DallasTexas 5/3/2019 19:00 22 17.7 76.35 0 0 12.7 96 1009.5 33.2 16
DallasTexas 5/3/2019 20:00 21.9 17.9 77.81 0 0 12.8 84 1010.1 72 16
DallasTexas 5/3/2019 21:00 21.8 17.4 75.69 0 0 10.7 64 1010.9 63.6 15.8
DallasTexas 5/3/2019 22:00 20.9 17.7 81.97 1.4 0 10 64 1011.3 71.4 15.4
DallasTexas 5/3/2019 23:00 20.8 17.9 83.36 0.3 0 14.3 54 1011.3 83.2 14.9
DallasTexas 5/4/2019 0:00 20.3 17.9 86.05 0.23 0 8.5 36 1010.7 55.6 15.5
DallasTexas 5/4/2019 1:00 19.9 17.5 85.8 0.02 0 9.6 54 1011.3 77.1 16
DallasTexas 5/4/2019 2:00 19.7 17.3 86.07 0 0 7.2 44 1010.8 69.4 16
DallasTexas 5/4/2019 3:00 19.3 17.1 86.92 0.13 0 7.9 35 1010.3 87 15.9
DallasTexas 5/4/2019 4:00 18.7 17.2 90.57 0.37 0 11.4 314 1009.7 74.7 14.3
DallasTexas 5/4/2019 5:00 18.1 16.4 89.54 5.73 0 8.9 359 1009.8 80.6 14.4
DallasTexas 5/4/2019 6:00 18 16.8 93.21 2.45 0 12.6 15 1010.4 66.1 13
DallasTexas 5/4/2019 7:00 17.7 16.4 91.69 1.51 0 12.8 13 1011.3 91.6 14
DallasTexas 5/4/2019 8:00 17.6 15.9 89.66 0.31 0 12.8 5 1011.9 71.3 15.6
DallasTexas 5/4/2019 9:00 18 15.9 87.81 0.03 0 15 6 1012.7 71.6 16
DallasTexas 5/4/2019 10:00 18.9 15.5 80.9 0 0 14.9 17 1013 41.9 16
DallasTexas 5/4/2019 11:00 21.3 16 71.75 0 0 14.7 10 1013.2 27.6 16
DallasTexas 5/4/2019 12:00 22.9 15.9 64.91 0 0 16.4 349 1013.1 27.7 16
DallasTexas 5/4/2019 13:00 23.4 15.2 59.9 0 0 15.4 337 1012.6 44.4 16
DallasTexas 5/4/2019 14:00 25 15.9 57.03 0 0 15.4 325 1011.9 43.5 16
DallasTexas 5/4/2019 15:00 25.2 15.8 56.14 0 0 17.5 349 1011.8 64.7 16
DallasTexas 5/4/2019 16:00 25.2 15.6 55.34 0 0 14 340 1011.2 64.9 16
DallasTexas 5/4/2019 17:00 25.1 15.8 56.38 0 0 15 344 1010.7 41.2 16
DallasTexas 5/4/2019 18:00 24.5 15.6 57.6 0 0 15.8 346 1010.5 40.9 16
DallasTexas 5/4/2019 19:00 23.7 15.1 58.79 0 0 16.6 342 1010.7 38.1 16
DallasTexas 5/4/2019 20:00 22.1 15 64.23 0 0 14.1 359 1010.8 23.8 15.9
DallasTexas 5/4/2019 21:00 20.5 15.1 71.09 0 0 9.4 14 1011.4 13.7 15.9
DallasTexas 5/4/2019 22:00 19.7 14.7 72.68 0 0 10.6 36 1011.5 0 16
DallasTexas 5/4/2019 23:00 18.7 14.2 75.29 0 0 10.4 58 1012.1 11.8 16
DallasTexas 5/5/2019 0:00 18.1 13.8 76.28 0 0 4 32 1012.5 24.7 16
DallasTexas 5/5/2019 1:00 17.4 13.6 78.3 0 0 3.3 35 1012.3 27.2 16
DallasTexas 5/5/2019 2:00 16.7 13.5 81.1 0 0 0.6 4 1012.1 27.2 16
DallasTexas 5/5/2019 3:00 16 13.4 84.53 0 0 0 0 1012.3 15 16
DallasTexas 5/5/2019 4:00 15.3 13.3 88.11 0 0 0.4 360 1012.2 19.2 15.6
DallasTexas 5/5/2019 5:00 15.2 13.3 88.14 0 0 0.5 5 1012 14 16
DallasTexas 5/5/2019 6:00 14.9 13.2 89.76 0 0 1.7 71 1012 13.5 16
DallasTexas 5/5/2019 7:00 15 13.2 89.1 0 0 3.7 107 1012.4 13.7 16
DallasTexas 5/5/2019 8:00 17.1 14.1 82.4 0 0 3.1 74 1012.9 13.7 16
DallasTexas 5/5/2019 9:00 19 14.3 74.36 0 0 8.5 106 1012.8 13.5 16
DallasTexas 5/5/2019 10:00 21.4 15.4 68.75 0 0 9.9 138 1012.9 13.5 16
DallasTexas 5/5/2019 11:00 23.1 16.3 65.89 0 0 10 126 1013 13.5 15.9
DallasTexas 5/5/2019 12:00 24.4 16.8 62.57 0 0 8.4 163 1013 16.1 16
DallasTexas 5/5/2019 13:00 25.9 16.9 57.81 0 0 8.1 343 1012.7 48.8 16
DallasTexas 5/5/2019 14:00 26.4 16.7 55.17 0 0 10 157 1012 52.7 16
DallasTexas 5/5/2019 15:00 27.2 16.5 52.24 0 0 14.7 163 1011.3 45.6 16
DallasTexas 5/5/2019 16:00 27.5 16.6 51.32 0 0 20.3 162 1010.4 46.8 16
DallasTexas 5/5/2019 17:00 27.7 16.5 50.63 0 0 18.6 156 1009.8 48.8 16
DallasTexas 5/5/2019 18:00 27.4 16.3 51.02 0 0 16.8 162 1009.7 56.6 16
DallasTexas 5/5/2019 19:00 26.7 16.3 52.89 0 0 17.3 157 1009.2 48 16
DallasTexas 5/5/2019 20:00 25.2 16.7 59.11 0 0 14.1 151 1008.7 19.3 16
DallasTexas 5/5/2019 21:00 24.1 17.2 65.28 0 0 10 145 1010 40.4 16
DallasTexas 5/5/2019 22:00 23 17.6 71.92 0 0 10.5 161 1010.6 43.9 16
DallasTexas 5/5/2019 23:00 22.5 17.2 72.16 0 0 9.3 25 1011.2 43.9 16
DallasTexas 5/6/2019 0:00 22.3 17.2 72.85 0 0 9.1 12 1011 49.4 16
DallasTexas 5/6/2019 1:00 22.3 17.2 72.79 0 0 11.9 279 1011.1 44.3 16
DallasTexas 5/6/2019 2:00 21.7 16.8 74.04 0 0 16.8 168 1010.5 29.7 16
DallasTexas 5/6/2019 3:00 21.8 16.5 72.1 0 0 18.1 162 1009.6 43.9 16
DallasTexas 5/6/2019 4:00 21.8 16.8 73.17 0 0 17.2 169 1010.1 35.4 16
DallasTexas 5/6/2019 5:00 21.4 17.2 76.98 0 0 14 165 1010.9 28.6 16
DallasTexas 5/6/2019 6:00 21 17.5 80.64 0 0 14.3 176 1011.4 27.8 16
DallasTexas 5/6/2019 7:00 20.9 17.9 83.02 0 0 14.3 44 1011.9 34.8 16
DallasTexas 5/6/2019 8:00 21.4 18 81.3 0 0 15.6 156 1012.3 38.1 16
DallasTexas 5/6/2019 9:00 22.6 17 70.49 0 0 16.8 167 1012.8 35.5 16
DallasTexas 5/6/2019 10:00 23.7 15.8 61.48 0 0 22 185 1013.8 19.6 16
DallasTexas 5/6/2019 11:00 24.6 15.7 57.48 0 0 21.1 175 1013.8 19.6 16
DallasTexas 5/6/2019 12:00 25.6 14.8 51.24 0 0 19.8 181 1013.8 19.6 16
DallasTexas 5/6/2019 13:00 27 14.9 47.65 0 0 20.4 178 1014.2 27.9 16
DallasTexas 5/6/2019 14:00 27.6 14.9 46 0 0 17.6 170 1013.4 27.8 16
DallasTexas 5/6/2019 15:00 27.6 14.8 45.71 0 0 18.2 156 1013.2 28.2 16
DallasTexas 5/6/2019 16:00 27.6 15.6 48.07 0 0 20.7 156 1012.9 35.8 16
DallasTexas 5/6/2019 17:00 27.4 15.6 48.55 0 0 20.2 143 1012.6 36.6 16
DallasTexas 5/6/2019 18:00 26.9 15.6 49.91 0 0 16.4 157 1012.7 31 16
DallasTexas 5/6/2019 19:00 26.4 16.6 54.76 0 0 13.9 137 1012.8 37.8 16
DallasTexas 5/6/2019 20:00 25.5 17 59.58 0 0 10.3 132 1012.5 31.2 16
DallasTexas 5/6/2019 21:00 24.2 17.3 65.5 0 0 11 137 1012.5 29.2 16
DallasTexas 5/6/2019 22:00 23.2 17.4 70.07 0 0 7.3 146 1013 27.8 16
DallasTexas 5/6/2019 23:00 22.6 17.5 72.87 0 0 6.1 303 1013.5 32.1 16
DallasTexas 5/7/2019 0:00 21.6 17.2 76.04 0 0 10 148 1012.7 19.1 16
DallasTexas 5/7/2019 1:00 21.3 17.7 80.05 0 0 8.2 175 1012.5 25.3 16
DallasTexas 5/7/2019 2:00 21.5 17.8 79.83 0 0 11.4 15 1013.2 27.2 16
DallasTexas 5/7/2019 3:00 21.2 17.5 79.52 0 0 9.4 227 1013.4 27.2 16
DallasTexas 5/7/2019 4:00 20.6 17.8 83.77 0 0 8 30 1013.5 45.1 16
DallasTexas 5/7/2019 5:00 20.3 18.1 87.12 0 0 8.1 32 1013.5 41.2 15.9
DallasTexas 5/7/2019 6:00 20.4 18.3 87.84 0 0 9.7 146 1013.7 73.8 15.6
DallasTexas 5/7/2019 7:00 20.5 18.4 87.61 0 0 7.8 124 1014.2 81.9 13.1
DallasTexas 5/7/2019 8:00 21.1 19 87.88 0 0 9.5 136 1015.3 92.3 13.4
DallasTexas 5/7/2019 9:00 21.4 19.1 86.55 0 0 10.6 147 1015.7 83.8 14.1
DallasTexas 5/7/2019 10:00 22.3 19.6 84.63 0 0 9.9 144 1015.6 89.1 13.1
DallasTexas 5/7/2019 11:00 24.2 19.8 76.5 0 0 12 124 1015.3 79.9 13.9
DallasTexas 5/7/2019 12:00 25.1 20.1 73.73 0 0 11.3 152 1015.3 82.6 14.3
DallasTexas 5/7/2019 13:00 26.5 20.4 69.48 0 0 13.2 133 1014.6 82 15.6
DallasTexas 5/7/2019 14:00 27.9 20.5 63.94 0 0 15.4 137 1012.8 74.8 15.6
DallasTexas 5/7/2019 15:00 28.6 20.4 61.14 0 0 16.2 134 1011.7 68.2 16
DallasTexas 5/7/2019 16:00 29.3 20.3 58.72 0 0 19.3 142 1010.7 68.3 16
DallasTexas 5/7/2019 17:00 29 19.9 57.99 0 0 22.5 141 1010.1 39.1 16
DallasTexas 5/7/2019 18:00 28.7 19.6 57.93 0 0 25.9 136 1009.1 41.6 16
DallasTexas 5/7/2019 19:00 25.6 19.4 68.59 0 0 30.7 143 1009 56.4 16
DallasTexas 5/7/2019 20:00 24.5 19.8 75.21 0.01 0 26.2 141 1008.9 65.3 16
DallasTexas 5/7/2019 21:00 23.7 20 79.7 0 0 22.4 144 1008.9 42.4 16
DallasTexas 5/7/2019 22:00 23 19.8 81.86 0 0 19.6 157 1009.8 22.2 16
DallasTexas 5/7/2019 23:00 22.5 19.4 82.57 0 0 19.7 144 1009.7 47.3 16
DallasTexas 5/8/2019 0:00 22.2 19 82.1 0 0 21.9 147 1008.7 62.1 16
DallasTexas 5/8/2019 1:00 22 18.9 82.7 0 0 20.2 151 1008.6 94.3 16
DallasTexas 5/8/2019 2:00 21.9 18.8 82.47 0 0 21.1 163 1008.4 94.7 16
DallasTexas 5/8/2019 3:00 21.5 18.1 81.3 0 0 14.6 174 1007.9 72.8 16
DallasTexas 5/8/2019 4:00 21.4 18.1 81.94 0 0 14.1 161 1007.5 76.4 16
DallasTexas 5/8/2019 5:00 20.3 17.7 84.79 1.92 0 19.6 254 1009.2 79.2 10.9
DallasTexas 5/8/2019 6:00 17.7 16.5 92.33 21.08 0 11.9 83 1007.8 82.3 7.1
DallasTexas 5/8/2019 7:00 18 16.9 93.71 1.46 0 18.8 104 1005.7 56.7 14.6
DallasTexas 5/8/2019 8:00 19.3 17.8 91.33 0.04 0 17.9 126 1006.6 89 15
DallasTexas 5/8/2019 9:00 19.6 18.1 91.13 0.25 0 12.4 328 1008.3 95.9 13.4
DallasTexas 5/8/2019 10:00 17.8 16.7 93.34 10.27 0 26.5 336 1008.6 59.3 2.3
DallasTexas 5/8/2019 11:00 17.5 16.3 92.68 7.96 0 25.2 19 1008.2 73 6.4
DallasTexas 5/8/2019 12:00 16.9 15.7 92.78 3.89 0 18.4 41 1007.8 74.3 5.9
DallasTexas 5/8/2019 13:00 16.7 15.7 93.77 9.99 0 29.6 96 1005.1 66.2 7.7
DallasTexas 5/8/2019 14:00 17.3 15.8 91.16 1.49 0 13 88 1004 50 15.6
DallasTexas 5/8/2019 15:00 17.5 16.1 91.27 0.16 0 2.2 1 1003.1 23.8 15.9
DallasTexas 5/8/2019 16:00 18 16.1 88.71 0.33 0 7.3 115 1003.8 35.4 16
DallasTexas 5/8/2019 17:00 18.9 16.6 86.58 0 0 14.1 358 1004 71.6 16
DallasTexas 5/8/2019 18:00 20 16.9 82.28 0 0 16.4 189 1004.5 96.3 16
DallasTexas 5/8/2019 19:00 20 16.9 82.59 0 0 11.9 187 1004.7 97.3 16
DallasTexas 5/8/2019 20:00 19.7 17 84.06 0 0 10.4 177 1004.8 98.5 16
DallasTexas 5/8/2019 21:00 19.2 17 86.98 0 0 9.9 141 1005.3 59.9 16
DallasTexas 5/8/2019 22:00 18.7 17.2 90.92 0 0 7.6 117 1006.2 67.4 15.5
DallasTexas 5/8/2019 23:00 18.7 17.2 91.35 0 0 8 138 1006.8 81.1 15.9
DallasTexas 5/9/2019 0:00 18.1 16.6 91.18 0 0 5.5 124 1006.8 39.9 13.4
DallasTexas 5/9/2019 1:00 17.5 16.5 93.48 0 0 0.7 20 1006.8 43.9 9.9
DallasTexas 5/9/2019 2:00 17 16.4 96.27 0 0 2.4 61 1006.4 57.2 5.7
DallasTexas 5/9/2019 3:00 17.6 16.7 94.99 0 0 7.7 91 1006.2 80.4 4.7
DallasTexas 5/9/2019 4:00 17.8 17.3 96.37 0 0 8.4 106 1006 85.4 2.9
DallasTexas 5/9/2019 5:00 18.1 17.6 96.76 0.02 0 6.8 359 1007 85.1 2
DallasTexas 5/9/2019 6:00 18.3 17.8 96.72 0.27 0 7.6 21 1008.2 87.4 2.3
DallasTexas 5/9/2019 7:00 18.1 17.5 96.58 0.3 0 11 47 1009.3 96.7 3.3
DallasTexas 5/9/2019 8:00 18.4 17.4 93.63 0.09 0 5.4 8 1010.3 84.6 6.7
DallasTexas 5/9/2019 9:00 19.3 17.9 91.65 0 0 8.6 58 1010.4 92.4 8.8
DallasTexas 5/9/2019 10:00 20.7 18.5 87.12 0 0 7.2 67 1010.7 76.9 12.3
DallasTexas 5/9/2019 11:00 22.1 18.3 79.07 0 0 1 356 1011.1 89.7 14.5
DallasTexas 5/9/2019 12:00 23 18.6 76.02 0 0 13.3 336 1011.6 71.9 13.5
DallasTexas 5/9/2019 13:00 23.6 18.5 72.97 0 0 20.6 347 1011.3 73.7 16
DallasTexas 5/9/2019 14:00 23.7 18.1 70.84 0 0 23.5 337 1012 83 16
DallasTexas 5/9/2019 15:00 19.7 16.3 80.5 0 0 26.6 336 1012.5 85 16
DallasTexas 5/9/2019 16:00 18.7 14.8 78.07 0 0 25 350 1013.1 88 16
DallasTexas 5/9/2019 17:00 17.9 13.8 76.72 0 0 26.7 1 1013.2 100 16
DallasTexas 5/9/2019 18:00 17.8 13.1 74.03 0 0 29.2 352 1013.1 97.3 16
DallasTexas 5/9/2019 19:00 17 12.4 74.34 0 0 26.6 354 1014.2 99.9 16
DallasTexas 5/9/2019 20:00 15.8 11.4 75.11 0 0 25 345 1014.3 73.1 16
DallasTexas 5/9/2019 21:00 14.8 10.3 74.48 0 0 26.6 359 1014.6 40 16
DallasTexas 5/9/2019 22:00 14 9.4 73.7 0 0 23 4 1016.5 68.2 16
DallasTexas 5/9/2019 23:00 13.8 9 72.79 0 0 20.6 13 1018 94.1 16
DallasTexas 5/10/2019 0:00 13.2 8.5 72.88 0 0 23.2 353 1017.1 91.7 16
DallasTexas 5/10/2019 1:00 12.3 7.9 74.63 0 0 23.4 356 1017.1 88.2 16
DallasTexas 5/10/2019 2:00 11.9 7.3 73.44 0 0 20.6 2 1016.9 88 16
DallasTexas 5/10/2019 3:00 11.4 6.7 73.01 0 0 24.4 4 1016.5 82.7 16
DallasTexas 5/10/2019 4:00 11.2 6.5 72.89 0 0 23.9 2 1017.2 82.6 16
DallasTexas 5/10/2019 5:00 11.1 6.5 72.85 0 0 20.3 3 1017.5 76.6 16
DallasTexas 5/10/2019 6:00 11.1 6.2 71.8 0 0 18.4 6 1017.7 79.3 16
DallasTexas 5/10/2019 7:00 11.1 5.9 70.36 0 0 17 20 1018 80.3 16
DallasTexas 5/10/2019 8:00 11.1 5.9 70.01 0 0 18.5 14 1018.8 80.6 16
DallasTexas 5/10/2019 9:00 11.2 6.3 71.84 0 0 19.1 360 1018.9 80.6 16
DallasTexas 5/10/2019 10:00 11.7 6.6 71.01 0 0 16.9 357 1018.8 80.8 16
DallasTexas 5/10/2019 11:00 11.8 6.9 71.8 0 0 20.8 345 1018.9 97.7 16
DallasTexas 5/10/2019 12:00 12.5 7.7 72.6 0 0 17.4 9 1018.6 98.5 16
DallasTexas 5/10/2019 13:00 13.8 8.4 70.12 0 0 12.4 16 1017.5 97.6 16
DallasTexas 5/10/2019 14:00 14.2 8.8 70.02 0 0 14.5 17 1016.6 99.6 16
DallasTexas 5/10/2019 15:00 14.8 9.4 69.98 0 0 11.5 346 1016.3 100 16
DallasTexas 5/10/2019 16:00 15.2 10 71.13 0 0 12.6 2 1015.8 100 16
DallasTexas 5/10/2019 17:00 15 10.4 73.86 0 0 12.5 34 1015.9 100 16
DallasTexas 5/10/2019 18:00 14.4 10.6 77.75 0 0 11.2 14 1016 100 15.8
DallasTexas 5/10/2019 19:00 14.3 11.1 81.39 0 0 11.9 33 1016 96.2 15.2
DallasTexas 5/10/2019 20:00 14.2 11.3 82.36 0.01 0 10.6 38 1016.1 97.4 15.4
DallasTexas 5/10/2019 21:00 14.2 11.8 85.77 0 0 11.7 33 1016 98 14.4
DallasTexas 5/10/2019 22:00 13.8 12 88.8 0 0 9.7 54 1015.5 84.1 15.5
DallasTexas 5/10/2019 23:00 14.1 12.1 87.56 0 0 7.6 27 1015.5 100 14.4
DallasTexas 5/11/2019 0:00 13.9 12.4 90.97 0.56 0 7 30 1014.5 97.4 9.2
DallasTexas 5/11/2019 1:00 13.9 12.9 94.01 1.84 0 11 311 1016 96.1 5.4
DallasTexas 5/11/2019 2:00 13.6 13.1 96.41 4.54 0 4.3 6 1014.1 76.1 5.6
DallasTexas 5/11/2019 3:00 13.9 13 94.41 2.79 0 6.3 331 1013.7 89.4 6.8
DallasTexas 5/11/2019 4:00 13.6 12.9 95.54 2.8 0 9.5 330 1013.2 79.3 9.5
DallasTexas 5/11/2019 5:00 13.6 13 95.76 1.89 0 10.7 357 1012 84.2 11.1
DallasTexas 5/11/2019 6:00 13.6 12.9 95.79 3.39 0 10.4 346 1012.2 76.4 6.4
DallasTexas 5/11/2019 7:00 13.5 12.9 96.1 11.83 0 8.9 26 1012.3 68.9 4.6
DallasTexas 5/11/2019 8:00 13.9 13.2 95.65 4.18 0 12.2 308 1014.9 87.7 5.5
DallasTexas 5/11/2019 9:00 13.8 13.1 95.66 3.51 0 5.2 359 1014 91.8 13.4
DallasTexas 5/11/2019 10:00 13.9 13 94.25 4 0 8.3 70 1012.9 93.5 8.5
DallasTexas 5/11/2019 11:00 14.1 13.4 95.43 3.7 0 10.7 358 1013.5 92.3 10.9
DallasTexas 5/11/2019 12:00 14 13 94.01 0.67 0 18 326 1013.5 93.7 10.4
DallasTexas 5/11/2019 13:00 14.8 13.3 90.82 0.58 0 15.6 335 1012.6 91.2 12.6
DallasTexas 5/11/2019 14:00 15.4 13.5 88.47 0.17 0 11.4 348 1012.2 75 15.7
DallasTexas 5/11/2019 15:00 15.9 13 83.21 0.03 0 10.9 317 1012.5 96.6 15.8
DallasTexas 5/11/2019 16:00 17.3 13.4 77.93 0.02 0 11.5 319 1011.5 85.1 16
DallasTexas 5/11/2019 17:00 18.8 13.5 71.3 0.02 0 11.6 334 1010.7 88.7 16
DallasTexas 5/11/2019 18:00 18.4 13.3 72.45 0.02 0 11.6 325 1010.8 93.8 16
DallasTexas 5/11/2019 19:00 17.8 13.2 74.25 0.02 0 8.6 355 1010.6 81.9 16
DallasTexas 5/11/2019 20:00 17.5 13 74.95 0.02 0 7 347 1011 83.5 16
DallasTexas 5/11/2019 21:00 17 12.7 75.7 0.01 0 12 324 1011.3 86.2 16
DallasTexas 5/11/2019 22:00 16.5 13 79.5 0.01 0 12.1 323 1011.9 84.3 16
DallasTexas 5/11/2019 23:00 16.2 12.6 78.99 0.01 0 9.9 325 1012.3 79 16
DallasTexas 5/12/2019 0:00 16 12.5 79.81 0 0 10.4 313 1012.1 79.7 16
DallasTexas 5/12/2019 1:00 15.9 12.5 80.22 0.01 0 8.1 320 1011.9 80.8 16
DallasTexas 5/12/2019 2:00 15.6 12.4 81.02 0 0 7.8 319 1011.6 80.8 16
DallasTexas 5/12/2019 3:00 15.6 12.6 82.21 0 0 5.2 332 1011.2 83.1 16
DallasTexas 5/12/2019 4:00 15.4 12.5 82.82 0 0 7.1 317 1011.4 100 15.9
DallasTexas 5/12/2019 5:00 15.3 12.4 82.75 0.01 0 5.8 330 1011.6 100 16
DallasTexas 5/12/2019 6:00 15 12.4 83.96 0.01 0 9.5 318 1012 82.4 16
DallasTexas 5/12/2019 7:00 14.6 12.1 84.94 0 0 10 315 1012.5 57 15.9
DallasTexas 5/12/2019 8:00 15.6 12.3 80.78 0.01 0 11.7 313 1013.2 18.3 16
DallasTexas 5/12/2019 9:00 16.6 12.1 74.29 0.01 0 11.7 305 1013.6 22.4 16
DallasTexas 5/12/2019 10:00 18.2 11.8 66.64 0 0 12.3 323 1013.6 37 15.9
DallasTexas 5/12/2019 11:00 19.1 11.7 62.16 0 0 11.2 317 1013.7 35.1 16
DallasTexas 5/12/2019 12:00 20.2 12 59.18 0.01 0 10.2 284 1013.4 66.1 15.9
DallasTexas 5/12/2019 13:00 21.6 12.2 55.09 0.01 0 9.7 286 1012.6 33.4 16
DallasTexas 5/12/2019 14:00 22.6 11.9 50.76 0 0 11.1 302 1012 14.4 16
DallasTexas 5/12/2019 15:00 23.6 11.7 47.2 0.01 0 12.6 305 1011.5 15.4 16
DallasTexas 5/12/2019 16:00 24.4 11.3 43.81 0.01 0 6.1 337 1011.2 16.6 16
DallasTexas 5/12/2019 17:00 24.7 11.6 43.84 0 0 3.6 288 1010.6 25.3 16
DallasTexas 5/12/2019 18:00 24.7 11.7 44.28 0 0 7.6 351 1010.2 15.9 16
DallasTexas 5/12/2019 19:00 24.6 11.9 45.27 0.01 0 4.9 345 1010.2 13.4 16
DallasTexas 5/12/2019 20:00 23.8 11.9 47.16 0.01 0 0.3 359 1010.4 14.5 16
DallasTexas 5/12/2019 21:00 21 13.2 61.03 0 0 0.6 360 1011.1 13.7 16
DallasTexas 5/12/2019 22:00 19.3 13.7 69.71 0 0 4.2 63 1011.8 1.8 16
DallasTexas 5/12/2019 23:00 18.9 13.3 70.21 0 0 2.6 43 1012.7 0 16
DallasTexas 5/13/2019 0:00 19 12.9 67.86 0.01 0 7.3 239 1013 0 16
DallasTexas 5/13/2019 1:00 18.2 13.2 72.64 0.01 0 5.7 10 1012.7 11.8 16
DallasTexas 5/13/2019 2:00 17.6 13.1 75.14 0 0 6.1 17 1012.6 11.8 16
DallasTexas 5/13/2019 3:00 16.8 13.3 79.72 0 0 2.8 276 1012.1 11.8 16
DallasTexas 5/13/2019 4:00 16.6 13.2 80.21 0 0 3.6 284 1012 0 16
DallasTexas 5/13/2019 5:00 16.2 13.3 82.8 0 0 2.5 287 1012.1 0 16
DallasTexas 5/13/2019 6:00 16 13.1 82.8 0 0 3.5 294 1012.6 0 15.8
DallasTexas 5/13/2019 7:00 15.4 13.4 87.69 0 0 3.4 304 1013.5 13.7 16
DallasTexas 5/13/2019 8:00 18 14.2 78.52 0 0 7.3 228 1014.3 13.7 16
DallasTexas 5/13/2019 9:00 20.4 14.5 68.8 0 0 9.7 224 1014.7 15 16
DallasTexas 5/13/2019 10:00 22.4 14.8 61.87 0 0 10.7 213 1014.9 21.5 16
DallasTexas 5/13/2019 11:00 23.8 14.7 56.47 0.01 0 12.6 235 1015 14.2 16
DallasTexas 5/13/2019 12:00 25 14.2 51.19 0.01 0 11.9 213 1014.7 15.5 16
DallasTexas 5/13/2019 13:00 26.2 13.6 45.85 0 0 12.2 186 1014.1 20.4 16
DallasTexas 5/13/2019 14:00 27.2 13.1 41.87 0 0 13.5 160 1013.4 13.5 16
DallasTexas 5/13/2019 15:00 27.5 12.2 38.59 0 0 15.1 164 1012.8 14.4 16
DallasTexas 5/13/2019 16:00 27.6 11.6 36.9 0 0 13.5 177 1012.2 14.8 15.9
DallasTexas 5/13/2019 17:00 27.7 11.9 37.56 0 0 15.2 140 1011.8 15.2 16
DallasTexas 5/13/2019 18:00 27.7 11 35.46 0 0 12.7 158 1011.7 18.5 15.9
DallasTexas 5/13/2019 19:00 27 12 39.46 0 0 14.4 140 1011.7 13.5 16
DallasTexas 5/13/2019 20:00 25.3 11.6 42.31 0 0 13.6 138 1012 13.7 16
DallasTexas 5/13/2019 21:00 23.4 11.9 48.51 0 0 7.9 136 1012.8 15.1 16
DallasTexas 5/13/2019 22:00 22.3 12 52.39 0 0 7.1 159 1013.2 13.5 16
DallasTexas 5/13/2019 23:00 21.4 12.2 55.76 0 0 7.6 16 1014 13.5 16
DallasTexas 5/14/2019 0:00 20.8 12.6 59.35 0 0 6.4 2 1014 13.5 16
DallasTexas 5/14/2019 1:00 19.9 12.6 62.6 0 0 7.2 14 1014 13.4 16
DallasTexas 5/14/2019 2:00 19.2 12.8 66.48 0 0 2.5 272 1014 15 16
DallasTexas 5/14/2019 3:00 18.2 13.1 72.48 0 0 1 347 1013.6 13.5 16
DallasTexas 5/14/2019 4:00 17.2 13.5 79.02 0 0 2.7 293 1013.6 13.5 16
DallasTexas 5/14/2019 5:00 17 13.3 78.86 0 0 4.2 111 1013.7 11.8 16
DallasTexas 5/14/2019 6:00 16.2 13.5 83.75 0 0 5.8 115 1014.1 13.5 16
DallasTexas 5/14/2019 7:00 16.4 13.6 83.69 0 0 4.4 101 1014.9 28.8 15.7
DallasTexas 5/14/2019 8:00 19.1 15 77.21 0 0 5.4 122 1015.4 28.8 16
DallasTexas 5/14/2019 9:00 21.2 15 67.75 0.01 0 9.1 21 1016 27.8 16
DallasTexas 5/14/2019 10:00 23.9 15.9 60.63 0.01 0 8.5 247 1016.2 27.8 16
DallasTexas 5/14/2019 11:00 25.9 15.4 52.33 0 0 12.3 221 1016.2 19 16
DallasTexas 5/14/2019 12:00 26.8 15.2 49.14 0 0 16.4 215 1016.3 35.9 16
DallasTexas 5/14/2019 13:00 27.3 15.2 47.46 0 0 12.6 231 1016 58.4 16
DallasTexas 5/14/2019 14:00 28 15.6 46.87 0 0 15 190 1015.3 45 16
DallasTexas 5/14/2019 15:00 27.9 14.3 43.22 0 0 13.4 225 1014.5 43.2 16
DallasTexas 5/14/2019 16:00 28.3 14.1 41.99 0 0 11.8 344 1013.7 36.9 16
DallasTexas 5/14/2019 17:00 28.6 14.3 41.61 0 0 12.5 166 1013.1 19.8 16
DallasTexas 5/14/2019 18:00 28.2 14.3 42.82 0 0 10.3 175 1013.2 14.4 16
DallasTexas 5/14/2019 19:00 27.4 14.1 44.1 0 0 13.5 157 1013.4 44.9 16
DallasTexas 5/14/2019 20:00 26 14.7 49.64 0 0 13.4 154 1013.7 46.8 16
DallasTexas 5/14/2019 21:00 24.9 15.4 55.74 0 0 13.6 170 1014.3 17.8 16
DallasTexas 5/14/2019 22:00 23.6 15.9 61.82 0 0 10.4 225 1014.9 11.8 16
DallasTexas 5/14/2019 23:00 22.5 15.4 64.07 0.01 0 7.5 194 1015 11.8 16
DallasTexas 5/15/2019 0:00 21.9 15.3 66.03 0.01 0 5.2 226 1015.1 11.8 16
DallasTexas 5/15/2019 1:00 21.3 15.2 68.43 0 0 5.4 242 1015.2 0 16
DallasTexas 5/15/2019 2:00 20.5 15 70.69 0 0 6 232 1014.9 0 16
DallasTexas 5/15/2019 3:00 20.1 15 72.47 0 0 2.7 295 1014.5 0 16
DallasTexas 5/15/2019 4:00 19.4 15.4 77.69 0 0 2.9 300 1014.4 0 16
DallasTexas 5/15/2019 5:00 18.5 15.4 82.18 0 0 2.4 308 1014.7 0 15.5
DallasTexas 5/15/2019 6:00 18 15.3 84.28 0 0 7.1 13 1014.8 0 15.4
DallasTexas 5/15/2019 7:00 18.8 15.8 82.61 0 0 6.7 17 1015.3 0 15.4
DallasTexas 5/15/2019 8:00 21 16.7 76.41 0 0 9.4 241 1016 0 15.6
DallasTexas 5/15/2019 9:00 23.2 17.9 72.48 0 0 11.8 212 1016.5 0 16
DallasTexas 5/15/2019 10:00 25.3 16.8 59.01 0 0 16.6 220 1016.9 1.8 16
DallasTexas 5/15/2019 11:00 26.8 16.1 52.18 0 0 19.7 213 1016.7 15 16
DallasTexas 5/15/2019 12:00 27.6 16.1 49.54 0 0 17.3 193 1016.6 20 16
DallasTexas 5/15/2019 13:00 28.3 15.9 46.81 0 0 15.1 190 1016.1 42.1 16
DallasTexas 5/15/2019 14:00 28.8 16.1 46.23 0 0 13.5 211 1015.5 39.7 16
DallasTexas 5/15/2019 15:00 29.2 16 44.75 0 0 14.1 183 1014.9 47.2 16
DallasTexas 5/15/2019 16:00 29.2 16 44.94 0 0 14.6 175 1014.2 46.9 16
DallasTexas 5/15/2019 17:00 29.4 15.9 44.12 0 0 16.1 189 1013.7 30.5 16
DallasTexas 5/15/2019 18:00 29.2 15.5 43.5 0.01 0 13.4 181 1013.5 18.5 16
DallasTexas 5/15/2019 19:00 28.5 14.9 43.31 0.01 0 11.9 181 1013.1 14.7 16
DallasTexas 5/15/2019 20:00 27 15 47.9 0 0 12.9 158 1013.2 13.7 16
DallasTexas 5/15/2019 21:00 25.4 15.2 53.07 0 0 11.2 150 1013.7 0 16
DallasTexas 5/15/2019 22:00 24.7 15.6 57.23 0 0 9.9 145 1014.2 0 16
DallasTexas 5/15/2019 23:00 23.5 16 62.78 0 0 11 155 1014.7 0 16
DallasTexas 5/16/2019 0:00 23.1 15.6 62.57 0 0 10.6 138 1014.9 0 16
DallasTexas 5/16/2019 1:00 22.4 15.5 65.32 0 0 8.4 221 1015 0 16
DallasTexas 5/16/2019 2:00 22 15.3 65.77 0 0 10.4 26 1014.9 0 16
DallasTexas 5/16/2019 3:00 21.3 14.8 66.48 0 0 8.7 220 1014.6 1.8 16
DallasTexas 5/16/2019 4:00 20.9 14.8 68 0 0 11.3 207 1014.5 1.8 16
DallasTexas 5/16/2019 5:00 20.5 14.7 69.36 0 0 12.2 183 1014.5 14.8 16
DallasTexas 5/16/2019 6:00 20.5 14.9 70.29 0 0 9.9 206 1014.7 15 16
DallasTexas 5/16/2019 7:00 20.1 15.2 73.2 0 0 9 217 1015.1 13.7 16
DallasTexas 5/16/2019 8:00 21.7 16.1 70.4 0 0 9.7 224 1015.6 13.7 16
DallasTexas 5/16/2019 9:00 23.4 16.5 65.19 0 0 14.4 196 1015.7 13.5 16
DallasTexas 5/16/2019 10:00 25.5 16.5 57.79 0 0 13.9 180 1015.7 13.5 16
DallasTexas 5/16/2019 11:00 26.9 16.6 53.28 0 0 15.5 191 1015.5 13.5 16
DallasTexas 5/16/2019 12:00 28 16.5 49.59 0 0 17.1 168 1015.4 13.5 16
DallasTexas 5/16/2019 13:00 28.7 15.5 44.87 0 0 18.6 148 1014.8 13.5 16
DallasTexas 5/16/2019 14:00 29.2 14.6 40.98 0 0 17.1 153 1014.3 15 16
DallasTexas 5/16/2019 15:00 29.7 13.9 37.92 0 0 16.7 176 1013.6 13.5 16
DallasTexas 5/16/2019 16:00 29.6 14.6 39.88 0 0 20.2 178 1013 13.5 16
DallasTexas 5/16/2019 17:00 29.5 15.2 42 0 0 20.8 159 1012.6 13.5 16
DallasTexas 5/16/2019 18:00 29.2 15.5 43.4 0 0 17.6 165 1012.2 13.5 16
DallasTexas 5/16/2019 19:00 28.5 16.3 47.45 0 0 19.4 154 1011.5 13.5 16
DallasTexas 5/16/2019 20:00 27.2 17 53.75 0 0 16.9 158 1011.4 14.8 16
DallasTexas 5/16/2019 21:00 25.7 17.1 58.99 0 0 13.2 155 1011.5 13.7 16
DallasTexas 5/16/2019 22:00 24.9 17.2 62.17 0 0 13.1 147 1011.7 24.7 16
DallasTexas 5/16/2019 23:00 24.2 17.2 64.83 0 0 12.7 152 1011.9 44.7 16
DallasTexas 5/17/2019 0:00 23.9 17.4 66.93 0 0 18.2 158 1011.8 45.8 16
DallasTexas 5/17/2019 1:00 23.2 17.4 70.09 0 0 20.7 160 1011.5 29.9 16
DallasTexas 5/17/2019 2:00 22.8 16.2 66.53 0 0 21.9 165 1011.4 31.5 16
DallasTexas 5/17/2019 3:00 22.3 15.5 65.44 0 0 17.9 165 1010.6 30.7 16
DallasTexas 5/17/2019 4:00 21.5 16 70.66 0 0 16.3 168 1010 45.4 16
DallasTexas 5/17/2019 5:00 20.8 17.1 79.36 0 0 12.5 175 1010.3 47.9 16
DallasTexas 5/17/2019 6:00 20.3 17.2 82.13 0 0 12.5 163 1010.3 43.1 16
DallasTexas 5/17/2019 7:00 20.3 17.8 85.31 0 0 16 159 1010.6 91.8 15.9
DallasTexas 5/17/2019 8:00 20.6 17.8 84.11 0 0 14.6 162 1011.2 94.6 15.3
DallasTexas 5/17/2019 9:00 21.3 18.2 82.51 0 0 15.4 161 1011.4 100 14.7
DallasTexas 5/17/2019 10:00 23.3 18.7 75.24 0 0 16.1 171 1011.3 92 16
DallasTexas 5/17/2019 11:00 25.3 19.4 69.53 0 0 17.8 165 1011 70.4 16
DallasTexas 5/17/2019 12:00 26.8 19 62.48 0 0 22.5 176 1010.5 68.9 16
DallasTexas 5/17/2019 13:00 28.4 18.5 54.81 0 0 24.3 172 1009.8 66.9 16
DallasTexas 5/17/2019 14:00 28.9 18.3 52.86 0 0 24 174 1008.9 67.2 16
DallasTexas 5/17/2019 15:00 29.2 19 53.96 0 0 22.1 154 1008.1 58.6 16
DallasTexas 5/17/2019 16:00 29.5 18.9 53.13 0 0 26.5 156 1007.2 49.7 16
DallasTexas 5/17/2019 17:00 29.6 19 52.97 0 0 27.6 157 1006.7 55.9 16
DallasTexas 5/17/2019 18:00 29.9 19.2 52.7 0 0 22.8 151 1006.1 39.8 16
DallasTexas 5/17/2019 19:00 29.1 19.2 55.17 0 0 24.5 157 1005.8 52.5 16
DallasTexas 5/17/2019 20:00 28.1 19.6 60.13 0 0 19.4 142 1006 58.7 16
DallasTexas 5/17/2019 21:00 27.3 20.1 64.71 0 0 17 138 1006.2 66 16
DallasTexas 5/17/2019 22:00 26.3 20 68.21 0 0 19.2 141 1006.6 40.4 16
DallasTexas 5/17/2019 23:00 26.2 20.6 71.31 0 0 20.7 152 1007.2 47.3 16
DallasTexas 5/18/2019 0:00 25.7 20.7 73.81 0 0 24.4 158 1006.9 44.7 16
DallasTexas 5/18/2019 1:00 24.9 20.7 77.32 0 0 27 158 1006.7 83.9 16
DallasTexas 5/18/2019 2:00 24.7 20.7 78.09 0 0 22.9 164 1006.8 94.6 16
DallasTexas 5/18/2019 3:00 24.7 20.7 78.38 0 0 21.7 164 1007 87.4 16
DallasTexas 5/18/2019 4:00 24.2 20.7 80.99 0 0 21.3 162 1006.5 94.5 16
DallasTexas 5/18/2019 5:00 24.1 20.7 81.37 0 0 21 156 1006.3 96.7 16
DallasTexas 5/18/2019 6:00 23.7 20.9 84.76 0.02 0 20.4 163 1006.4 85.6 13.9
DallasTexas 5/18/2019 7:00 23.8 21.2 85.46 0 0 19.7 150 1006.1 85.1 15.1
DallasTexas 5/18/2019 8:00 23.7 21.2 86.19 0.07 0 20.5 150 1006 91.4 14.8
DallasTexas 5/18/2019 9:00 23.7 21.6 87.86 0.27 0 22.3 150 1005.8 75.1 13.9
DallasTexas 5/18/2019 10:00 23.9 21.8 88.04 0.11 0 21.5 142 1005.4 83 13.1
DallasTexas 5/18/2019 11:00 24.3 21.8 86.17 0 0 19.4 150 1005.6 80.8 14
DallasTexas 5/18/2019 12:00 25 21.9 83.15 0 0 14.6 148 1006.3 68.5 14.9
DallasTexas 5/18/2019 13:00 23 19.1 78.6 0.14 0 19 54 1005.8 78.9 15.5
DallasTexas 5/18/2019 14:00 19.9 18.3 90.58 13.11 0 19.5 321 1003.3 55.5 3.8
DallasTexas 5/18/2019 15:00 19.8 18.2 90.41 30.92 0 14.3 24 1003 62.9 12.1
DallasTexas 5/18/2019 16:00 20.5 18.8 90.43 6.68 0 14.1 61 1003.3 83.2 10.6
DallasTexas 5/18/2019 17:00 20.8 19.6 92.43 0.21 0 8.1 86 1003.2 43.4 15.4
DallasTexas 5/18/2019 18:00 21.4 19.8 90.74 0.04 0 9.8 126 1002.7 41.6 16
DallasTexas 5/18/2019 19:00 22.7 19.2 80.64 0.21 0 15.9 157 1002.6 35.2 16
DallasTexas 5/18/2019 20:00 22.1 19.5 85.22 0 0 14.2 31 1003.2 29.7 16
DallasTexas 5/18/2019 21:00 21.5 19.6 89.05 0.28 0 11.5 355 1004.1 63.3 13.7
DallasTexas 5/18/2019 22:00 21.9 19.2 84.36 1.04 0 11.6 147 1004.3 61.1 15.3
DallasTexas 5/18/2019 23:00 22 20.5 91.15 0 0 14.5 157 1004.9 96.7 15.1
DallasTexas 5/19/2019 0:00 22 20.5 91.37 0 0 15.4 162 1004.8 99.3 13.8
DallasTexas 5/19/2019 1:00 22.3 21 92.51 0 0 12.1 171 1004.8 100 8
DallasTexas 5/19/2019 2:00 22.5 21.8 95.94 0 0 13.7 185 1005.5 79.5 3.4
DallasTexas 5/19/2019 3:00 23.1 22.3 95.2 0 0 10.1 200 1005.6 86.9 4.6
DallasTexas 5/19/2019 4:00 23.4 22.3 92.99 0 0 8.3 208 1006.1 57 5.9
DallasTexas 5/19/2019 5:00 23.2 22 93.11 0 0 9.5 187 1006.7 30.8 7.1
DallasTexas 5/19/2019 6:00 22.7 21.7 94.28 0 0 7.5 262 1007.5 34.7 6.3
DallasTexas 5/19/2019 7:00 22.2 20.4 89.74 0 0 11.4 296 1008.6 63.7 8.8
DallasTexas 5/19/2019 8:00 21.2 17.6 80.21 0 0 13.6 325 1009.8 30.3 14.8
DallasTexas 5/19/2019 9:00 22.1 16 68.44 0 0 14.6 345 1010.9 15.6 15.9
DallasTexas 5/19/2019 10:00 23.3 14.7 58.53 0 0 13.7 4 1011.4 0.2 16
DallasTexas 5/19/2019 11:00 25.4 13.3 46.99 0 0 12.2 8 1011.9 2 16
DallasTexas 5/19/2019 12:00 27 12.2 39.78 0 0 14.8 12 1012.2 13.5 16
DallasTexas 5/19/2019 13:00 27.8 11.8 36.94 0 0 14.6 8 1012.1 13.5 16
DallasTexas 5/19/2019 14:00 28.6 12.2 36.35 0 0 13.6 5 1011.6 13.5 16
DallasTexas 5/19/2019 15:00 29.4 12.5 35.3 0 0 12.3 32 1011.4 13.5 16
DallasTexas 5/19/2019 16:00 30 12.8 35.01 0 0 14.4 45 1010.9 13.5 16
DallasTexas 5/19/2019 17:00 29.4 13 36.48 0 0 11.2 88 1010.4 13.5 16
DallasTexas 5/19/2019 18:00 29.3 13.4 37.68 0 0 13.5 70 1010.3 13.4 16
DallasTexas 5/19/2019 19:00 28.5 13.8 40.57 0 0 11.8 74 1010.1 13.5 16
DallasTexas 5/19/2019 20:00 26.9 14.3 45.77 0 0 10.5 61 1010.2 13.7 16
DallasTexas 5/19/2019 21:00 25.1 14.8 52.73 0 0 10 62 1010.4 15.1 16
DallasTexas 5/19/2019 22:00 24.5 15.3 56.65 0 0 8 58 1010.9 43.9 16
DallasTexas 5/19/2019 23:00 24 15.4 58.87 0 0 11.1 79 1011.3 43.9 16
DallasTexas 5/20/2019 0:00 23.2 15.4 61.47 0 0 10.5 82 1011.4 43.9 16
DallasTexas 5/20/2019 1:00 22.9 15.4 62.8 0 0 11 93 1010.9 32.4 16
DallasTexas 5/20/2019 2:00 22.9 16 65.2 0 0 13.1 101 1010.5 35.8 16
DallasTexas 5/20/2019 3:00 22.7 17.2 71.33 0 0 11.7 123 1010 51.3 16
DallasTexas 5/20/2019 4:00 22.6 18.9 79.68 0 0 13.3 125 1009.6 71.9 15.9
DallasTexas 5/20/2019 5:00 22.4 20 86.38 0 0 11.5 125 1009.4 54.3 15.3
DallasTexas 5/20/2019 6:00 23.3 21.1 87.84 0 0 14.9 145 1009.6 89.8 12.9
DallasTexas 5/20/2019 7:00 23.4 21.5 88.67 0 0 14.7 140 1010.1 94.6 9.8
DallasTexas 5/20/2019 8:00 24 22 88.37 0 0 16 131 1010.1 91.7 9.5
DallasTexas 5/20/2019 9:00 24.5 22.3 87.47 0 0 17 142 1010.2 90.6 9.4
DallasTexas 5/20/2019 10:00 25.6 22.4 82.32 0 0 24.7 148 1009.9 83 12.4
DallasTexas 5/20/2019 11:00 26.6 22.6 78.9 0 0 25.2 145 1009.1 90.8 12.4
DallasTexas 5/20/2019 12:00 27.3 23 77.21 0 0 22.5 149 1008.7 87.2 14.4
DallasTexas 5/20/2019 13:00 28.5 22.6 70.43 0 0 29 160 1007.8 82.5 14.6
DallasTexas 5/20/2019 14:00 29.5 22.4 65.9 0 0 29.9 164 1006.7 63.7 15.6
DallasTexas 5/20/2019 15:00 30 22.3 63.42 0 0 32.9 154 1005.7 70.6 16
DallasTexas 5/20/2019 16:00 30.2 22.1 61.81 0 0 29.8 157 1004.8 74.4 16
DallasTexas 5/20/2019 17:00 30.8 22 59.5 0 0 28.1 165 1003.2 59.2 16
DallasTexas 5/20/2019 18:00 30.8 21.6 58.22 0 0 33.4 159 1002.1 45.6 16
DallasTexas 5/20/2019 19:00 29.9 20.9 58.57 0 0 32.7 158 1000.7 36.7 16
DallasTexas 5/20/2019 20:00 29 20.1 58.74 0 0 28.8 158 1000.7 29.9 16
DallasTexas 5/20/2019 21:00 27.9 19.8 61.49 0 0 26.8 158 1001.7 30.3 16
DallasTexas 5/20/2019 22:00 27.1 20.2 66 0 0 24.4 154 1001.9 35.5 16
DallasTexas 5/20/2019 23:00 26.4 20.4 69.71 0 0 24.8 151 1001.3 59 16
DallasTexas 5/21/2019 0:00 25.8 20.4 72.12 0 0 27 159 1001.4 80.8 16
DallasTexas 5/21/2019 1:00 25.3 20.1 72.79 0 0 32.1 162 999.8 89.3 16
DallasTexas 5/21/2019 2:00 25.3 20 72.4 0 0 30.6 163 999.3 97.6 16
DallasTexas 5/21/2019 3:00 25.5 19.6 69.69 0 0 31.8 160 998.5 94.2 16
DallasTexas 5/21/2019 4:00 25.5 19.8 70.92 0 0 29.4 163 998.8 91.2 16
DallasTexas 5/21/2019 5:00 25.8 19.6 68.35 0 0 20.5 200 1001.9 90 16
DallasTexas 5/21/2019 6:00 25.5 19.9 71.32 0 0 19 181 1001.7 62.1 15
DallasTexas 5/21/2019 7:00 21 16.7 76.58 0.63 0 20.3 244 1002.7 69.1 9.3
DallasTexas 5/21/2019 8:00 19.3 17.3 88.55 2.3 0 9 360 1002.9 69.1 15.5
DallasTexas 5/21/2019 9:00 19.9 16.9 83.23 0.04 0 12 209 1003.3 93.7 16
DallasTexas 5/21/2019 10:00 19.9 16.8 82.42 0.18 0 11.6 231 1003.4 79 16
DallasTexas 5/21/2019 11:00 20.3 16.7 80.03 0.18 0 12.3 202 1003.4 74.3 15.1
DallasTexas 5/21/2019 12:00 21.1 16.2 73.54 0.01 0 13.4 206 1003.5 78.2 15.9
DallasTexas 5/21/2019 13:00 23.3 14 55.83 0.04 0 17.7 195 1003.1 72.2 16
DallasTexas 5/21/2019 14:00 25.3 11.5 42 0 0 20.7 209 1002.8 80 16
DallasTexas 5/21/2019 15:00 27 9.7 33.69 0 0 21.6 212 1002.5 21.3 16
DallasTexas 5/21/2019 16:00 27.7 10.2 33.49 0 0 21.9 212 1002.2 17.3 16
DallasTexas 5/21/2019 17:00 28.3 9.6 31.11 0 0 21.7 215 1001.9 14.3 16
DallasTexas 5/21/2019 18:00 28.6 8.2 27.92 0 0 21.5 211 1001.9 13.5 16
DallasTexas 5/21/2019 19:00 27.9 7.7 27.91 0 0 17.5 202 1001.9 15 16
DallasTexas 5/21/2019 20:00 26.4 7.8 30.73 0 0 10.1 233 1002.3 28.1 16
DallasTexas 5/21/2019 21:00 23.4 9.5 41.12 0 0 9.1 245 1003.3 42.4 16
DallasTexas 5/21/2019 22:00 22 13.9 59.94 0 0 14 164 1004 43.9 16
DallasTexas 5/21/2019 23:00 21.2 15 67.87 0 0 14.4 164 1004.5 43.9 16
DallasTexas 5/22/2019 0:00 20.4 15.7 74.26 0 0 13.4 159 1004.7 27.2 16
DallasTexas 5/22/2019 1:00 19.9 16 78.34 0 0 14 160 1005.1 15 16
DallasTexas 5/22/2019 2:00 19.5 15.1 75.77 0 0 13.1 157 1004.7 3.9 16
DallasTexas 5/22/2019 3:00 19.8 13.8 68.32 0 0 15.3 148 1004.6 31.2 16
DallasTexas 5/22/2019 4:00 19.7 14.4 71.51 0 0 13.4 156 1004.5 24.5 15.8
DallasTexas 5/22/2019 5:00 19.9 16 78.13 0 0 16 165 1004.7 91.1 16
DallasTexas 5/22/2019 6:00 20.8 18 83.96 0 0 14.2 161 1005.3 93.8 15.3
DallasTexas 5/22/2019 7:00 21.4 20.2 93.04 0 0 11.6 159 1006 100 5.2
DallasTexas 5/22/2019 8:00 22.5 21.4 93.35 0 0 11.9 149 1006.6 99.3 3.7
DallasTexas 5/22/2019 9:00 23.7 22.1 90.85 0 0 16.9 145 1006.8 99 5.1
DallasTexas 5/22/2019 10:00 25.7 22.7 83.43 0 0 21.7 153 1007.2 84.2 5.9
DallasTexas 5/22/2019 11:00 27.6 22.9 75.52 0 0 24.9 158 1007.4 90.7 7.7
DallasTexas 5/22/2019 12:00 29.1 22.3 66.48 0 0 23.7 173 1007.5 76 11.8
DallasTexas 5/22/2019 13:00 30.1 21.4 59.7 0 0 30.2 177 1007.4 81.2 14.5
DallasTexas 5/22/2019 14:00 31.2 21.1 55.17 0 0 30.7 170 1007.1 62.6 15.9
DallasTexas 5/22/2019 15:00 31.3 21.2 55.12 0 0 32 160 1007.1 79.3 16
DallasTexas 5/22/2019 16:00 31.5 21.2 54.45 0 0 29.3 163 1007.1 55.8 16
DallasTexas 5/22/2019 17:00 31.7 20.9 53.11 0 0 29.1 160 1007 68.7 16
DallasTexas 5/22/2019 18:00 31.2 20.4 52.7 0 0 28 159 1007.1 57.9 16
DallasTexas 5/22/2019 19:00 30.9 20.4 53.81 0 0 24.1 156 1006.9 31.4 16
DallasTexas 5/22/2019 20:00 30 20 55.1 0 0 23.6 153 1006.9 25.3 16
DallasTexas 5/22/2019 21:00 28.8 20.6 61.08 0 0 18.9 144 1007.6 17 16
DallasTexas 5/22/2019 22:00 27.8 21.1 66.68 0 0 18.2 140 1008.8 21.6 16
DallasTexas 5/22/2019 23:00 27.3 21.6 71.18 0 0 20.4 144 1009.8 73.1 16
DallasTexas 5/23/2019 0:00 26.8 22.2 75.95 0 0 18.4 152 1010.5 70.3 16
DallasTexas 5/23/2019 1:00 26.3 22.6 80.09 0 0 19.5 157 1010.5 82.7 15.1
DallasTexas 5/23/2019 2:00 25.9 22.8 83.05 0 0 19.8 159 1010.7 82.8 14
DallasTexas 5/23/2019 3:00 25.4 22.7 85.27 0 0 18.9 151 1011 71.8 13.5
DallasTexas 5/23/2019 4:00 25 22 83.41 0 0 19.9 156 1011.3 70.7 13.9
DallasTexas 5/23/2019 5:00 24.8 21.3 81.12 0 0 21.7 150 1011.9 39.7 14.8
DallasTexas 5/23/2019 6:00 24.7 21.4 81.57 0 0 21.2 148 1012.5 63.2 14.4
DallasTexas 5/23/2019 7:00 24.7 21.8 83.76 0 0 16 130 1013 68.5 12.6
DallasTexas 5/23/2019 8:00 25 22 83.36 0 0 19.3 137 1013.8 75.8 13.4
DallasTexas 5/23/2019 9:00 26.2 22.1 78.17 0 0 21.6 151 1014.3 82.6 14.5
DallasTexas 5/23/2019 10:00 26.7 21.6 73.28 0 0 20.8 157 1014.6 71.2 15.1
DallasTexas 5/23/2019 11:00 28.1 21.4 66.76 0 0 25.2 151 1014.7 77.8 16
DallasTexas 5/23/2019 12:00 29.3 20.4 58.79 0 0 30.2 154 1014.6 74.2 16
DallasTexas 5/23/2019 13:00 30.2 19.9 54.17 0 0 31.7 168 1014.8 68.7 16
DallasTexas 5/23/2019 14:00 31 20.2 52.67 0 0 30.1 161 1014.2 62.8 16
DallasTexas 5/23/2019 15:00 31.6 20.2 50.81 0 0 26.9 155 1013.6 50.7 16
DallasTexas 5/23/2019 16:00 31.8 20.1 50.09 0 0 28.2 154 1013.1 34.6 16
DallasTexas 5/23/2019 17:00 31.6 20.3 51.22 0 0 29.9 142 1012.6 41.6 16
DallasTexas 5/23/2019 18:00 31.6 20.7 52.26 0 0 29.6 147 1012.3 19.3 16
DallasTexas 5/23/2019 19:00 30.7 20.8 55.56 0 0 31.7 143 1011.8 27.7 16
DallasTexas 5/23/2019 20:00 29.7 21.2 60.44 0 0 21.3 135 1011.7 13.7 16
DallasTexas 5/23/2019 21:00 28.5 21.4 65.69 0 0 22.5 143 1012.1 2.5 16
DallasTexas 5/23/2019 22:00 27.9 21.8 69.27 0 0 26.3 140 1012.6 3 16
DallasTexas 5/23/2019 23:00 27.4 22.2 73.34 0 0 24.3 144 1013.2 32.2 16
DallasTexas 5/24/2019 0:00 26.9 22.2 75.45 0 0 26.3 154 1013.5 70.9 16
DallasTexas 5/24/2019 1:00 26.4 21.8 75.92 0 0 26.5 151 1013.2 90.7 15.1
DallasTexas 5/24/2019 2:00 25.9 21.7 77.64 0 0 26.3 163 1013.3 92.1 15.1
DallasTexas 5/24/2019 3:00 25.8 21.7 77.86 0 0 23.6 159 1013.3 90.7 16
DallasTexas 5/24/2019 4:00 25.4 21.3 78.01 0 0 22.1 162 1013.2 73.4 16
DallasTexas 5/24/2019 5:00 25 21.2 79.45 0 0 20.8 156 1013.5 46.2 16
DallasTexas 5/24/2019 6:00 24.7 21.2 80.79 0 0 16 154 1014 71.6 16
DallasTexas 5/24/2019 7:00 24.6 21.2 81.54 0 0 16.1 145 1014.8 74.3 15.5
DallasTexas 5/24/2019 8:00 24.8 21.3 80.58 0 0 16.1 144 1015.8 80.5 14.5
DallasTexas 5/24/2019 9:00 25.7 21.2 76.22 0 0 18 153 1016.5 68.7 14.7
DallasTexas 5/24/2019 10:00 27.2 21.1 69.27 0 0 19.8 162 1016.6 80.7 16
DallasTexas 5/24/2019 11:00 28 20.8 64.96 0 0 22 179 1016.6 67.5 16
DallasTexas 5/24/2019 12:00 29.4 20.5 58.59 0 0 23.8 159 1016.3 45.6 16
DallasTexas 5/24/2019 13:00 30.2 20.4 56.03 0 0 26 150 1015.9 64.6 16
DallasTexas 5/24/2019 14:00 31 19.8 51.27 0 0 26.6 164 1015.2 56.4 16
DallasTexas 5/24/2019 15:00 31.6 20.2 50.72 0 0 31.3 160 1014.5 65.1 16
DallasTexas 5/24/2019 16:00 31.5 19.2 48.01 0 0 31.7 167 1013.7 43.6 16
DallasTexas 5/24/2019 17:00 31.5 18.9 47.31 0 0 30.3 158 1012.6 27.1 16
DallasTexas 5/24/2019 18:00 31.1 18.9 48.35 0 0 25.6 155 1012.2 33 16
DallasTexas 5/24/2019 19:00 30.5 18.7 49.34 0 0 26 155 1011.8 22.3 16
DallasTexas 5/24/2019 20:00 29 19.2 55.46 0 0 22.4 158 1012.2 28.9 16
DallasTexas 5/24/2019 21:00 28 19.7 60.37 0 0 16.6 157 1012.7 33.7 16
DallasTexas 5/24/2019 22:00 27.2 19.9 64.34 0 0 15.3 157 1012.9 37.2 16
DallasTexas 5/24/2019 23:00 26.6 20.1 67.82 0 0 15.7 157 1013.9 48.7 16
DallasTexas 5/25/2019 0:00 26 20.5 71.55 0 0 12.7 162 1014.9 33.7 16
DallasTexas 5/25/2019 1:00 25.5 20.5 74.21 0 0 13.7 152 1014.8 37.2 16
DallasTexas 5/25/2019 2:00 24.8 20.6 77.56 0 0 12.6 143 1014.7 49.4 16
DallasTexas 5/25/2019 3:00 24.1 20.7 81.11 0 0 10.2 145 1015.1 38.8 16
DallasTexas 5/25/2019 4:00 23.7 20.7 83.22 0 0 14.1 155 1015.4 64.7 15.9
DallasTexas 5/25/2019 5:00 22.9 20.4 85.93 0 0 15.8 159 1015.5 41.2 15.5
DallasTexas 5/25/2019 6:00 22.5 20.1 86.7 0 0 18.6 159 1015.4 22.3 15.5
DallasTexas 5/25/2019 7:00 22.5 20.2 86.76 0 0 13.8 161 1015.8 28.1 15
DallasTexas 5/25/2019 8:00 23.2 20.8 86.36 0 0 17 152 1016.4 74.1 15.2
DallasTexas 5/25/2019 9:00 24.6 20.3 77.14 0 0 19.4 162 1016.9 49.7 15.8
DallasTexas 5/25/2019 10:00 26.5 20.2 68.04 0 0 20.6 176 1016.9 45.2 15.8
DallasTexas 5/25/2019 11:00 28.1 20.2 62.21 0 0 23.6 171 1017 46.9 16
DallasTexas 5/25/2019 12:00 29.4 19.7 55.89 0 0 19.9 177 1016.8 50.5 16
DallasTexas 5/25/2019 13:00 30.3 20.1 54.62 0 0 21.4 172 1016.5 68 16
DallasTexas 5/25/2019 14:00 30.9 19.7 51.3 0 0 22.4 169 1015.8 66 16
DallasTexas 5/25/2019 15:00 31.7 19.9 49.46 0 0 21.5 163 1015.2 56.4 16
DallasTexas 5/25/2019 16:00 31.4 19.7 49.77 0 0 25.6 153 1014.4 48 16
DallasTexas 5/25/2019 17:00 31.6 19.7 49.39 0 0 25 154 1013.8 44.8 16
DallasTexas 5/25/2019 18:00 31 19.6 50.76 0 0 24.1 146 1013.6 44.9 16
DallasTexas 5/25/2019 19:00 30.2 19.3 51.91 0 0 22.1 153 1013 31.1 16
DallasTexas 5/25/2019 20:00 29.4 19.1 53.98 0 0 19.4 144 1012.7 28.1 16
DallasTexas 5/25/2019 21:00 28.1 18.7 56.9 0 0 16.8 149 1013.3 28.1 16
DallasTexas 5/25/2019 22:00 27.4 19 60.03 0 0 12.7 155 1013.9 27.8 16
DallasTexas 5/25/2019 23:00 26.7 19.1 62.88 0 0 15.3 156 1014.5 33.5 16
DallasTexas 5/26/2019 0:00 25.9 19.4 67.72 0 0 10.6 159 1015.4 43.9 16
DallasTexas 5/26/2019 1:00 25.2 19.1 69.04 0 0 12.9 158 1015.2 35.4 16
DallasTexas 5/26/2019 2:00 24.7 19.3 72.21 0 0 17 159 1015.3 29.7 16
DallasTexas 5/26/2019 3:00 24.4 19.4 73.75 0 0 13.9 168 1015.2 35.4 16
DallasTexas 5/26/2019 4:00 23.8 19.6 77.25 0 0 16 158 1015.5 31.9 16
DallasTexas 5/26/2019 5:00 23.5 20.2 81.82 0 0 16.2 163 1016.1 85.9 16
DallasTexas 5/26/2019 6:00 23 20.2 84.22 0 0 13.3 155 1016.3 41.7 15.7
DallasTexas 5/26/2019 7:00 22.6 20.7 88.91 0 0 15.5 155 1016.5 38.3 15
DallasTexas 5/26/2019 8:00 23.4 20.8 85.51 0 0 18.5 156 1016.9 74.3 15.4
DallasTexas 5/26/2019 9:00 24.6 20.7 79.06 0 0 17.4 169 1017.2 88.2 15.8
DallasTexas 5/26/2019 10:00 26.1 20.3 70.44 0 0 23.2 182 1017.5 77.9 16
DallasTexas 5/26/2019 11:00 27.4 19.7 62.87 0 0 22.4 188 1017.4 67.1 16
DallasTexas 5/26/2019 12:00 28.3 19.2 58.12 0 0 20 181 1017.4 55.1 16
DallasTexas 5/26/2019 13:00 29.7 18.7 51.85 0 0 23.2 170 1017 56.9 16
DallasTexas 5/26/2019 14:00 30.8 18.9 49.17 0 0 21.6 150 1016.3 65.5 16
DallasTexas 5/26/2019 15:00 30.9 18.6 48.13 0 0 20.1 163 1015.9 61.7 16
DallasTexas 5/26/2019 16:00 31.5 18.4 45.64 0 0 23.9 170 1015.4 58.3 16
DallasTexas 5/26/2019 17:00 31.3 18.3 45.93 0 0 22.1 167 1014.6 45.3 16
DallasTexas 5/26/2019 18:00 30.9 18.4 47.52 0 0 20.1 154 1014.2 38.1 16
DallasTexas 5/26/2019 19:00 29.9 18.4 50.21 0 0 21.5 151 1013.6 36.1 16
DallasTexas 5/26/2019 20:00 28.9 18.4 52.89 0 0 15 144 1013.5 27.8 16
DallasTexas 5/26/2019 21:00 27.8 19.1 59.21 0 0 17.7 140 1012.9 30.6 16
DallasTexas 5/26/2019 22:00 27.2 19.6 63.05 0 0 17.5 143 1012.6 28.9 16
DallasTexas 5/26/2019 23:00 27 19.5 63.53 0 0 16.9 150 1012.5 32.8 16
DallasTexas 5/27/2019 0:00 26.3 19.9 67.86 0 0 21.2 153 1012.3 41.8 16
DallasTexas 5/27/2019 1:00 26 19.9 69.37 0 0 22.3 161 1012.4 38.8 16
DallasTexas 5/27/2019 2:00 25.3 19.4 70.12 0 0 25.4 158 1011.4 31 16
DallasTexas 5/27/2019 3:00 24.7 19.4 72.19 0 0 20.6 173 1011.8 28.9 16
DallasTexas 5/27/2019 4:00 23.9 19.4 75.7 0 0 21.4 168 1011.9 31.7 16
DallasTexas 5/27/2019 5:00 23.5 19.4 77.86 0 0 21.8 170 1012.1 42.7 16
DallasTexas 5/27/2019 6:00 23 19.5 80.85 0 0 18.1 167 1012.4 36 16
DallasTexas 5/27/2019 7:00 22.6 20 85.59 0 0 15.6 165 1012.9 45.8 15.8
DallasTexas 5/27/2019 8:00 23.1 20.1 83.34 0 0 17.1 167 1013.1 85.5 16
DallasTexas 5/27/2019 9:00 24.2 20.1 77.84 0 0 17.3 186 1013.9 90.1 15.9
DallasTexas 5/27/2019 10:00 25.8 19.5 68.29 0 0 21.3 179 1013.5 83.8 16
DallasTexas 5/27/2019 11:00 27.2 18.7 59.83 0 0 26.3 185 1013 65.7 16
DallasTexas 5/27/2019 12:00 28.2 18.7 56.4 0 0 23.3 184 1012.6 74.8 16
DallasTexas 5/27/2019 13:00 29.1 18.5 53.02 0 0 25.4 172 1011.8 74.1 16
DallasTexas 5/27/2019 14:00 30.2 18.6 49.81 0 0 28.5 158 1010.7 61.3 16
DallasTexas 5/27/2019 15:00 30.8 18.8 48.85 0 0 26.2 161 1009.7 53.2 16
DallasTexas 5/27/2019 16:00 31.4 18.7 46.88 0 0 27.8 178 1009.1 74.2 16
DallasTexas 5/27/2019 17:00 31.2 18.6 47.07 0 0 27.2 170 1008.4 60.1 16
DallasTexas 5/27/2019 18:00 30.9 18.7 48.3 0 0 23.9 169 1007.9 45.1 16
DallasTexas 5/27/2019 19:00 29.9 18.6 50.75 0 0 23 167 1007.6 28.8 16
DallasTexas 5/27/2019 20:00 29.1 18.7 53.47 0 0 24.2 156 1007.4 21.3 16
DallasTexas 5/27/2019 21:00 27.7 18.5 57.21 0 0 21.2 155 1007.4 11.9 16
DallasTexas 5/27/2019 22:00 27 18.5 59.84 0 0 15.3 155 1007.7 0 16
DallasTexas 5/27/2019 23:00 26.2 18.6 62.93 0 0 18.5 159 1008 0 16
DallasTexas 5/28/2019 0:00 25.7 18.8 65.99 0 0 17.7 160 1007.8 0 16
DallasTexas 5/28/2019 1:00 25.2 19 68.62 0 0 19.2 168 1007.3 13.5 16
DallasTexas 5/28/2019 2:00 24.6 19.3 72.36 0 0 20.4 165 1006.8 23.3 16
DallasTexas 5/28/2019 3:00 24.1 19.4 75.16 0 0 23.3 169 1006.2 14.3 16
DallasTexas 5/28/2019 4:00 23.4 19.3 77.79 0 0 19.1 172 1005.8 14.3 16
DallasTexas 5/28/2019 5:00 22.9 19.2 79.69 0 0 23.5 163 1006 18.2 16
DallasTexas 5/28/2019 6:00 22.7 19.6 82.27 0 0 21.6 168 1006.3 89.9 15.1
DallasTexas 5/28/2019 7:00 23.2 19.6 80.33 0 0 22.9 165 1006.6 91.8 14.6
DallasTexas 5/28/2019 8:00 23.7 20.1 80.4 0 0 13.9 177 1007.8 93.6 15.1
DallasTexas 5/28/2019 9:00 24.5 20.6 78.59 0 0 14.9 172 1008.2 90.4 14.7
DallasTexas 5/28/2019 10:00 26.2 20.7 71.82 0 0 21.1 180 1007.9 80.9 16
DallasTexas 5/28/2019 11:00 27.2 20.7 67.47 0 0 24.2 178 1007.5 75.7 16
DallasTexas 5/28/2019 12:00 28.2 20.3 62.34 0 0 29.2 176 1007.1 62 16
DallasTexas 5/28/2019 13:00 28.1 20.1 62.13 0 0 29.4 169 1006.7 90.4 16
DallasTexas 5/28/2019 14:00 27.1 20.2 65.93 0 0 27 179 1006.6 77.2 16
DallasTexas 5/28/2019 15:00 27.7 20.7 65.76 0 0 27.1 189 1006 57.3 16
DallasTexas 5/28/2019 16:00 28.8 20.4 60.41 0 0 22.6 191 1005.7 70.2 16
DallasTexas 5/28/2019 17:00 29.4 20.6 59.1 0 0 24.9 180 1004.9 23.3 16
DallasTexas 5/28/2019 18:00 29.5 20.4 58.17 0 0 22 181 1004.3 22.4 16
DallasTexas 5/28/2019 19:00 29.8 20.4 57.05 0 0 20.1 179 1003.9 20.9 16
DallasTexas 5/28/2019 20:00 29.5 20.4 58.44 0 0 17.9 172 1003.9 18.5 16
DallasTexas 5/28/2019 21:00 28.4 20.8 63.64 0 0 19.1 169 1004.4 18.5 16
DallasTexas 5/28/2019 22:00 27.8 21.3 67.69 0 0 16.7 178 1005.2 19.2 16
DallasTexas 5/28/2019 23:00 27.5 21.2 68.77 0 0 14.6 178 1005.7 13.5 16
DallasTexas 5/29/2019 0:00 27 21.2 70.59 0 0 16.6 182 1006.4 15 16
DallasTexas 5/29/2019 1:00 26.2 21 73.22 0 0 14.5 167 1006.4 15 16
DallasTexas 5/29/2019 2:00 25.8 20.9 74.47 0 0 17.1 178 1006.2 11.8 16
DallasTexas 5/29/2019 3:00 25.3 20.7 76.12 0 0 20.9 177 1005.6 23.8 16
DallasTexas 5/29/2019 4:00 25.1 21.1 78.95 0 0 18.6 179 1005.5 70 16
DallasTexas 5/29/2019 5:00 24.8 21.2 80.7 0 0 16.7 175 1005.5 76.8 16
DallasTexas 5/29/2019 6:00 24.6 21.7 83.93 0 0 13.4 167 1006.1 54.4 16
DallasTexas 5/29/2019 7:00 24.4 21.7 84.88 0 0 13.1 172 1006.6 43.1 13.7
DallasTexas 5/29/2019 8:00 25.1 22 83.16 0 0 15.7 156 1006.8 64.2 14.1
DallasTexas 5/29/2019 9:00 26 22.6 81.61 0.01 0 14.1 158 1007.2 75 14.4
DallasTexas 5/29/2019 10:00 27.1 22.7 77.02 0.13 0 17.3 144 1007 80.9 14.8
DallasTexas 5/29/2019 11:00 28.1 22.4 71.06 0 0 22.4 162 1006.8 83 16
DallasTexas 5/29/2019 12:00 28.3 22.2 69.44 0.09 0 20.7 207 1006.4 80.9 14
DallasTexas 5/29/2019 13:00 29.3 22.3 66.14 0.08 0 24.4 161 1005.1 48.1 14.7
DallasTexas 5/29/2019 14:00 28 21.8 69.06 0.2 0 21.1 166 1004.7 47.5 15.4
DallasTexas 5/29/2019 15:00 24.3 21.8 86.22 4.84 0 14.2 172 1005.6 73.9 9.1
DallasTexas 5/29/2019 16:00 25.3 22.3 83.83 5.7 0 6.4 294 1005.1 51.4 15.8
DallasTexas 5/29/2019 17:00 25.3 22.1 82.9 0.69 0 15.5 310 1005.4 75.8 12.3
DallasTexas 5/29/2019 18:00 23.8 21.6 87.15 0.97 0 13.8 335 1005.5 71.7 15.4
DallasTexas 5/29/2019 19:00 23.6 21.5 87.97 0.16 0 10.6 340 1005.7 72.9 15.8
DallasTexas 5/29/2019 20:00 23 20.4 85.73 0.31 0 18.6 333 1006.4 64.6 15.5
DallasTexas 5/29/2019 21:00 22.2 20.1 87.74 0.36 0 13.7 345 1007.1 77.6 16
DallasTexas 5/29/2019 22:00 21.8 19.5 86.89 0.09 0 13.6 4 1008.3 81 16
DallasTexas 5/29/2019 23:00 21.4 19.4 88.51 0 0 10.7 355 1009.7 94.3 15.8
DallasTexas 5/30/2019 0:00 21.2 19.4 89.71 0 0 11 354 1009.9 93.4 16
DallasTexas 5/30/2019 1:00 21.1 19.4 89.97 0 0 9.1 5 1010 95.7 15.8
DallasTexas 5/30/2019 2:00 21 19.2 89.12 0 0 6.9 337 1010.2 96.3 15.6
DallasTexas 5/30/2019 3:00 20.7 19.1 90.78 0 0 8.8 348 1010.7 97.7 14.9
DallasTexas 5/30/2019 4:00 20.4 19 92.03 0 0 12.9 326 1011.1 97.7 10.9
DallasTexas 5/30/2019 5:00 20.1 19 93.38 0 0 11.5 336 1011.3 81.6 8.1
DallasTexas 5/30/2019 6:00 20 18.7 92.36 0 0 11.6 338 1012 77.2 13.2
DallasTexas 5/30/2019 7:00 19.5 18.4 93.5 0.29 0 15.6 335 1012.4 95.9 10.2
DallasTexas 5/30/2019 8:00 19.6 18.1 90.93 0 0 12.1 338 1013.3 90.5 15.4
DallasTexas 5/30/2019 9:00 21.6 17.8 79.07 0 0 11.3 349 1014 48.6 16
DallasTexas 5/30/2019 10:00 23.3 17.4 69.49 0 0 14.4 20 1014.6 43 16
DallasTexas 5/30/2019 11:00 24.9 17.5 63.49 0 0 11.2 31 1014.9 33.8 16
DallasTexas 5/30/2019 12:00 25.9 17.5 59.61 0 0 14.5 336 1015 19 16
DallasTexas 5/30/2019 13:00 27.2 17.6 55.91 0 0 12.8 5 1014.7 17.5 16
DallasTexas 5/30/2019 14:00 28.4 16.2 47.76 0 0 13.8 336 1014.4 15.9 16
DallasTexas 5/30/2019 15:00 29 16.4 46.66 0 0 12.8 356 1013.9 17.6 16
DallasTexas 5/30/2019 16:00 29.8 15.8 42.78 0 0 14.4 10 1013.7 13.5 16
DallasTexas 5/30/2019 17:00 29.9 15.5 41.54 0 0 15.1 346 1013.1 17.6 16
DallasTexas 5/30/2019 18:00 29 14.7 41.68 0 0 12 349 1012.7 27.8 16
DallasTexas 5/30/2019 19:00 28.4 15.4 45.4 0 0 11.3 8 1012.2 27.8 16
DallasTexas 5/30/2019 20:00 27.6 15.8 48.87 0 0 8.1 27 1012.2 30 16
DallasTexas 5/30/2019 21:00 26.3 16.4 54.75 0 0 7 71 1012.8 24.1 16
DallasTexas 5/30/2019 22:00 24.8 16.7 60.8 0 0 6.5 98 1013.3 18.3 16
DallasTexas 5/30/2019 23:00 23.6 17.3 67.69 0 0 5.6 78 1014 25.3 16
DallasTexas 5/31/2019 0:00 22.4 17.4 73.03 0 0 4.2 77 1013.7 27.2 16
DallasTexas 5/31/2019 1:00 21.4 17.6 78.85 0 0 0.3 4 1014.2 27.2 16
DallasTexas 5/31/2019 2:00 21.1 17.3 78.85 0 0 2.9 71 1014.4 21.5 16
DallasTexas 5/31/2019 3:00 20.8 17.2 79.87 0 0 2.4 48 1014.3 20.4 16
DallasTexas 5/31/2019 4:00 20.8 17.2 80 0 0 2.8 27 1014.8 23.9 16
DallasTexas 5/31/2019 5:00 20.1 17.5 85.09 0 0 0.6 355 1015.6 21.5 15.8
DallasTexas 5/31/2019 6:00 19.9 17.6 86.54 0 0 6.8 14 1015.3 36.1 16
DallasTexas 5/31/2019 7:00 21.1 17.9 82.09 0 0 6.6 47 1015.5 32.4 16
DallasTexas 5/31/2019 8:00 22 18 77.77 0 0 1.3 357 1016 59.6 16
DallasTexas 5/31/2019 9:00 22.7 17.7 73.59 0 0 9.7 279 1017.9 71.9 15.7
DallasTexas 5/31/2019 10:00 22.1 18.9 82.14 0.17 0 10.9 257 1017.7 63.6 15.1
DallasTexas 5/31/2019 11:00 22 19 83.07 0.18 0 8.7 233 1016.7 59.1 15.9
DallasTexas 5/31/2019 12:00 22.6 19.1 80.63 0.03 0 10.2 154 1016.3 50.7 16
DallasTexas 5/31/2019 13:00 24.9 17.4 63.2 0.04 0 6 116 1015.8 29.7 16
DallasTexas 5/31/2019 14:00 26.1 16.7 56.44 0 0 4.5 69 1015.5 19.1 16
DallasTexas 5/31/2019 15:00 28.1 16.5 49.34 0 0 1.9 8 1014.9 17.6 16
DallasTexas 5/31/2019 16:00 28.9 16.4 46.94 0 0 9 53 1014.3 17.6 16
DallasTexas 5/31/2019 17:00 29.1 16.7 47.02 0 0 3.5 310 1013.7 20.3 16
DallasTexas 5/31/2019 18:00 29 17.1 48.92 0 0 8 125 1013.1 12.6 15.8
DallasTexas 5/31/2019 19:00 28.8 16.9 48.52 0 0 9.1 121 1012.6 14.4 15.8
DallasTexas 5/31/2019 20:00 27.4 17.6 55.01 0 0 9.6 143 1012.7 13.7 16
DallasTexas 5/31/2019 21:00 25.7 17.8 61.65 0 0 7.5 156 1013.2 17.8 16
DallasTexas 5/31/2019 22:00 25.1 18.1 64.99 0 0 9.6 161 1013.7 24.7 16
DallasTexas 5/31/2019 23:00 23.1 18 73 0 0 6 20 1014 24.7 16
DallasTexas 6/1/2019 0:00 22.6 18.1 75.75 0 0 7 206 1014.6 41.5 16
DallasTexas 6/1/2019 1:00 22 18 78.18 0 0 4.4 215 1014.3 41.5 16
DallasTexas 6/1/2019 2:00 21.4 17.7 79.6 0 0 3.7 233 1013.9 43.9 16
DallasTexas 6/1/2019 3:00 20.5 18.2 86.69 0 0 0.2 352 1013.2 43.9 15.6
DallasTexas 6/1/2019 4:00 20 18.3 89.72 0 0 1.9 294 1013.2 27.2 15.6
DallasTexas 6/1/2019 5:00 19.9 18.3 90.46 0 0 2.2 47 1013.2 27.2 15.5
DallasTexas 6/1/2019 6:00 19.6 18.4 92.82 0 0 2.2 289 1013.6 17.8 14.8
DallasTexas 6/1/2019 7:00 21.1 19.1 88.01 0 0 1.9 297 1013.9 13.7 14.7
DallasTexas 6/1/2019 8:00 23.5 20.2 81.87 0 0 1.4 295 1014.6 13.7 15
DallasTexas 6/1/2019 9:00 24.7 21 80.28 0 0 4 284 1014.7 14.3 15.7
DallasTexas 6/1/2019 10:00 26.9 21.7 73.19 0 0 7.7 212 1014.8 30.2 16
DallasTexas 6/1/2019 11:00 28.1 21.6 67.79 0 0 9.8 231 1014.6 43.9 16
DallasTexas 6/1/2019 12:00 29.9 21 59 0 0 6.8 238 1014.5 43 16
DallasTexas 6/1/2019 13:00 31.2 21.2 55.42 0 0 2.9 269 1014.3 47.2 16
DallasTexas 6/1/2019 14:00 32.3 20.2 48.94 0 0 2.5 360 1013.8 50 16
DallasTexas 6/1/2019 15:00 32.7 20.5 48.88 0 0 4.8 61 1012.8 65.1 16
DallasTexas 6/1/2019 16:00 33.2 20.1 46.17 0 0 11 99 1011.9 54.9 16
DallasTexas 6/1/2019 17:00 31.6 20.4 51.58 0.12 0 10.7 118 1011.6 53.7 16
DallasTexas 6/1/2019 18:00 29.2 20.4 59.1 0.07 0 14.7 79 1010.7 60.6 15.4
DallasTexas 6/1/2019 19:00 23.9 19 74.12 0.11 0 19.6 91 1011.4 89.2 11.1
DallasTexas 6/1/2019 20:00 21.2 19 87.47 8.18 0 32.6 341 1014 65.8 5
DallasTexas 6/1/2019 21:00 21.4 18.8 85.06 4.62 0 10.3 45 1012.9 60.5 12.7
DallasTexas 6/1/2019 22:00 21.9 20 88.78 0.96 0 13.8 179 1011.8 77.9 15.2
DallasTexas 6/1/2019 23:00 21.8 18.5 81.77 0.23 0 19.3 222 1012.1 61.3 15.9
DallasTexas 6/2/2019 0:00 21.9 18.1 79.23 0.32 0 16.1 249 1013.1 50.7 16
DallasTexas 6/2/2019 1:00 21.5 19 85.71 1.18 0 9.3 9 1014.8 65.5 13.9
DallasTexas 6/2/2019 2:00 21.2 19.3 88.47 0.33 0 15.3 107 1012.2 51.1 16
DallasTexas 6/2/2019 3:00 20.8 19.1 90.12 0.07 0 9.7 196 1012 32.9 16
DallasTexas 6/2/2019 4:00 20.8 18.6 87.17 0 0 10.5 217 1011.6 30.2 16
DallasTexas 6/2/2019 5:00 20.3 18.5 89.36 0 0 9.9 342 1011.7 31.6 16
DallasTexas 6/2/2019 6:00 20.9 18.9 88.05 0 0 16.8 339 1013.1 42.9 16
DallasTexas 6/2/2019 7:00 21.2 18.6 85.54 0.22 0 11.8 299 1013.5 30.9 16
DallasTexas 6/2/2019 8:00 21.1 18.5 85 0.02 0 10.4 244 1012.7 39.7 15.8
DallasTexas 6/2/2019 9:00 21.4 18.9 85.53 0.04 0 11.8 111 1011.6 37.3 15.8
DallasTexas 6/2/2019 10:00 21.8 19.4 86.01 0.02 0 11.9 85 1012.7 42.7 16
DallasTexas 6/2/2019 11:00 22.9 19.5 81.08 0 0 10.6 58 1014.4 63.9 16
DallasTexas 6/2/2019 12:00 24.9 19.5 72.09 0 0 10.4 66 1014.7 60.9 16
DallasTexas 6/2/2019 13:00 26.6 19.9 66.72 0.05 0 8.8 100 1014.7 34.5 16
DallasTexas 6/2/2019 14:00 28.1 20 61.49 0 0 6.6 103 1014 33.1 16
DallasTexas 6/2/2019 15:00 29.7 19.6 54.38 0 0 4.9 74 1013.6 46.4 16
DallasTexas 6/2/2019 16:00 29.9 19.8 54.58 0 0 8.7 280 1013.2 69.7 16
DallasTexas 6/2/2019 17:00 29.7 19.3 53.6 0 0 9.3 97 1012 45.3 16
DallasTexas 6/2/2019 18:00 29 20.1 58.53 0 0 7.7 131 1011.6 39.9 16
DallasTexas 6/2/2019 19:00 29 19.9 57.86 0 0 4.4 275 1011.4 47.2 15.9
DallasTexas 6/2/2019 20:00 28.3 20 60.74 0 0 6.5 85 1011.4 30.8 15.9
DallasTexas 6/2/2019 21:00 27.1 21.1 69.46 0 0 2.9 53 1011.7 28 16
DallasTexas 6/2/2019 22:00 26.6 21.3 72.97 0 0 6.6 103 1011.6 26 15.9
DallasTexas 6/2/2019 23:00 25.2 21.8 81.23 0 0 4.3 109 1012.9 30.7 15.6
DallasTexas 6/3/2019 0:00 24.9 21.9 83.77 0 0 0.3 1 1013.3 39.7 15.9
DallasTexas 6/3/2019 1:00 24.6 21.9 85.1 0 0 0.2 5 1013.3 29.4 15.6
DallasTexas 6/3/2019 2:00 24 22.1 88.73 0 0 2.5 79 1013 27.9 15.3
DallasTexas 6/3/2019 3:00 23.9 22.5 91.58 0 0 7.4 134 1012.4 27.3 14.9
DallasTexas 6/3/2019 4:00 23.9 22.5 91.95 0 0 8 125 1012.8 35.8 13.8
DallasTexas 6/3/2019 5:00 23.5 22.3 92.95 0 0 8 128 1012.4 45.3 12.6
DallasTexas 6/3/2019 6:00 23.3 22.3 94.39 0 0 3.8 72 1012.2 36.8 12.7
DallasTexas 6/3/2019 7:00 23.5 22.3 93.27 0 0 7.9 126 1013.3 31.5 11.7
DallasTexas 6/3/2019 8:00 24.6 22.7 88.94 0 0 10.2 146 1014 28.1 13.9
DallasTexas 6/3/2019 9:00 26.1 22.7 81.26 0 0 11.6 164 1014.2 38.2 15.1
DallasTexas 6/3/2019 10:00 28 23.3 75.59 0 0 13.6 171 1014.1 14.2 16
DallasTexas 6/3/2019 11:00 29.8 21.7 61.76 0 0 13.7 231 1014.1 15.7 16
DallasTexas 6/3/2019 12:00 30.9 20.3 53.37 0 0 12.9 192 1014.1 16.4 16
DallasTexas 6/3/2019 13:00 31.6 19.8 49.6 0 0 16.5 184 1013.8 22.1 16
DallasTexas 6/3/2019 14:00 32.4 19.2 45.77 0 0 15.7 195 1013 41 16
DallasTexas 6/3/2019 15:00 33 20.4 47.73 0 0 17.5 187 1012.5 30.2 16
DallasTexas 6/3/2019 16:00 32.8 21 50.12 0 0 21.1 190 1011.6 31.7 15.8
DallasTexas 6/3/2019 17:00 32.6 20.7 49.52 0 0 15.9 176 1011.3 44.9 16
DallasTexas 6/3/2019 18:00 31.6 20.6 52.26 0 0 15.4 167 1011.5 46 15.9
DallasTexas 6/3/2019 19:00 30 21.2 59.26 0.25 0 12.9 60 1011.8 53.2 15.2
DallasTexas 6/3/2019 20:00 29.7 20.7 58.63 0.23 0 12 139 1011.6 28.8 16
DallasTexas 6/3/2019 21:00 28.9 21 62.27 0 0 12.6 128 1012.2 22.4 16
DallasTexas 6/3/2019 22:00 28 20.4 63.63 0 0 10.8 108 1012.9 28.2 16
DallasTexas 6/3/2019 23:00 26.9 21 69.97 0 0 15.8 61 1013.9 42 16
DallasTexas 6/4/2019 0:00 25.5 21.1 76.82 0 0 13.2 87 1014.3 25.3 16
DallasTexas 6/4/2019 1:00 24.2 21.3 84.14 0 0 13.9 111 1014.1 31 16
DallasTexas 6/4/2019 2:00 23.9 21.4 85.91 0 0 9.5 110 1013.6 27.8 15.8
DallasTexas 6/4/2019 3:00 23.9 21.2 85.11 0 0 10.6 122 1012.9 40.7 15.8
DallasTexas 6/4/2019 4:00 23.6 21.6 88.3 0 0 8 128 1012.6 18.3 15.8
DallasTexas 6/4/2019 5:00 23.7 21.6 87.6 0 0 7 129 1012.3 18.3 15.4
DallasTexas 6/4/2019 6:00 23.5 21.6 89.1 0 0 6.5 120 1012.9 42.8 14.8
DallasTexas 6/4/2019 7:00 24 21.7 87.22 0 0 7.3 350 1013.7 28.1 14.7
DallasTexas 6/4/2019 8:00 25.8 21.9 79.27 0 0 6.6 255 1014.1 28.5 15.8
DallasTexas 6/4/2019 9:00 27.1 22.4 75.23 0 0 9.8 352 1013.9 22.3 16
DallasTexas 6/4/2019 10:00 28.1 22 69.38 0 0 13.1 196 1014.1 16.7 16
DallasTexas 6/4/2019 11:00 28.8 21.4 64.65 0 0 13.7 220 1014.2 28.1 16
DallasTexas 6/4/2019 12:00 29.3 20.9 60.34 0 0 10.8 223 1015 36.7 15.9
DallasTexas 6/4/2019 13:00 29.5 20.9 59.92 0 0 9 244 1014.9 36.4 15.9
DallasTexas 6/4/2019 14:00 29.6 20.4 58.02 0 0 10.2 222 1014.5 35.8 15.9
DallasTexas 6/4/2019 15:00 29.5 20.2 57.42 0 0 7.7 296 1013.7 41.8 15.6
DallasTexas 6/4/2019 16:00 29.8 20.1 55.96 0 0 8 112 1012.4 43.6 15.8
DallasTexas 6/4/2019 17:00 29.2 20.4 58.99 0 0 16.9 152 1012.1 29 16
DallasTexas 6/4/2019 18:00 28.6 21.2 64.49 0 0 12.9 159 1011.7 27.8 16
DallasTexas 6/4/2019 19:00 28.1 20.8 64.41 0 0 14.2 166 1011 28.6 16
DallasTexas 6/4/2019 20:00 27.4 19.9 63.64 0 0 12.5 169 1011 42 16
DallasTexas 6/4/2019 21:00 26.8 19.8 65.41 0 0 9.3 111 1010.6 44.3 16
DallasTexas 6/4/2019 22:00 26.5 20.6 70.02 0 0 6.7 142 1011 29.7 16
DallasTexas 6/4/2019 23:00 26.5 20.8 71.05 0 0 9.8 140 1011.9 44 16
DallasTexas 6/5/2019 0:00 25.8 21.3 76.08 0 0 9 149 1011.7 43.6 16
DallasTexas 6/5/2019 1:00 25.7 21.3 76.88 0 0 8.7 150 1011.6 31.5 15.8
DallasTexas 6/5/2019 2:00 25.3 21.5 79.55 0 0 9.1 146 1011.7 36 16
DallasTexas 6/5/2019 3:00 25.1 21.8 82.01 0 0 7.9 138 1012 57 16
DallasTexas 6/5/2019 4:00 24.7 21.8 84.18 0 0 7.7 31 1011.3 62.4 16
DallasTexas 6/5/2019 5:00 24.4 22 86.16 0.06 0 5.8 58 1011.3 68.7 15.6
DallasTexas 6/5/2019 6:00 24 22 88.59 0.09 0 9.2 144 1011 66.8 15.3
DallasTexas 6/5/2019 7:00 23.9 21.6 87.43 0.12 0 9.5 134 1010.8 64 15.7
DallasTexas 6/5/2019 8:00 24.1 21.9 87.82 0 0 9.2 129 1010.7 73.6 16
DallasTexas 6/5/2019 9:00 24.2 22 87.31 0.03 0 14.2 142 1011.5 82.7 15.3
DallasTexas 6/5/2019 10:00 24.4 22 86.18 0.18 0 10.8 333 1011.9 92.4 13.4
DallasTexas 6/5/2019 11:00 23.6 21.8 89.73 2.33 0 15.8 131 1012 73.7 8.3
DallasTexas 6/5/2019 12:00 23.6 21.9 90.16 1.89 0 16.6 141 1011.5 70.3 10.8
DallasTexas 6/5/2019 13:00 23.2 21.8 91.57 0.69 0 14.1 144 1011.6 74.8 14.1
DallasTexas 6/5/2019 14:00 23.5 22 91.15 2.33 0 12.7 174 1010.9 74.8 12.7
DallasTexas 6/5/2019 15:00 25 21.7 81.91 0.2 0 14.4 168 1010.1 65.9 15.7
DallasTexas 6/5/2019 16:00 26.3 22 77.17 0.48 0 16 158 1009.2 75.4 15.9
DallasTexas 6/5/2019 17:00 26.6 21.8 75 0 0 13.3 139 1008.8 76.7 16
DallasTexas 6/5/2019 18:00 26.6 21.7 74.51 0 0 13.3 126 1008.2 74.7 16
DallasTexas 6/5/2019 19:00 25.9 21.7 77.86 0 0 15.1 103 1008.1 87.9 16
DallasTexas 6/5/2019 20:00 24.9 21.6 81.91 0.24 0 12.1 100 1008.9 77.5 13.2
DallasTexas 6/5/2019 21:00 24.2 21.9 87.03 0.02 0 11.4 97 1008.8 75.7 15.5
DallasTexas 6/5/2019 22:00 23.4 21.7 90.5 0 0 12.8 114 1008.4 41.5 16
DallasTexas 6/5/2019 23:00 23.1 21.7 92.27 0 0 14.4 129 1008 94.1 16
DallasTexas 6/6/2019 0:00 23.1 21.4 90.47 0 0 11.5 147 1008.3 96.8 16
DallasTexas 6/6/2019 1:00 23.2 21.3 89.08 0 0 7.7 148 1008.6 99.6 16
DallasTexas 6/6/2019 2:00 23.2 21.5 89.7 0.01 0 0.3 358 1008.6 95.5 15.5
DallasTexas 6/6/2019 3:00 22.6 21.5 93.6 0.5 0 6.5 243 1008.2 88.5 12.5
DallasTexas 6/6/2019 4:00 21.3 19.8 91.3 0.57 0 11.6 279 1007.9 74.3 15.4
DallasTexas 6/6/2019 5:00 20.8 18.7 88.16 0.02 0 4.1 58 1006.5 59.7 15.6
DallasTexas 6/6/2019 6:00 20.5 19.2 92.12 0.1 0 5.5 301 1006 38.8 15.8
DallasTexas 6/6/2019 7:00 20.8 19 89.5 0 0 9.4 305 1006.6 37.8 15.8
DallasTexas 6/6/2019 8:00 21.6 19.1 85.78 0 0 12.3 306 1007.2 52.5 15.8
DallasTexas 6/6/2019 9:00 22.8 19 79.46 0 0 12.8 300 1007.6 39.9 15.9
DallasTexas 6/6/2019 10:00 24.6 18.8 70.33 0 0 9.1 315 1007.9 21.7 15.9
DallasTexas 6/6/2019 11:00 25.9 18.7 64.33 0 0 10.8 300 1007.9 20.3 16
DallasTexas 6/6/2019 12:00 27.3 18.7 59.45 0 0 11.2 295 1007.8 18.3 16
DallasTexas 6/6/2019 13:00 28.9 18.4 53.23 0 0 6.5 330 1007.4 17 16
DallasTexas 6/6/2019 14:00 30.1 18 48.24 0 0 9.5 284 1006.8 19.1 16
DallasTexas 6/6/2019 15:00 31.2 17.8 44.99 0 0 9.7 302 1006.2 25.2 16
DallasTexas 6/6/2019 16:00 31.5 17.4 43.01 0 0 8.5 249 1005.3 18.8 16
DallasTexas 6/6/2019 17:00 31.6 16.4 40.18 0 0 12.3 239 1004.6 25 16
DallasTexas 6/6/2019 18:00 31.1 16.4 41.3 0 0 14.6 246 1004.4 44.8 16
DallasTexas 6/6/2019 19:00 30.6 17 43.96 0 0 16.1 254 1004.3 43.1 16
DallasTexas 6/6/2019 20:00 29.2 17.1 48.34 0 0 15.8 273 1004.4 44 16
DallasTexas 6/6/2019 21:00 24.6 19.1 71.24 1.33 0 10.4 336 1005.4 67.6 16
DallasTexas 6/6/2019 22:00 23.6 19.5 78.01 0 0 9.7 333 1006.3 47.5 16
DallasTexas 6/6/2019 23:00 23 19.5 80.85 0.01 0 10.1 319 1007.2 20.4 16
DallasTexas 6/7/2019 0:00 22.7 19.6 82.94 0 0 8.6 326 1007 18.5 16
DallasTexas 6/7/2019 1:00 22.5 19.1 80.94 0 0 6.5 327 1007.1 14 16
DallasTexas 6/7/2019 2:00 21.6 18.6 83.38 0 0 8.2 336 1006.7 16.5 16
DallasTexas 6/7/2019 3:00 21.3 18.5 83.81 0 0 7.9 321 1006.2 19.6 16
DallasTexas 6/7/2019 4:00 21 18.2 83.93 0 0 5.8 328 1005.8 19.1 16
DallasTexas 6/7/2019 5:00 21 18.4 85.15 0 0 8 319 1006.2 39.5 16
DallasTexas 6/7/2019 6:00 21.3 18.4 83.64 0 0 9.9 295 1006.5 38.9 15.9
DallasTexas 6/7/2019 7:00 21 18.1 83.31 0 0 15.9 316 1007.2 29.1 15.9
DallasTexas 6/7/2019 8:00 22.2 18.4 79.03 0 0 17.5 328 1007.4 21.7 16
DallasTexas 6/7/2019 9:00 22.9 18.4 75.92 0 0 17.5 324 1007.8 68.5 16
DallasTexas 6/7/2019 10:00 23.8 17.8 69.11 0 0 14.5 330 1008.1 53.5 16
DallasTexas 6/7/2019 11:00 25.4 18.1 64.18 0 0 16.5 322 1008.3 85.6 16
DallasTexas 6/7/2019 12:00 25.3 18 64.08 0 0 14.7 324 1008.6 72 16
DallasTexas 6/7/2019 13:00 26.7 18.1 59.05 0 0 15.9 339 1008.2 74.4 16
DallasTexas 6/7/2019 14:00 28.1 17.6 52.94 0 0 15.3 324 1008 75.7 16
DallasTexas 6/7/2019 15:00 28.4 18 53.51 0 0 19 315 1007.4 61.9 16
DallasTexas 6/7/2019 16:00 29.5 18.3 51.13 0 0 17.7 339 1007 46.9 16
DallasTexas 6/7/2019 17:00 30 18.4 49.86 0 0 17.8 330 1006.5 62.8 15.8
DallasTexas 6/7/2019 18:00 30.3 18.7 50.09 0 0 18 338 1006.2 45.8 15.8
DallasTexas 6/7/2019 19:00 29.6 18.6 51.68 0 0 17.7 327 1006.1 48.3 16
DallasTexas 6/7/2019 20:00 29.1 18.6 53.23 0 0 15.8 340 1006.3 23.2 16
DallasTexas 6/7/2019 21:00 27.4 18.7 58.94 0 0 11.8 353 1006.8 17.1 16
DallasTexas 6/7/2019 22:00 26.6 18.8 62.3 0 0 7.2 351 1007.2 16 16
DallasTexas 6/7/2019 23:00 25.6 19.1 67.37 0 0 5.7 351 1007.8 13.5 16
DallasTexas 6/8/2019 0:00 25.3 19.4 69.93 0 0 6.7 325 1007.5 11.8 16
DallasTexas 6/8/2019 1:00 24.7 19.6 73.28 0 0 7.2 320 1007.4 0 16
DallasTexas 6/8/2019 2:00 23.9 19.7 77.81 0 0 8.2 337 1007.1 0 15.8
DallasTexas 6/8/2019 3:00 23.3 20.1 82.02 0 0 6.9 326 1007.1 15 16
DallasTexas 6/8/2019 4:00 22.8 20.1 84.78 0 0 5.7 342 1007.3 13.5 16
DallasTexas 6/8/2019 5:00 22.6 19.7 83.83 0 0 5.5 355 1007.6 11.8 16
DallasTexas 6/8/2019 6:00 22.1 19.4 84.72 0 0 3.9 336 1008.2 11.8 16
DallasTexas 6/8/2019 7:00 22.2 19.7 85.82 0 0 3.6 346 1009 11.9 16
DallasTexas 6/8/2019 8:00 23.8 20.1 80.04 0 0 7.4 355 1009.6 13.7 16
DallasTexas 6/8/2019 9:00 25.5 20.6 74.45 0 0 10.3 343 1010.2 15.3 16
DallasTexas 6/8/2019 10:00 26.8 20.4 67.85 0 0 9.1 353 1009.6 18.9 16
DallasTexas 6/8/2019 11:00 28.4 20.1 60.84 0 0 12.2 5 1009.7 16.8 16
DallasTexas 6/8/2019 12:00 29.6 19.6 54.94 0 0 14.9 357 1009.9 17 16
DallasTexas 6/8/2019 13:00 30.7 19.5 51.33 0 0 12.5 340 1009.7 17.3 16
DallasTexas 6/8/2019 14:00 31.7 19.4 48.12 0 0 10.5 10 1009.4 15.6 16
DallasTexas 6/8/2019 15:00 32.6 19.3 45.5 0 0 12.2 355 1009.1 18.3 16
DallasTexas 6/8/2019 16:00 33.2 18.7 42.53 0 0 8.6 5 1008.5 16 16
DallasTexas 6/8/2019 17:00 33.5 18 39.81 0 0 7.2 28 1007.9 15.2 15.6
DallasTexas 6/8/2019 18:00 33.2 18.3 41.23 0 0 6.3 37 1007.8 14.4 15.5
DallasTexas 6/8/2019 19:00 32.4 19.3 46.14 0 0 10 71 1007.6 14.4 15.7
DallasTexas 6/8/2019 20:00 31.1 19.6 50.51 0 0 8.6 98 1007.8 13.7 16
DallasTexas 6/8/2019 21:00 29.4 19.4 54.96 0 0 6.4 107 1008 8 16
DallasTexas 6/8/2019 22:00 28.4 19.9 60.03 0 0 9.4 114 1008.6 1.8 16
DallasTexas 6/8/2019 23:00 27.2 20.2 65.54 0 0 9.3 118 1009.1 1.8 16
DallasTexas 6/9/2019 0:00 26.8 20.2 67.02 0 0 7.5 121 1009.3 0 16
DallasTexas 6/9/2019 1:00 25.9 20.2 70.85 0 0 6.1 104 1009.4 1.8 16
DallasTexas 6/9/2019 2:00 25.3 20.3 73.8 0 0 6.9 111 1009.4 13.5 16
DallasTexas 6/9/2019 3:00 24.7 20.6 77.97 0 0 9.3 118 1009.3 15 16
DallasTexas 6/9/2019 4:00 24.4 20.2 77.63 0 0 6.9 117 1009.5 13.5 16
DallasTexas 6/9/2019 5:00 24.1 20.5 80.5 0 0 5.8 147 1010 13.5 16
DallasTexas 6/9/2019 6:00 23.6 20.4 82.1 0 0 3 76 1010.7 13.6 16
DallasTexas 6/9/2019 7:00 24.1 20.7 81.41 0 0 7 322 1011.4 13.7 15.8
DallasTexas 6/9/2019 8:00 25.8 21.1 75.08 0 0 10.4 130 1011.8 13.7 16
DallasTexas 6/9/2019 9:00 27.6 20.9 66.93 0 0 16.6 156 1011.6 13.5 16
DallasTexas 6/9/2019 10:00 28.8 21.2 63.76 0 0 17.6 182 1011.8 14 16
DallasTexas 6/9/2019 11:00 30.2 21.4 59.53 0 0 11.9 158 1012.2 17.9 16
DallasTexas 6/9/2019 12:00 31.5 21.5 55.24 0 0 14 120 1012.6 21.5 16
DallasTexas 6/9/2019 13:00 32.2 21.8 54.1 0 0 11 134 1013.4 35.5 16
DallasTexas 6/9/2019 14:00 24.2 19.8 76.28 1.48 0 39.5 35 1015.5 73.8 9.1
DallasTexas 6/9/2019 15:00 22.9 19.3 80.33 7.87 0 21.9 80 1014.7 44.7 16
DallasTexas 6/9/2019 16:00 26.8 19.3 63.2 0.09 0 26.4 109 1013.5 18.3 16
DallasTexas 6/9/2019 17:00 23.6 14.8 57.86 0 0 23.3 142 1013.5 31.5 16
DallasTexas 6/9/2019 18:00 27.8 19.1 59.23 0 0 16 107 1013.9 36.1 16
DallasTexas 6/9/2019 19:00 27.8 19.1 59.21 0 0 10.3 90 1014.5 27.5 16
DallasTexas 6/9/2019 20:00 28.4 19.1 56.9 0 0 10.5 6 1015.2 33.8 16
DallasTexas 6/9/2019 21:00 26.9 18.4 59.82 0 0 11.8 15 1016.3 38.2 16
DallasTexas 6/9/2019 22:00 26.5 19.5 65.67 0 0 9.3 360 1017 64.3 16
DallasTexas 6/9/2019 23:00 25.8 19.5 67.98 0 0 10.6 3 1018.3 63.2 16
DallasTexas 6/10/2019 0:00 25.7 19 66.54 0 0 13 14 1018.7 66 16
DallasTexas 6/10/2019 1:00 25.2 18.6 66.8 0 0 19.6 4 1019.2 52.6 16
DallasTexas 6/10/2019 2:00 24.3 19.1 72.85 0 0 22.4 2 1019.9 83.3 15.9
DallasTexas 6/10/2019 3:00 23.6 18.6 73.55 0 0 18.5 1 1020.2 71.9 15.9
DallasTexas 6/10/2019 4:00 23 17.7 72.44 0 0 22.8 356 1020.9 60.5 15.9
DallasTexas 6/10/2019 5:00 22 16.6 71.74 0 0 23.4 352 1021.7 33.9 15.9
DallasTexas 6/10/2019 6:00 21.2 15 67.67 0 0 22.7 352 1022.6 33.9 15.9
DallasTexas 6/10/2019 7:00 20.6 13.5 63.73 0 0 19.8 347 1023.4 76.4 15.9
DallasTexas 6/10/2019 8:00 20.9 13 60.41 0 0 23.6 357 1024 53.7 16
DallasTexas 6/10/2019 9:00 21.9 13.1 57.23 0 0 21.2 3 1024.4 31 16
DallasTexas 6/10/2019 10:00 23.3 13.1 52.54 0 0 21.6 360 1024.7 31.2 16
DallasTexas 6/10/2019 11:00 24.7 13.2 48.7 0 0 21.8 15 1024.4 32.2 15.8
DallasTexas 6/10/2019 12:00 26.2 13.1 44.37 0 0 22.3 7 1024.4 21.5 16
DallasTexas 6/10/2019 13:00 27 12.9 41.89 0 0 23.5 8 1024 29.7 16
DallasTexas 6/10/2019 14:00 27 12.6 41.09 0 0 27.4 360 1023.7 45.2 16
DallasTexas 6/10/2019 15:00 27.8 11.9 37.33 0 0 21.3 14 1023.3 35.4 16
DallasTexas 6/10/2019 16:00 28.1 11.7 36.02 0 0 24.4 356 1022.5 33.5 16
DallasTexas 6/10/2019 17:00 28.2 10.8 33.95 0 0 18.1 3 1022.1 34.2 16
DallasTexas 6/10/2019 18:00 27.3 10.5 34.94 0 0 22 20 1021.7 36.3 16
DallasTexas 6/10/2019 19:00 26.2 10.8 38.12 0 0 16.8 10 1021.6 39 16
DallasTexas 6/10/2019 20:00 24.9 10.9 41.35 0 0 13.9 19 1021.7 36.6 16
DallasTexas 6/10/2019 21:00 23.8 10.7 43.77 0 0 9.3 18 1022.1 34.5 16
DallasTexas 6/10/2019 22:00 22.7 11 47.49 0 0 10.8 17 1022.4 34.2 16
DallasTexas 6/10/2019 23:00 21.9 11.4 51.1 0 0 8.1 2 1022.9 42.8 16
DallasTexas 6/11/2019 0:00 21.9 11.3 50.93 0 0 7.7 17 1022.7 43.9 16
DallasTexas 6/11/2019 1:00 21.7 10.8 49.94 0 0 7.9 21 1022.2 46 16
DallasTexas 6/11/2019 2:00 21.2 10.7 50.9 0 0 4.3 14 1021.9 46 16
DallasTexas 6/11/2019 3:00 20.6 11 53.93 0 0 5.6 12 1021.3 46 16
DallasTexas 6/11/2019 4:00 20.5 11.1 54.82 0 0 8.3 33 1020.7 35.4 16
DallasTexas 6/11/2019 5:00 19.5 11.6 60.23 0 0 7.6 45 1020.7 43.9 16
DallasTexas 6/11/2019 6:00 19.3 11.8 62.03 0 0 5.1 29 1020.8 43.9 16
DallasTexas 6/11/2019 7:00 19.4 12.2 62.89 0 0 5.9 64 1021.4 43.9 16
DallasTexas 6/11/2019 8:00 20.4 12.8 61.68 0 0 3.6 45 1021.9 43.1 15.9
DallasTexas 6/11/2019 9:00 21.8 12.9 56.73 0 0 11.1 111 1021.6 46.3 15.9
DallasTexas 6/11/2019 10:00 23.6 12 48.02 0 0 15.8 127 1021.4 32.1 16
DallasTexas 6/11/2019 11:00 24.4 11.9 45.58 0 0 20.6 133 1020.8 30.2 16
DallasTexas 6/11/2019 12:00 25.3 11.6 42.24 0 0 15 126 1020.3 30.2 16
DallasTexas 6/11/2019 13:00 25.2 11.3 41.87 0 0 12.2 133 1019.8 32.1 16
DallasTexas 6/11/2019 14:00 25.2 11.6 42.77 0 0 10.2 98 1019.1 33.7 16
DallasTexas 6/11/2019 15:00 24.8 11.8 44.12 0 0 7.7 273 1018.6 29.7 16
DallasTexas 6/11/2019 16:00 24.2 12 46.61 0 0 7.5 98 1018 45.3 16
DallasTexas 6/11/2019 17:00 24.5 12.6 47.33 0 0 7.6 76 1016.9 62.5 16
DallasTexas 6/11/2019 18:00 25.6 12 42.75 0 0 10.9 134 1016.1 19.4 16
DallasTexas 6/11/2019 19:00 25.6 11.7 41.9 0 0 10.4 146 1015.8 17.6 16
DallasTexas 6/11/2019 20:00 24.4 12.2 46.54 0 0 10.3 145 1015.7 13.7 16
DallasTexas 6/11/2019 21:00 22.2 12.6 54.48 0 0 6.4 90 1015.7 13.7 16
DallasTexas 6/11/2019 22:00 20.9 13.4 62.09 0 0 5.8 99 1015.9 0 16
DallasTexas 6/11/2019 23:00 20.3 13.4 64.78 0 0 6.3 94 1016.1 11.8 16
DallasTexas 6/12/2019 0:00 19.7 13.5 67.38 0 0 2.3 60 1015.7 1.8 16
DallasTexas 6/12/2019 1:00 18.9 13.5 70.69 0 0 3.7 97 1015.8 15 16
DallasTexas 6/12/2019 2:00 18.3 13.8 74.94 0 0 7.4 114 1015.1 24.7 16
DallasTexas 6/12/2019 3:00 18.4 13.8 74.38 0 0 5.2 72 1015.3 15 16
DallasTexas 6/12/2019 4:00 17.6 13.8 78.61 0 0 5.4 59 1015.6 18.5 16
DallasTexas 6/12/2019 5:00 17.3 13.8 79.75 0 0 8.6 102 1014.4 15 16
DallasTexas 6/12/2019 6:00 18 13.7 75.73 0 0 8 356 1014.4 27.8 16
DallasTexas 6/12/2019 7:00 18.2 14.2 77.75 0 0 11 349 1017.5 28.1 16
DallasTexas 6/12/2019 8:00 19.6 14.5 72.14 0 0 2.8 357 1017.2 32.4 16
DallasTexas 6/12/2019 9:00 21.1 14.5 66.05 0 0 12.7 23 1017.6 20.6 16
DallasTexas 6/12/2019 10:00 23.4 14.3 56.73 0 0 9.4 323 1017.7 29 16
DallasTexas 6/12/2019 11:00 24.8 13.8 50.33 0 0 10.5 287 1016.9 27.8 16
DallasTexas 6/12/2019 12:00 25.4 14.6 51.13 0 0 11.4 250 1016.1 29.7 16
DallasTexas 6/12/2019 13:00 26.9 15.5 49.9 0 0 12.1 262 1015.9 29.7 16
DallasTexas 6/12/2019 14:00 28.7 16.1 46.52 0 0 18 307 1015.4 14.2 16
DallasTexas 6/12/2019 15:00 29.1 16.9 47.64 0 0 20.8 312 1015 26 16
DallasTexas 6/12/2019 16:00 29.9 17.1 46.11 0 0 17.4 337 1014.5 63.8 16
DallasTexas 6/12/2019 17:00 30.3 16.7 44.14 0 0 19.4 340 1014.1 40.9 16
DallasTexas 6/12/2019 18:00 29.7 15.6 42.44 0 0 19 350 1014.1 67.9 16
DallasTexas 6/12/2019 19:00 29.4 14.4 40.2 0 0 21.1 341 1014.3 51.4 16
DallasTexas 6/12/2019 20:00 28.2 13.1 39.29 0 0 19 352 1015 36.9 16
DallasTexas 6/12/2019 21:00 25.9 12.2 42.43 0 0 13.6 352 1015.8 15.9 16
DallasTexas 6/12/2019 22:00 24.2 12.8 48.86 0 0 11.2 340 1016.6 0 16
DallasTexas 6/12/2019 23:00 22.9 12.9 53.04 0 0 5.9 349 1017.3 0 16
DallasTexas 6/13/2019 0:00 21.8 13.1 57.82 0 0 9.7 356 1017.5 0 16
DallasTexas 6/13/2019 1:00 21.1 13.1 60.32 0 0 3.8 349 1017.6 0 16
DallasTexas 6/13/2019 2:00 20.4 13.8 65.85 0 0 3.1 334 1017.5 0 16
DallasTexas 6/13/2019 3:00 19.2 14 71.92 0 0 2.9 347 1017.6 0 16
DallasTexas 6/13/2019 4:00 18.9 13.8 72.04 0 0 3.6 342 1017.6 0 16
DallasTexas 6/13/2019 5:00 18.4 14.2 76.55 0 0 4 344 1017.7 0 16
DallasTexas 6/13/2019 6:00 18 14.2 78.66 0 0 4.8 339 1018.3 11.8 16
DallasTexas 6/13/2019 7:00 18.2 14.6 79.63 0 0 2.5 354 1018.7 14 16
DallasTexas 6/13/2019 8:00 21.4 15 66.98 0 0 2.9 353 1019.1 13.7 16
DallasTexas 6/13/2019 9:00 24.3 14.1 53.05 0 0 7 53 1019.7 15 16
DallasTexas 6/13/2019 10:00 25.6 13.6 47.29 0 0 11.7 87 1020 24.9 16
DallasTexas 6/13/2019 11:00 27 13 42.07 0 0 6 37 1019.9 13.5 16
DallasTexas 6/13/2019 12:00 28.3 11.8 35.92 0 0 7.1 352 1019.8 14.9 16
DallasTexas 6/13/2019 13:00 28.9 10.8 32.37 0 0 9 18 1019.4 18.3 16
DallasTexas 6/13/2019 14:00 29.8 10.5 30.41 0 0 10.2 19 1018.8 13.5 16
DallasTexas 6/13/2019 15:00 30 10.8 30.62 0 0 10.2 22 1018 13.9 16
DallasTexas 6/13/2019 16:00 30.2 10.8 30.04 0 0 10 87 1017.4 13.5 16
DallasTexas 6/13/2019 17:00 30.1 10.9 30.6 0 0 2.3 6 1017 13.9 16
DallasTexas 6/13/2019 18:00 29.9 11 30.96 0 0 7.3 70 1016.7 13.7 16
DallasTexas 6/13/2019 19:00 29.3 10.9 32.1 0 0 10.9 96 1016.1 13.5 16
DallasTexas 6/13/2019 20:00 28.2 10.9 34.12 0 0 11.1 127 1016.1 18.5 16
DallasTexas 6/13/2019 21:00 26.6 12.5 41.6 0 0 14.2 127 1015.7 18.5 16
DallasTexas 6/13/2019 22:00 25.4 13.1 46.52 0 0 11 131 1015.8 27.3 16
DallasTexas 6/13/2019 23:00 24.5 12.9 48.51 0 0 11.8 129 1016.1 19.6 16
DallasTexas 6/14/2019 0:00 23.9 12.8 50.02 0 0 9.4 116 1016.3 42.8 16
DallasTexas 6/14/2019 1:00 23 13.4 55.04 0 0 10.4 123 1016.2 43.9 16
DallasTexas 6/14/2019 2:00 22.3 13.8 58.87 0 0 8.6 120 1016.6 44.6 16
DallasTexas 6/14/2019 3:00 21.8 14.1 61.64 0 0 10.7 123 1016.5 28.2 16
DallasTexas 6/14/2019 4:00 21.3 14.3 64.36 0 0 12.3 128 1015.8 42 16
DallasTexas 6/14/2019 5:00 20.9 15 68.77 0 0 9.8 137 1016 27.8 16
DallasTexas 6/14/2019 6:00 20.8 15 69.66 0 0 9.9 129 1015.8 27.8 16
DallasTexas 6/14/2019 7:00 21.1 15.4 69.91 0 0 9.7 127 1016.3 30.5 16
DallasTexas 6/14/2019 8:00 21.9 15.7 67.59 0 0 10.6 134 1016.5 30.5 16
DallasTexas 6/14/2019 9:00 23.7 15.6 60.47 0 0 19.7 154 1015.9 27.8 16
DallasTexas 6/14/2019 10:00 25.8 17.1 58.63 0 0 20.4 169 1015.4 29.7 16
DallasTexas 6/14/2019 11:00 28.1 17.7 53.2 0 0 20.9 187 1014.5 43.9 16
DallasTexas 6/14/2019 12:00 30 18.5 50.23 0 0 22.3 185 1013.8 18.3 16
DallasTexas 6/14/2019 13:00 30.8 19.2 49.95 0 0 25.7 174 1013.3 19.9 16
DallasTexas 6/14/2019 14:00 31.4 19.5 49.25 0 0 31 173 1012.5 38.3 16
DallasTexas 6/14/2019 15:00 31.6 20.1 50.52 0 0 25.8 177 1012 73.9 16
DallasTexas 6/14/2019 16:00 31.7 20.1 50.23 0 0 25.8 178 1011.7 72.6 16
DallasTexas 6/14/2019 17:00 32.3 20.1 48.56 0 0 27.9 176 1010.7 51.7 16
DallasTexas 6/14/2019 18:00 32.1 19.6 47.6 0 0 31.4 170 1010.1 49.2 16
DallasTexas 6/14/2019 19:00 31.5 19.4 48.85 0 0 26 176 1009.5 31.3 16
DallasTexas 6/14/2019 20:00 30.8 19.5 51.07 0 0 20.5 176 1009.5 20.5 16
DallasTexas 6/14/2019 21:00 29.6 19.5 54.71 0 0 20 169 1009.5 18.5 16
DallasTexas 6/14/2019 22:00 28.5 19.5 58.45 0 0 21.1 168 1009.6 13.5 16
DallasTexas 6/14/2019 23:00 27.7 19.3 60.19 0 0 20.6 173 1010.4 27.2 16
DallasTexas 6/15/2019 0:00 27.3 18.9 60.07 0 0 24.2 170 1010.2 27.2 16
DallasTexas 6/15/2019 1:00 26.4 18.9 63.36 0 0 24.6 173 1010.1 43.9 16
DallasTexas 6/15/2019 2:00 25.6 19.2 67.72 0 0 23.3 171 1009.9 27.2 16
DallasTexas 6/15/2019 3:00 24.8 19.4 72.1 0 0 21.2 172 1010.4 24.6 16
DallasTexas 6/15/2019 4:00 24.5 20 75.81 0 0 25.2 178 1010.2 92.6 16
DallasTexas 6/15/2019 5:00 24.6 20.1 75.62 0 0 21 178 1010.5 96.9 16
DallasTexas 6/15/2019 6:00 24.7 20.3 76.7 0 0 19.5 173 1010.1 84 16
DallasTexas 6/15/2019 7:00 24.4 20.7 80.03 0 0 22.4 172 1010.1 57.5 16
DallasTexas 6/15/2019 8:00 25.3 20.9 76.66 0 0 26.7 173 1010.3 62.4 16
DallasTexas 6/15/2019 9:00 26.3 21.4 74.71 0 0 27.2 178 1010.7 97.8 16
DallasTexas 6/15/2019 10:00 27.6 21.7 70.45 0 0 22.7 188 1010.9 90 16
DallasTexas 6/15/2019 11:00 29.6 21.6 62.02 0 0 26.9 180 1010.4 60.6 16
DallasTexas 6/15/2019 12:00 30.9 21.4 56.98 0 0 28.4 172 1010.4 54.5 16
DallasTexas 6/15/2019 13:00 31.9 21.3 53.46 0 0 24.6 180 1010.1 44.1 16
DallasTexas 6/15/2019 14:00 32.7 21 50.22 0 0 30.4 181 1009.3 21.7 16
DallasTexas 6/15/2019 15:00 33.4 20.9 47.92 0 0 29.3 173 1008.6 21.4 16
DallasTexas 6/15/2019 16:00 33.5 20.7 47.17 0 0 31.6 176 1008 20.5 16
DallasTexas 6/15/2019 17:00 33.7 20.5 46.16 0 0 28.4 171 1007.9 39.2 16
DallasTexas 6/15/2019 18:00 33.8 20.2 45.1 0 0 26.9 181 1007.4 32.4 16
DallasTexas 6/15/2019 19:00 33.3 19.2 43.48 0 0 29.3 174 1006.9 27.2 16
DallasTexas 6/15/2019 20:00 32.5 19.1 45.34 0 0 24.7 167 1006.7 13.7 16
DallasTexas 6/15/2019 21:00 31.3 19.7 50.3 0 0 19.6 167 1007.1 15.1 16
DallasTexas 6/15/2019 22:00 30.3 20.5 55.58 0 0 15.7 163 1007.9 15 16
DallasTexas 6/15/2019 23:00 29.6 21.2 60.52 0 0 23.8 163 1007.9 19.1 16
DallasTexas 6/16/2019 0:00 28.6 20.7 62.46 0 0 23.9 169 1008.5 21.5 16
DallasTexas 6/16/2019 1:00 28 21 65.79 0 0 23.1 175 1009.3 44.7 16
DallasTexas 6/16/2019 2:00 27.4 21.6 70.77 0 0 23 176 1009.8 40.3 16
DallasTexas 6/16/2019 3:00 26.4 21.4 73.84 0.36 0 29.4 51 1010.9 54.8 15.3
DallasTexas 6/16/2019 4:00 19.9 18.4 91.58 9.38 0 14 24 1011.6 81.7 8
DallasTexas 6/16/2019 5:00 19.3 18.3 93.65 7.36 0 12.6 89 1011.1 67.5 12.4
DallasTexas 6/16/2019 6:00 19.3 18.2 93.26 2.79 0 11.8 72 1011.3 78.3 14.2
DallasTexas 6/16/2019 7:00 19.4 18.4 93.82 5.74 0 17.2 109 1011.5 81.7 15.4
DallasTexas 6/16/2019 8:00 19.8 18.7 93.46 0.18 0 17.1 125 1011.8 76.8 15.7
DallasTexas 6/16/2019 9:00 20 18.9 93.22 0.04 0 14.3 129 1012.2 76.2 15.6
DallasTexas 6/16/2019 10:00 20.9 19.3 90.41 0.08 0 16.6 139 1011.9 63.6 15.8
DallasTexas 6/16/2019 11:00 22.3 19.3 83.15 0 0 20.1 140 1011.5 53.4 16
DallasTexas 6/16/2019 12:00 24 20.6 81.38 0 0 19.3 140 1010.9 83.7 16
DallasTexas 6/16/2019 13:00 24.7 21 79.51 0 0 18.4 135 1010.5 94 16
DallasTexas 6/16/2019 14:00 25.3 21 77.07 0 0 20 124 1009.8 92.2 16
DallasTexas 6/16/2019 15:00 26.7 21.3 72.26 0 0 23.2 119 1008.4 83 16
DallasTexas 6/16/2019 16:00 20.3 18.2 87.58 5.29 0 27.2 288 1011.1 59.5 7
DallasTexas 6/16/2019 17:00 20.2 18 87 13.33 0 11.7 293 1010.1 53.9 13.7
DallasTexas 6/16/2019 18:00 20.5 18 85.79 0.74 0 20.3 74 1006.6 58.6 15.9
DallasTexas 6/16/2019 19:00 19.8 18.2 90.83 6.49 0 16 338 1008.5 39.6 16
DallasTexas 6/16/2019 20:00 20.1 18.3 89.34 0.01 0 8 128 1010.2 47.8 16
DallasTexas 6/16/2019 21:00 19.8 18.3 90.77 0 0 13.6 155 1010.3 92.5 16
DallasTexas 6/16/2019 22:00 19.8 18.5 91.99 2.37 0 17.2 156 1011.3 72.3 15
DallasTexas 6/16/2019 23:00 20.2 18.5 89.88 0.54 0 18 155 1011.2 72 15.6
DallasTexas 6/17/2019 0:00 19.8 18.4 91.45 0.03 0 11.2 176 1010.2 57.5 15.7
DallasTexas 6/17/2019 1:00 19.8 18.3 91.24 0.49 0 9.9 320 1010.7 39.3 15.8
DallasTexas 6/17/2019 2:00 19.8 18 89.34 0 0 9.3 215 1010.8 33.8 16
DallasTexas 6/17/2019 3:00 19.7 18 89.63 0 0 5 298 1011.1 56.8 16
DallasTexas 6/17/2019 4:00 19.6 18 90.49 0 0 3.3 279 1010.4 36 15.7
DallasTexas 6/17/2019 5:00 19.5 18 91.09 0.01 0 0.4 348 1010.6 51.4 15.1
DallasTexas 6/17/2019 6:00 18.8 17.5 92.24 0.01 0 0.5 360 1010.8 39.2 15.3
DallasTexas 6/17/2019 7:00 19.3 17.9 91.88 0.17 0 0.8 12 1011.3 53.2 14.9
DallasTexas 6/17/2019 8:00 20.3 18.5 89.82 0 0 4.2 78 1012.3 45.1 14.8
DallasTexas 6/17/2019 9:00 21.2 18.6 84.78 0 0 8.6 119 1012.9 92.5 15.6
DallasTexas 6/17/2019 10:00 22.3 18.5 79.2 0 0 8.9 102 1013.6 92.1 15.8
DallasTexas 6/17/2019 11:00 23.6 18.5 73.43 0 0 3.3 63 1013.5 91.6 16
DallasTexas 6/17/2019 12:00 25.1 18.7 67.58 0 0 3.8 331 1013.4 85.7 16
DallasTexas 6/17/2019 13:00 26.3 18.9 63.69 0 0 0.4 4 1013.2 69.1 16
DallasTexas 6/17/2019 14:00 27.5 18.9 59.53 0 0 3.2 26 1012.9 41.2 16
DallasTexas 6/17/2019 15:00 28.3 18.5 55.13 0 0 10.4 352 1012.6 47.5 16
DallasTexas 6/17/2019 16:00 29.6 18.2 50.62 0 0 8.9 349 1012 48.9 16
DallasTexas 6/17/2019 17:00 29.9 18.3 49.72 0 0 8.5 325 1011.2 35.3 16
DallasTexas 6/17/2019 18:00 29.8 17.7 48.31 0 0 3.1 334 1010.6 24 16
DallasTexas 6/17/2019 19:00 30.2 17.9 47.6 0 0 3.1 3 1010.2 21.9 16
DallasTexas 6/17/2019 20:00 28.9 18 51.84 0 0 4.4 88 1010.1 22.3 16
DallasTexas 6/17/2019 21:00 26.8 19.5 64.37 0 0 10.3 132 1010.2 21.7 16
DallasTexas 6/17/2019 22:00 25.6 19.5 68.93 0 0 6.8 148 1011.1 28.2 16
DallasTexas 6/17/2019 23:00 25.1 19.4 70.51 0 0 7.9 144 1012.1 28.2 16
DallasTexas 6/18/2019 0:00 24.6 19.4 72.61 0 0 5.1 125 1012.9 37 16
DallasTexas 6/18/2019 1:00 24.2 19.6 75.29 0 0 1.4 62 1012.7 56.9 16
DallasTexas 6/18/2019 2:00 23.7 19.5 77.44 0 0 6.9 286 1012.3 28.7 16
DallasTexas 6/18/2019 3:00 23.4 19.5 78.5 0 0 4.1 141 1012.1 13.5 16
DallasTexas 6/18/2019 4:00 23 19.6 81.37 0 0 3.1 83 1011.9 18.9 16
DallasTexas 6/18/2019 5:00 22.5 19.7 84.32 0 0 1.2 304 1012.1 24.6 16
DallasTexas 6/18/2019 6:00 22.2 19.7 85.72 0 0 3.3 271 1012.6 18.6 16
DallasTexas 6/18/2019 7:00 22.3 19.7 85.52 0 0 1.8 312 1013.2 32.3 15.6
DallasTexas 6/18/2019 8:00 24.6 20.5 77.61 0 0 6.3 259 1013.3 30.3 16
DallasTexas 6/18/2019 9:00 26.6 20.8 70.55 0 0 14.6 248 1013.3 27.8 16
DallasTexas 6/18/2019 10:00 27.3 20.8 67.52 0 0 16.7 211 1012.3 31.2 16
DallasTexas 6/18/2019 11:00 27.7 20.6 65.42 0 0 14.3 169 1011.7 18.3 16
DallasTexas 6/18/2019 12:00 29 20.3 59.49 0 0 14.8 130 1011.5 17.4 16
DallasTexas 6/18/2019 13:00 30.7 19.1 50.23 0 0 7.7 101 1011.5 28.6 16
DallasTexas 6/18/2019 14:00 31.1 19.1 48.68 0 0 10.4 162 1011.5 26.5 16
DallasTexas 6/18/2019 15:00 32.2 18 42.91 0 0 10 226 1011.2 15.7 16
DallasTexas 6/18/2019 16:00 32.6 17.8 41.44 0 0 12.8 200 1010.7 15 16
DallasTexas 6/18/2019 17:00 32.8 17.5 40.12 0 0 7.9 288 1009.9 15.4 16
DallasTexas 6/18/2019 18:00 32.9 18.4 42.22 0 0 9.5 293 1009.2 15.5 16
DallasTexas 6/18/2019 19:00 32.6 18.7 43.88 0 0 11.5 197 1008.7 13.5 16
DallasTexas 6/18/2019 20:00 31.6 19.1 47.53 0 0 11.2 171 1008.4 15.4 16
DallasTexas 6/18/2019 21:00 29.7 19.5 54.41 0 0 11.6 167 1008.5 17 16
DallasTexas 6/18/2019 22:00 28.9 19.5 57.05 0 0 11.3 138 1008.7 39.9 16
DallasTexas 6/18/2019 23:00 28.4 19.8 59.77 0 0 10.8 165 1009.3 36.6 16
DallasTexas 6/19/2019 0:00 28.1 20.5 63.66 0 0 11.7 174 1010.5 38.1 16
DallasTexas 6/19/2019 1:00 27.8 21 66.72 0 0 13.4 161 1009.1 42.4 16
DallasTexas 6/19/2019 2:00 27.2 21.3 70.37 0 0 14.4 170 1008.1 32.6 16
DallasTexas 6/19/2019 3:00 27.1 21.2 70.33 0 0 13.9 196 1008.2 65.6 16
DallasTexas 6/19/2019 4:00 23 20.9 87.8 4.41 0 21.8 298 1010.5 61.1 12.6
DallasTexas 6/19/2019 5:00 22.2 20.4 89.87 1.47 0 4.4 323 1007.9 38.4 15.8
DallasTexas 6/19/2019 6:00 22.3 20.7 90.45 0.06 0 9.4 246 1009.2 28.9 16
DallasTexas 6/19/2019 7:00 22.1 21 93.83 4.85 0 7.9 94 1009 28.8 15.8
DallasTexas 6/19/2019 8:00 23.2 21.1 88.2 0.01 0 5.2 92 1009 28.1 16
DallasTexas 6/19/2019 9:00 24.7 21.1 80.43 0 0 13.2 121 1009.5 31.7 16
DallasTexas 6/19/2019 10:00 25.7 21.2 75.83 0 0 15 139 1009.5 47.3 16
DallasTexas 6/19/2019 11:00 27.5 22.4 73.73 0 0 13.8 163 1008.9 82 16
DallasTexas 6/19/2019 12:00 29.6 23.6 70.36 0 0 17.3 179 1008.2 77.3 16
DallasTexas 6/19/2019 13:00 31.5 24 64.62 0 0 18.4 184 1007.3 82.9 16
DallasTexas 6/19/2019 14:00 32.7 24.2 60.99 0 0 19.1 183 1006.4 82.7 15.8
DallasTexas 6/19/2019 15:00 34 24.2 56.5 0 0 18.1 183 1005.4 54.4 15.8
DallasTexas 6/19/2019 16:00 34.2 24.3 56.43 0 0 21.3 177 1005.1 62.1 15.8
DallasTexas 6/19/2019 17:00 34.2 24.5 57.19 0.03 0 22.8 183 1004.3 57.3 15.9
DallasTexas 6/19/2019 18:00 34.4 24.1 54.94 0 0 27 178 1003 23.6 16
DallasTexas 6/19/2019 19:00 33.9 23.7 55.26 0 0 18.7 184 1002.9 31.4 16
DallasTexas 6/19/2019 20:00 32.6 23.3 58.24 0 0 17.3 183 1002.9 34.3 16
DallasTexas 6/19/2019 21:00 31.8 23.2 60.55 0.01 0 14.2 186 1002.8 35.8 16
DallasTexas 6/19/2019 22:00 31.3 22.8 60.69 0.48 0 18.8 222 1002.8 35 16
DallasTexas 6/19/2019 23:00 30.9 22.3 60.24 0.34 0 19.9 254 1003.1 33.6 15.5
DallasTexas 6/20/2019 0:00 28.6 23.1 72.02 1.09 0 18.4 327 1004.5 45.1 15.7
DallasTexas 6/20/2019 1:00 27.9 23.1 74.9 0.38 0 4.2 36 1006.4 86.7 16
DallasTexas 6/20/2019 2:00 26.5 22.1 76.69 0 0 11.7 124 1007.1 85.3 16
DallasTexas 6/20/2019 3:00 25.9 21.4 76.29 0 0 9.3 60 1006.6 29.8 16
DallasTexas 6/20/2019 4:00 25.5 19.2 68.25 0 0 12.1 21 1007.3 36 16
DallasTexas 6/20/2019 5:00 24.6 17 62.65 0 0 9.9 234 1007.4 25 16
DallasTexas 6/20/2019 6:00 24 17.5 67.01 0 0 9.1 243 1007.8 26 16
DallasTexas 6/20/2019 7:00 23.7 18.3 71.78 0 0 8.7 121 1008.1 23.9 16
DallasTexas 6/20/2019 8:00 25.2 19.1 69.22 0 0 10.8 173 1008.2 17 16
DallasTexas 6/20/2019 9:00 27 20.1 65.86 0 0 20.3 175 1008.2 13.5 16
DallasTexas 6/20/2019 10:00 28.8 19.9 58.56 0 0 24.3 193 1008.1 11.8 16
DallasTexas 6/20/2019 11:00 30.3 21.2 58.42 0 0 24.5 187 1007.8 11.8 16
DallasTexas 6/20/2019 12:00 31.7 22.6 58.42 0 0 20.2 186 1007.3 1.8 16
DallasTexas 6/20/2019 13:00 33.1 23.6 57.55 0 0 21.2 193 1007 0 16
DallasTexas 6/20/2019 14:00 33.9 24.1 56.91 0 0 21.6 182 1006.5 0 16
DallasTexas 6/20/2019 15:00 34.8 24.5 55.15 0 0 20 183 1006.2 13.5 16
DallasTexas 6/20/2019 16:00 35.1 24.6 54.91 0 0 25.4 173 1005.8 13.5 16
DallasTexas 6/20/2019 17:00 35.1 24.6 54.74 0 0 25.4 177 1005.6 14.4 16
DallasTexas 6/20/2019 18:00 34.9 24.5 54.84 0 0 24.3 176 1005.4 15.5 16
DallasTexas 6/20/2019 19:00 34.2 24.5 57.29 0 0 24.9 171 1005.3 17 16
DallasTexas 6/20/2019 20:00 32.8 24.4 61.41 0 0 20.8 164 1005.6 14.4 16
DallasTexas 6/20/2019 21:00 31.7 24.5 65.77 0 0 20.2 157 1005.9 13.7 16
DallasTexas 6/20/2019 22:00 30.7 25 71.37 0 0 24.2 153 1006.4 13.5 16
DallasTexas 6/20/2019 23:00 30 24.6 73.18 0 0 23.1 160 1006.9 13.5 16
DallasTexas 6/21/2019 0:00 29.1 24.4 75.72 0 0 23.5 169 1007.2 13.5 16
DallasTexas 6/21/2019 1:00 28.5 24.4 78.52 0 0 22.6 168 1007 16.7 15.9
DallasTexas 6/21/2019 2:00 27.8 24 79.85 0 0 21.2 173 1007 85.7 15
DallasTexas 6/21/2019 3:00 27.6 23.9 80.43 0 0 23.3 179 1006.9 99.6 14.4
DallasTexas 6/21/2019 4:00 27.5 23.8 80.36 0 0 23.7 175 1007.1 95.5 14.4
DallasTexas 6/21/2019 5:00 27.5 23.4 78.55 0 0 20.5 174 1007.5 94.9 14.7
DallasTexas 6/21/2019 6:00 27.4 23.4 78.56 0 0 24.4 179 1008.2 93.7 15.1
DallasTexas 6/21/2019 7:00 27 22.9 78.51 0 0 20.4 177 1009 82.8 14.8
DallasTexas 6/21/2019 8:00 27.1 22.6 76.62 0 0 23.4 178 1009.8 81.7 15
DallasTexas 6/21/2019 9:00 28.1 22.6 72.4 0 0 22.8 179 1010.3 88.9 15.8
DallasTexas 6/21/2019 10:00 29.3 22.5 66.7 0 0 25.5 183 1010.1 50.7 15.8
DallasTexas 6/21/2019 11:00 30.6 22.7 62.94 0 0 24 189 1009.8 38.2 15.8
DallasTexas 6/21/2019 12:00 31.8 22.6 58.42 0 0 23.9 187 1009.6 30.9 16
DallasTexas 6/21/2019 13:00 32.8 22.9 55.9 0 0 28.3 185 1009.1 23.7 16
DallasTexas 6/21/2019 14:00 33.5 22.8 53.73 0 0 27.5 180 1008.8 23.6 16
DallasTexas 6/21/2019 15:00 34.3 22.6 50.61 0 0 29.3 178 1008.7 24.8 16
DallasTexas 6/21/2019 16:00 35 22.7 48.99 0 0 25.9 174 1008.5 29.8 16
DallasTexas 6/21/2019 17:00 34.8 22.5 49.09 0 0 35.2 166 1008 30 16
DallasTexas 6/21/2019 18:00 34.3 22.5 50.14 0 0 28.9 173 1007.8 24.5 16
DallasTexas 6/21/2019 19:00 33.6 22.5 52.15 0 0 28.5 170 1007.6 27.4 16
DallasTexas 6/21/2019 20:00 32.5 23.3 58.34 0 0 23.8 165 1008 22.7 16
DallasTexas 6/21/2019 21:00 31.3 23 61.4 0 0 23.2 165 1008.5 13.7 16
DallasTexas 6/21/2019 22:00 30.5 23.2 65.23 0 0 22.4 165 1008.9 1.8 16
DallasTexas 6/21/2019 23:00 29.7 22.9 67.08 0 0 23.7 169 1010.1 3.4 16
DallasTexas 6/22/2019 0:00 28.9 22.9 70.24 0 0 24.8 172 1010.4 3.2 16
DallasTexas 6/22/2019 1:00 28.2 23.1 73.49 0 0 23.5 172 1010.5 17.4 16
DallasTexas 6/22/2019 2:00 27.7 23.3 76.91 0 0 22.7 178 1010.2 9.9 16
DallasTexas 6/22/2019 3:00 27.2 23.4 79.58 0 0 22.4 175 1009.5 63 15.9
DallasTexas 6/22/2019 4:00 27 23.6 81.75 0 0 21.7 178 1009.5 91.6 15
DallasTexas 6/22/2019 5:00 27.4 23.9 81.35 0 0 21.2 174 1009.6 86.4 14.8
DallasTexas 6/22/2019 6:00 27.4 23.9 81.26 0 0 22.4 169 1009.4 72.7 14.3
DallasTexas 6/22/2019 7:00 27.7 24 80.39 0 0 22.1 168 1010.1 91.1 13.4
DallasTexas 6/22/2019 8:00 28 24 78.77 0 0 21.1 171 1010.4 94 13.4
DallasTexas 6/22/2019 9:00 28.9 24 75.17 0 0 26 159 1010.4 60.6 13.8
DallasTexas 6/22/2019 10:00 30.1 23.5 67.81 0 0 29.5 175 1011 39.5 15
DallasTexas 6/22/2019 11:00 31.3 23.3 62.67 0 0 22.2 185 1011.5 41.3 16
DallasTexas 6/22/2019 12:00 31.8 22.6 58.34 0 0 24.5 183 1011.8 49.7 16
DallasTexas 6/22/2019 13:00 32.6 22.6 55.84 0 0 24.9 197 1011.7 54.4 16
DallasTexas 6/22/2019 14:00 32.4 22.5 56.17 0 0 24.5 187 1011.4 52.2 16
DallasTexas 6/22/2019 15:00 30.9 23 63 0.21 0 18.7 180 1011.2 59.1 13.8
DallasTexas 6/22/2019 16:00 30.4 22.3 61.91 0.02 0 23.4 177 1011.5 36.6 15.9
DallasTexas 6/22/2019 17:00 30.2 23 65.4 0 0 17.7 157 1010.8 34.2 16
DallasTexas 6/22/2019 18:00 30.7 23.1 63.87 0 0 17.3 171 1010.4 47.6 16
DallasTexas 6/22/2019 19:00 31.2 23.4 63.16 0 0 19.6 156 1009.6 36.1 16
DallasTexas 6/22/2019 20:00 30.8 23.4 64.46 0 0 22.3 152 1009.5 59.6 16
DallasTexas 6/22/2019 21:00 29.7 23.2 67.93 0 0 16 158 1009.4 17.2 16
DallasTexas 6/22/2019 22:00 29.4 23 68.74 0 0 18.3 155 1009.8 21.6 16
DallasTexas 6/22/2019 23:00 28.8 23.2 71.98 0 0 17.1 152 1010.1 17.9 16
DallasTexas 6/23/2019 0:00 27.8 23.8 78.66 0 0 22.1 155 1010.3 8.8 16
DallasTexas 6/23/2019 1:00 27.6 23.9 80.61 0 0 19.6 165 1010.2 30.7 16
DallasTexas 6/23/2019 2:00 27.5 24 81.06 0 0 22.7 166 1009.9 49.8 15.8
DallasTexas 6/23/2019 3:00 27.6 23.9 80.5 0 0 22.5 173 1009.6 79.2 14.8
DallasTexas 6/23/2019 4:00 27.6 23.9 80.41 0 0 24.6 170 1009.3 87 14.2
DallasTexas 6/23/2019 5:00 27.6 23.5 78.45 0 0 25.4 178 1009.2 88.4 14.4
DallasTexas 6/23/2019 6:00 27.5 23.4 78.12 0 0 25.4 179 1009.3 70.7 15.1
DallasTexas 6/23/2019 7:00 27.5 23.1 76.97 0 0 20.3 179 1010.1 88.5 14.8
DallasTexas 6/23/2019 8:00 27.6 23.3 77.59 0 0 21.5 174 1010.4 74.1 14.9
DallasTexas 6/23/2019 9:00 28.3 23.4 74.59 0 0 21.8 178 1010.2 65.7 15.9
DallasTexas 6/23/2019 10:00 29 23.2 70.7 0 0 27.6 184 1009.6 77.4 16
DallasTexas 6/23/2019 11:00 29.5 23.4 69.58 0 0 23.5 188 1009.7 75.7 15.8
DallasTexas 6/23/2019 12:00 30.5 23.3 65.84 0 0 20.6 191 1009.7 78.1 16
DallasTexas 6/23/2019 13:00 31.7 23.3 61.15 0 0 25.4 201 1009.1 66.2 16
DallasTexas 6/23/2019 14:00 31.7 23.7 62.43 0 0 22.2 190 1008.7 67.6 16
DallasTexas 6/23/2019 15:00 33.1 23.7 57.95 0.02 0 26.8 211 1007.7 59 15.6
DallasTexas 6/23/2019 16:00 33.6 23.6 56.07 0 0 23.7 193 1006.1 26.2 16
DallasTexas 6/23/2019 17:00 33.5 23.7 56.45 0 0 25.6 190 1004.7 34.2 16
DallasTexas 6/23/2019 18:00 33 23.5 57.69 0 0 26.9 187 1004.1 60.5 16
DallasTexas 6/23/2019 19:00 32.5 23.4 58.82 0.18 0 17.7 178 1005 77.9 15.9
DallasTexas 6/23/2019 20:00 31.7 23.4 61.73 0.17 0 13.6 197 1005.8 64.8 15.4
DallasTexas 6/23/2019 21:00 28.4 22.6 70.77 0.42 0 27.3 352 1007.1 73.8 13.6
DallasTexas 6/23/2019 22:00 20.8 18.9 88.73 11.38 0 29.9 319 1010.2 79.8 7.9
DallasTexas 6/23/2019 23:00 21.1 19.4 90.05 6.44 0 22.3 52 1009 80 14.2
DallasTexas 6/24/2019 0:00 21.4 19.5 88.77 0.69 0 16.6 45 1010.2 56.7 15.8
DallasTexas 6/24/2019 1:00 21.2 19.3 88.84 5.97 0 10.8 89 1009.4 64.3 15.8
DallasTexas 6/24/2019 2:00 20.8 19.2 90.42 0 0 14.1 83 1008.8 32.8 16
DallasTexas 6/24/2019 3:00 20.6 19.2 91.63 0 0 11.3 107 1008.7 60.6 16
DallasTexas 6/24/2019 4:00 20.6 19.2 91.7 0 0 11.7 99 1009.7 69.3 16
DallasTexas 6/24/2019 5:00 20.5 19.1 91.62 0 0 13.5 143 1009.1 88.6 16
DallasTexas 6/24/2019 6:00 20.8 19.1 90.28 0.02 0 10.2 131 1010.1 92.6 16
DallasTexas 6/24/2019 7:00 20.8 19.3 91.02 0 0 9.8 139 1010.8 89.1 16
DallasTexas 6/24/2019 8:00 21.3 19.1 87.2 0 0 12.9 154 1011.7 71.4 16
DallasTexas 6/24/2019 9:00 21.4 19.2 87.07 0 0 13 162 1012.4 96.9 16
DallasTexas 6/24/2019 10:00 22.3 19.5 84.41 0 0 10.9 165 1012.8 97.8 16
DallasTexas 6/24/2019 11:00 23.8 19.6 77.27 0 0 2.6 38 1012.7 87 16
DallasTexas 6/24/2019 12:00 25.1 20.1 74.1 0 0 2.8 347 1012.8 94.4 16
DallasTexas 6/24/2019 13:00 26.4 20.6 70.47 0 0 5.4 360 1012.4 82.3 16
DallasTexas 6/24/2019 14:00 26.9 20.7 69.01 0 0 5.3 99 1012.2 89.9 16
DallasTexas 6/24/2019 15:00 27.5 20.9 67.28 0 0 8.2 120 1012 78.7 16
DallasTexas 6/24/2019 16:00 28.4 21 64.3 0 0 5.2 62 1011.8 52.4 16
DallasTexas 6/24/2019 17:00 28.5 21.2 64.9 0 0 11.7 135 1011.4 54.7 16
DallasTexas 6/24/2019 18:00 28.5 21.4 65.33 0 0 14.8 146 1011.2 52.7 16
DallasTexas 6/24/2019 19:00 27.2 21.3 69.87 0 0 16.7 125 1010.7 24 16
DallasTexas 6/24/2019 20:00 25.9 20.8 73.61 0 0 15.8 124 1011.2 32.6 16
DallasTexas 6/24/2019 21:00 25.1 20.4 75.4 0 0 13.6 134 1011.8 54.6 16
DallasTexas 6/24/2019 22:00 24.5 20.7 79.35 0 0 9.8 123 1011.8 55.7 16
DallasTexas 6/24/2019 23:00 24.1 21.1 83.36 0 0 8.7 125 1012.5 55.7 16
DallasTexas 6/25/2019 0:00 23.9 21.2 85.07 0 0 8.5 131 1012.8 55.7 16
DallasTexas 6/25/2019 1:00 23.5 21.3 87.59 0 0 9 110 1012.5 55.7 16
DallasTexas 6/25/2019 2:00 23.5 21.6 89.12 0 0 12 120 1011.5 47.7 15.7
DallasTexas 6/25/2019 3:00 23.2 21.7 91.07 0 0 8.6 113 1011.5 53.3 15.8
DallasTexas 6/25/2019 4:00 23 21.6 92.18 0 0 8.1 108 1011.4 54.3 15.4
DallasTexas 6/25/2019 5:00 22.9 21.7 92.62 0 0 13.2 117 1011.2 59.2 15.3
DallasTexas 6/25/2019 6:00 22.9 21.5 91.72 0 0 11.4 146 1012.3 57.7 15.7
DallasTexas 6/25/2019 7:00 22.7 21.2 91.14 0 0 8.5 136 1013.4 36.6 15.8
DallasTexas 6/25/2019 8:00 23.7 20.5 82.34 0 0 10.9 134 1013.1 19.6 16
DallasTexas 6/25/2019 9:00 24.7 20.5 77.33 0 0 8.7 155 1014.1 28.7 16
DallasTexas 6/25/2019 10:00 26.4 20.2 68.67 0 0 14 150 1014.6 27.8 16
DallasTexas 6/25/2019 11:00 27.9 20.3 63.47 0 0 16.2 146 1014.8 29.7 16
DallasTexas 6/25/2019 12:00 29 20.4 59.91 0.03 0 18 172 1014.9 19.2 16
DallasTexas 6/25/2019 13:00 30.1 20.9 57.93 0 0 14.8 174 1014.5 14.2 16
DallasTexas 6/25/2019 14:00 31.2 21 54.69 0 0 15.1 152 1014.1 15.7 16
DallasTexas 6/25/2019 15:00 32 21.3 53.12 0 0 13.6 163 1014 28.9 16
DallasTexas 6/25/2019 16:00 32.2 21.1 52.11 0 0 18.1 153 1013.7 27.9 16
DallasTexas 6/25/2019 17:00 32.4 21.4 52.37 0 0 23.3 158 1013.2 40.7 16
DallasTexas 6/25/2019 18:00 31.8 21.9 55.87 0 0 21.4 160 1012.9 37.3 16
DallasTexas 6/25/2019 19:00 31.4 21.5 55.64 0 0 20.4 153 1012.9 24.2 16
DallasTexas 6/25/2019 20:00 30.3 21.1 58.1 0 0 22 149 1013.4 26.8 16
DallasTexas 6/25/2019 21:00 26.9 20.7 69.06 0 0 24.8 161 1014.1 19.7 16
DallasTexas 6/25/2019 22:00 26.1 20.9 72.9 0 0 22.7 166 1015.1 13.5 16
DallasTexas 6/25/2019 23:00 26.2 19.9 68.71 0 0 19.3 182 1015.7 15 16
DallasTexas 6/26/2019 0:00 25.4 19.2 68.6 0 0 14.7 179 1016 15 16
DallasTexas 6/26/2019 1:00 24.3 19.4 74.32 0 0 11.8 164 1016 15 16
DallasTexas 6/26/2019 2:00 23.5 19.6 78.33 0 0 8.7 137 1015.9 13.5 16
DallasTexas 6/26/2019 3:00 22.8 19.4 81.54 0 0 7.1 128 1015.8 13.5 16
DallasTexas 6/26/2019 4:00 22.2 19.4 84.09 0 0 6.9 136 1016.2 0 16
DallasTexas 6/26/2019 5:00 22 19.5 85.5 0 0 9.8 150 1016.6 0 16
DallasTexas 6/26/2019 6:00 22 19.1 83.9 0 0 8.5 155 1017.7 13.5 16
DallasTexas 6/26/2019 7:00 22.1 19.3 83.95 0.09 0 10 141 1018.1 13.7 15.9
DallasTexas 6/26/2019 8:00 23.5 19.6 78.97 0 0 11.4 169 1018.5 13.7 16
DallasTexas 6/26/2019 9:00 25.7 19.4 68 0 0 14.3 173 1019.4 11.8 16
DallasTexas 6/26/2019 10:00 27.4 19.6 62.58 0 0 15.5 174 1019.6 14.8 16
DallasTexas 6/26/2019 11:00 28.6 20.7 62.2 0 0 21.5 174 1019.2 15.6 16
DallasTexas 6/26/2019 12:00 29.7 21 59.82 0 0 25.4 178 1019 23.4 15.9
DallasTexas 6/26/2019 13:00 30.2 21.8 60.84 0 0 19.3 178 1019.1 88.7 16
DallasTexas 6/26/2019 14:00 30.8 22.4 60.94 0 0 17.5 178 1019 77.8 15.8
DallasTexas 6/26/2019 15:00 31.3 22.5 59.59 0 0 16.6 188 1018.6 47.1 16
DallasTexas 6/26/2019 16:00 31.2 21.8 57.28 0 0 13.8 166 1018 53.9 15.9
DallasTexas 6/26/2019 17:00 31.9 21.6 54.41 0 0 15.7 166 1017.5 46.2 15.9
DallasTexas 6/26/2019 18:00 31.8 21.2 53.43 0 0 15.4 152 1017.1 35.4 16
DallasTexas 6/26/2019 19:00 31.2 21.1 55.01 0 0 16.7 153 1017.3 25.2 16
DallasTexas 6/26/2019 20:00 29.8 21.3 60.26 0 0 22 149 1017.6 29.5 16
DallasTexas 6/26/2019 21:00 24.9 20.3 75.37 0 0 17.3 170 1018.4 31.7 16
DallasTexas 6/26/2019 22:00 24.9 19.9 73.55 0 0 11.5 149 1018.9 13.5 16
DallasTexas 6/26/2019 23:00 24.4 19.6 74.92 0 0 9.8 159 1019.6 13.5 16
DallasTexas 6/27/2019 0:00 23.5 20 80.6 0 0 13.5 148 1019.8 13.5 16
DallasTexas 6/27/2019 1:00 22.9 20 84.03 0 0 10.1 55 1019.7 13.5 16
DallasTexas 6/27/2019 2:00 22.7 20.1 85.13 0 0 8 127 1019.6 11.8 15.8
DallasTexas 6/27/2019 3:00 22.4 20.1 86.93 0 0 9.5 139 1019.6 0.7 16
DallasTexas 6/27/2019 4:00 22.2 20.1 87.77 0 0 8.7 138 1019.4 8.2 15.9
DallasTexas 6/27/2019 5:00 22.4 20.1 86.94 0 0 7.5 120 1019.8 91.7 15.8
DallasTexas 6/27/2019 6:00 22.9 20.7 87.58 0 0 7.4 138 1020.3 98.9 15.9
DallasTexas 6/27/2019 7:00 23.1 21.2 89.1 0 0 9.9 213 1020.8 100 12.9
DallasTexas 6/27/2019 8:00 23.4 21.8 91.16 0 0 9.9 221 1021.3 100 10.6
DallasTexas 6/27/2019 9:00 24.4 22.1 87.08 0 0 12.7 231 1021.9 100 13
DallasTexas 6/27/2019 10:00 25.8 22.2 80.92 0 0 11.6 202 1021.8 95.8 15.7
DallasTexas 6/27/2019 11:00 27.3 21.9 72.54 0 0 12.5 198 1021.5 84.1 15.8
DallasTexas 6/27/2019 12:00 28.8 22 66.77 0 0 12 170 1021.2 51.5 16
DallasTexas 6/27/2019 13:00 30.1 22 61.85 0 0 12.5 165 1020.8 81.4 16
DallasTexas 6/27/2019 14:00 31.2 22 58.05 0 0 13.2 170 1020.1 56.2 16
DallasTexas 6/27/2019 15:00 31.7 22 56.32 0 0 9.6 81 1019.4 79.4 16
DallasTexas 6/27/2019 16:00 32 22.1 55.94 0 0 13.5 171 1018.7 49.3 16
DallasTexas 6/27/2019 17:00 32.4 21.8 53.9 0 0 14.7 138 1018 35.9 16
DallasTexas 6/27/2019 18:00 32.5 22 54.3 0 0 17.9 144 1018 55.8 16
DallasTexas 6/27/2019 19:00 31.7 21.8 55.88 0 0 18.1 145 1018.2 39 16
DallasTexas 6/27/2019 20:00 30.5 21.9 60.38 0 0 19.8 153 1018 17.1 16
DallasTexas 6/27/2019 21:00 29 21.7 64.75 0 0 16.8 150 1017.7 13.7 16
DallasTexas 6/27/2019 22:00 27.5 19.8 63 0 0 12 215 1018.5 13.5 16
DallasTexas 6/27/2019 23:00 26.5 18.8 62.73 0 0 12.8 222 1018.9 13.5 15.8
DallasTexas 6/28/2019 0:00 25.4 19.1 68.3 0 0 8.4 158 1019 13.5 16
DallasTexas 6/28/2019 1:00 24.9 19.4 71.64 0 0 8.9 150 1019.5 11.8 16
DallasTexas 6/28/2019 2:00 24.2 20.1 77.86 0 0 10.7 133 1019.2 11.8 16
DallasTexas 6/28/2019 3:00 23.4 20.1 81.76 0 0 12 28 1019.3 23.3 16
DallasTexas 6/28/2019 4:00 23.2 20.1 82.65 0 0 10.5 97 1019.3 13.5 16
DallasTexas 6/28/2019 5:00 23.1 20.1 82.99 0 0 9.8 17 1019 15.9 16
DallasTexas 6/28/2019 6:00 23.1 20.4 84.77 0 0 9.4 235 1019.3 13.5 15.9
DallasTexas 6/28/2019 7:00 23.1 20.5 85.17 0 0 6.7 22 1019.7 13.7 15.9
DallasTexas 6/28/2019 8:00 24.3 21.4 83.85 0 0 8 286 1020.1 13.7 15.9
DallasTexas 6/28/2019 9:00 26.4 22.2 78.07 0 0 11.2 220 1020.3 13.5 15.8
DallasTexas 6/28/2019 10:00 27.9 22.1 70.85 0 0 11.9 218 1020.3 13.5 16
DallasTexas 6/28/2019 11:00 29.4 22 64.62 0 0 15.8 218 1020 15.9 16
DallasTexas 6/28/2019 12:00 30.7 21.9 59.51 0 0 11.8 221 1019.8 26.9 16
DallasTexas 6/28/2019 13:00 31.7 20.7 52.27 0 0 11.8 220 1019.4 18.5 16
DallasTexas 6/28/2019 14:00 32.6 20.4 48.68 0 0 10.5 197 1018.6 15.4 16
DallasTexas 6/28/2019 15:00 33.2 20.2 46.64 0 0 8.3 294 1018.1 15.9 16
DallasTexas 6/28/2019 16:00 33.4 19.9 44.92 0 0 16 167 1017.4 15.8 16
DallasTexas 6/28/2019 17:00 33.5 19.9 44.74 0 0 11.8 183 1016.9 15.1 16
DallasTexas 6/28/2019 18:00 33.4 19.5 43.93 0 0 13.5 178 1016.3 14.4 16
DallasTexas 6/28/2019 19:00 33.1 19.7 45.46 0 0 12.3 158 1016.2 14.4 16
DallasTexas 6/28/2019 20:00 31.9 20.4 50.87 0 0 13.5 163 1016.4 13.7 16
DallasTexas 6/28/2019 21:00 30.3 21.2 58.29 0 0 13.1 159 1016.5 13.7 16
DallasTexas 6/28/2019 22:00 29.2 21.4 62.9 0 0 10.8 150 1016.7 1.8 16
DallasTexas 6/28/2019 23:00 28.5 21.2 64.78 0 0 12.6 144 1017.1 0 16
DallasTexas 6/29/2019 0:00 27.7 21.5 69.14 0 0 10.2 152 1017.3 11.8 16
DallasTexas 6/29/2019 1:00 26.7 21.8 74.56 0 0 6.4 112 1017.2 11.8 16
DallasTexas 6/29/2019 2:00 26.3 21.8 76.26 0 0 6.3 143 1017.1 11.8 15.7
DallasTexas 6/29/2019 3:00 25.7 21.7 78.71 0 0 5.7 96 1016.9 21.5 15.5
DallasTexas 6/29/2019 4:00 25.5 22 80.86 0 0 8.4 22 1016.6 41.5 15.7
DallasTexas 6/29/2019 5:00 25.4 21.8 80.67 0 0 5.1 149 1017.1 35.4 15.5
DallasTexas 6/29/2019 6:00 25.2 21.6 80.7 0 0 5.1 73 1017.6 34.2 15.4
DallasTexas 6/29/2019 7:00 25.1 21.8 81.92 0 0 4.7 106 1017.8 36.1 15.1
DallasTexas 6/29/2019 8:00 25.8 22.3 81.39 0 0 1.9 322 1017.9 28.8 15.7
DallasTexas 6/29/2019 9:00 28.1 21.8 68.61 0 0 9.9 225 1018.2 26.5 15.7
DallasTexas 6/29/2019 10:00 30 21.3 59.64 0 0 15.1 253 1017.8 18.3 15.8
DallasTexas 6/29/2019 11:00 31.2 21.3 55.69 0 0 11.3 260 1018.1 18.3 16
DallasTexas 6/29/2019 12:00 32.5 20.8 50.36 0 0 3.9 298 1018.1 24.4 16
DallasTexas 6/29/2019 13:00 33.3 20.4 46.88 0 0 6.2 262 1017.4 49.5 16
DallasTexas 6/29/2019 14:00 34.2 20.2 43.95 0 0 5.3 290 1016.5 47.3 16
DallasTexas 6/29/2019 15:00 34.4 20 42.89 0 0 8.5 246 1015.5 55.2 16
DallasTexas 6/29/2019 16:00 34.7 19 39.8 0 0 8.5 223 1014.6 52.5 16
DallasTexas 6/29/2019 17:00 34.7 18.6 38.71 0 0 8.9 350 1013.9 39.5 16
DallasTexas 6/29/2019 18:00 33.9 18.9 41.22 0.03 0 10.1 21 1013.4 50.7 15.6
DallasTexas 6/29/2019 19:00 24.8 18.7 68.66 1.52 0 28.5 98 1014.6 63.3 15.2
DallasTexas 6/29/2019 20:00 24.4 19.6 74.64 0.44 0 4.1 295 1014 35.3 15.9
DallasTexas 6/29/2019 21:00 24.3 20.5 79.05 0.14 0 5.8 59 1015.6 40 16
DallasTexas 6/29/2019 22:00 23.3 19.4 78.74 0.1 0 14.6 134 1016.3 45.5 16
DallasTexas 6/29/2019 23:00 23.1 19.2 79.04 0 0 11 117 1016.8 36.8 16
DallasTexas 6/30/2019 0:00 22.4 18.9 80.49 0 0 6.2 42 1016.7 37.3 16
DallasTexas 6/30/2019 1:00 22.6 18.9 79.45 0 0 4.9 247 1016.4 28.6 16
DallasTexas 6/30/2019 2:00 22.2 19.1 82.33 0 0 3.2 297 1016.1 35.2 16
DallasTexas 6/30/2019 3:00 22.2 19.2 82.99 0 0 2.2 42 1016 30 16
DallasTexas 6/30/2019 4:00 21.9 19.1 84.06 0 0 2.3 29 1015.3 29.7 15.8
DallasTexas 6/30/2019 5:00 21.4 19.1 87 0 0 5.9 19 1015 21.1 15.8
DallasTexas 6/30/2019 6:00 21.3 19 86.72 0 0 0.6 16 1015.5 22.4 15.5
DallasTexas 6/30/2019 7:00 21.5 19.4 87.54 0 0 4.8 121 1016.3 27.9 15.6
DallasTexas 6/30/2019 8:00 22.6 20.2 86.33 0 0 6.9 96 1016.9 45.8 15.9
DallasTexas 6/30/2019 9:00 24 20.4 80.19 0 0 10.5 103 1016.9 30.1 15.6
DallasTexas 6/30/2019 10:00 25.5 20.7 75.05 0 0 8.4 119 1016.9 45.6 15.7
DallasTexas 6/30/2019 11:00 26.2 20.9 72.38 0 0 6.9 98 1016.8 79.4 15.8
DallasTexas 6/30/2019 12:00 26.9 20.9 69.54 0 0 12 150 1016.8 83.5 15.8
DallasTexas 6/30/2019 13:00 27.9 20.8 65.69 0 0 10.2 122 1016.4 64.1 15.8
DallasTexas 6/30/2019 14:00 28.9 20.4 59.95 0 0 8 120 1015.8 55.8 16
DallasTexas 6/30/2019 15:00 29.8 19.9 55.33 0 0 6.7 105 1015.1 60 16
DallasTexas 6/30/2019 16:00 29.9 20.5 57.19 0 0 15 106 1014.5 57.8 15.8
DallasTexas 6/30/2019 17:00 29.1 20.8 60.92 0 0 14.1 131 1014 58.6 16
DallasTexas 6/30/2019 18:00 29 20.3 59.46 0 0 15.3 106 1013.7 60.1 16
DallasTexas 6/30/2019 19:00 28.6 20.3 60.75 0 0 15.7 113 1013.4 54.2 16
DallasTexas 6/30/2019 20:00 27.8 20.4 64.1 0 0 12.9 130 1013.5 16.3 16
DallasTexas 6/30/2019 21:00 26.9 20.5 68.05 0 0 9.2 108 1014.1 15 16
DallasTexas 6/30/2019 22:00 26.1 20.7 72.22 0 0 8.4 121 1014.6 17 16
DallasTexas 6/30/2019 23:00 25.6 20.8 74.83 0 0 7.8 130 1015 19.3 16
DallasTexas 7/1/2019 0:00 25.2 20.6 75.96 0 0 6.5 141 1015.2 16.7 16
DallasTexas 7/1/2019 1:00 24.8 20.6 77.38 0 0 6 104 1016 14.9 16
DallasTexas 7/1/2019 2:00 24.4 20.8 80.02 0 0 8.9 115 1015.6 15 16
DallasTexas 7/1/2019 3:00 23.6 20.8 84.43 0 0 7.8 126 1015.7 17.1 16
DallasTexas 7/1/2019 4:00 23.4 21 86.6 0 0 9.2 129 1015.5 21 16
DallasTexas 7/1/2019 5:00 23.2 21.2 88.32 0 0 7.2 145 1015.5 26.9 15.8
DallasTexas 7/1/2019 6:00 23 21.2 90.05 0 0 5.8 115 1015.7 27.4 15.4
DallasTexas 7/1/2019 7:00 23 21.3 90.23 0 0 2.8 74 1016.2 33.1 15.2
DallasTexas 7/1/2019 8:00 23.9 21.8 88.45 0 0 10.3 347 1016.4 52 15.8
DallasTexas 7/1/2019 9:00 25.9 21.8 78.21 0 0 11.5 175 1016.4 43.4 16
DallasTexas 7/1/2019 10:00 27.3 21.2 69.02 0 0 15.7 190 1016 19.9 16
DallasTexas 7/1/2019 11:00 28.7 21.5 65.09 0 0 12.6 172 1015.8 48.8 16
DallasTexas 7/1/2019 12:00 29.1 20.8 61.08 0 0 9.8 184 1015.8 49.5 16
DallasTexas 7/1/2019 13:00 30.2 21 57.94 0 0 11.2 169 1015.5 66.6 16
DallasTexas 7/1/2019 14:00 30.8 20.6 54.68 0 0 12.7 193 1014.8 60.1 15.7
DallasTexas 7/1/2019 15:00 31 20.5 53.73 0 0 13.1 201 1014.2 57.5 16
DallasTexas 7/1/2019 16:00 32 20.7 51.35 0 0 14.6 154 1013.5 50.4 16
DallasTexas 7/1/2019 17:00 31.8 21.1 53.01 0.02 0 15.5 147 1013 50.3 15.8
DallasTexas 7/1/2019 18:00 31.1 20.8 54.59 0.01 0 17.6 168 1012.8 54.6 15.9
DallasTexas 7/1/2019 19:00 28.6 20.5 61.37 0.01 0 19.8 177 1013 65.3 16
DallasTexas 7/1/2019 20:00 26.4 21.3 73.71 0.16 0 13.1 136 1013.1 24.9 16
DallasTexas 7/1/2019 21:00 26.2 22.2 78.3 0 0 13.5 136 1013.2 26.7 16
DallasTexas 7/1/2019 22:00 26.2 22.2 78.59 0 0 15 134 1013.6 19.6 16
DallasTexas 7/1/2019 23:00 25.7 22.3 81.47 0 0 15.3 142 1013.6 23.9 16
DallasTexas 7/2/2019 0:00 25.3 22.2 83.28 0 0 14.6 144 1014 15.9 16
DallasTexas 7/2/2019 1:00 25 22.2 84.41 0 0 12.7 157 1014.3 24.8 16
DallasTexas 7/2/2019 2:00 24.8 22.2 85.76 0 0 13.6 156 1014.3 54.1 16
DallasTexas 7/2/2019 3:00 24.7 22.1 85.71 0 0 10.4 153 1014.3 84.7 16
DallasTexas 7/2/2019 4:00 24.5 22.1 86.81 0 0 12.6 161 1014.2 74.7 16
DallasTexas 7/2/2019 5:00 24.4 22.2 87.23 0 0 15.1 166 1014.2 88.1 16
DallasTexas 7/2/2019 6:00 24.2 22.2 88.4 0 0 12.3 165 1014.4 59.1 15.8
DallasTexas 7/2/2019 7:00 23.9 22.2 90.14 0 0 12.9 24 1014.6 32 15.9
DallasTexas 7/2/2019 8:00 24.8 22.3 86.23 0 0 12.9 176 1014.8 45.2 15.9
DallasTexas 7/2/2019 9:00 26.3 22.4 79.54 0 0 13.1 203 1015.6 79.2 16
DallasTexas 7/2/2019 10:00 27.7 22 71.13 0 0 15 217 1015.3 69.7 16
DallasTexas 7/2/2019 11:00 29.2 22.2 65.81 0 0 15.9 197 1014.7 47.3 16
DallasTexas 7/2/2019 12:00 29.6 21.5 61.85 0 0 12.9 193 1014.4 61.8 16
DallasTexas 7/2/2019 13:00 29.9 21.1 59.33 0 0 13.6 189 1014.1 66.3 16
DallasTexas 7/2/2019 14:00 30.9 21.8 58.43 0 0 14.6 179 1013.6 48.2 16
DallasTexas 7/2/2019 15:00 31.5 21.2 54.37 0 0 15.2 165 1012.9 64.9 16
DallasTexas 7/2/2019 16:00 32.3 21.5 53.01 0 0 13.9 154 1012.2 56.2 16
DallasTexas 7/2/2019 17:00 32.5 20.4 49.01 0 0 17.6 150 1011.5 54.5 16
DallasTexas 7/2/2019 18:00 32.8 20.5 48.3 0 0 21.2 147 1011 32.9 16
DallasTexas 7/2/2019 19:00 32.1 20.3 49.78 0 0 19.6 155 1011 28.4 16
DallasTexas 7/2/2019 20:00 30.9 21.2 56.26 0 0 17.1 161 1011.2 17.7 16
DallasTexas 7/2/2019 21:00 29 20.9 61.75 0 0 26 163 1011.6 30.6 16
DallasTexas 7/2/2019 22:00 26.7 20.1 66.77 0 0 17.9 165 1012.1 13.5 16
DallasTexas 7/2/2019 23:00 25.6 20.5 73.36 0 0 16 168 1013 13.5 16
DallasTexas 7/3/2019 0:00 25.2 20.7 76.52 0 0 13.1 153 1013.4 23.3 16
DallasTexas 7/3/2019 1:00 24.6 20.8 78.98 0 0 10.8 41 1013.2 13.5 16
DallasTexas 7/3/2019 2:00 23.9 20.9 83.29 0 0 10.6 15 1012.4 13.5 16
DallasTexas 7/3/2019 3:00 23.3 21 87.06 0 0 8.8 23 1012 1.8 16
DallasTexas 7/3/2019 4:00 23.3 21.2 87.93 0 0 10.2 161 1012.1 12.5 15.9
DallasTexas 7/3/2019 5:00 23 21.3 90.02 0 0 11.9 160 1012.4 32.3 15.9
DallasTexas 7/3/2019 6:00 23.3 21.3 88.51 0 0 15.3 175 1012.6 79 15.9
DallasTexas 7/3/2019 7:00 23.7 21.3 86.75 0 0 13.4 321 1012.6 33.3 15.9
DallasTexas 7/3/2019 8:00 24.1 21.8 87.31 0 0 13.9 170 1013.4 88 16
DallasTexas 7/3/2019 9:00 25.4 21.9 80.95 0 0 15.7 179 1013.5 89.9 16
DallasTexas 7/3/2019 10:00 26.8 21.9 74.44 0 0 18 174 1013.9 92.3 16
DallasTexas 7/3/2019 11:00 27.7 22.1 71.63 0 0 17.7 177 1013.8 82.8 16
DallasTexas 7/3/2019 12:00 28.5 21.8 67.1 0 0 13.9 176 1013.5 71.2 16
DallasTexas 7/3/2019 13:00 30.4 22.1 61.29 0 0 15.2 161 1013 65.4 16
DallasTexas 7/3/2019 14:00 31.4 21.9 56.85 0 0 18.9 177 1012.4 54.5 15.9
DallasTexas 7/3/2019 15:00 31.9 21.5 53.95 0 0 17.4 172 1011.5 63.5 16
DallasTexas 7/3/2019 16:00 32.7 21.4 51.65 0 0 18.5 164 1010.9 51.9 16
DallasTexas 7/3/2019 17:00 32.7 21.2 50.78 0 0 20 158 1010.3 50.2 16
DallasTexas 7/3/2019 18:00 32.4 21.5 52.63 0 0 19.4 156 1010.4 44.2 16
DallasTexas 7/3/2019 19:00 29.8 21.7 61.57 0 0 26.5 156 1010.4 26.5 16
DallasTexas 7/3/2019 20:00 28.6 21.2 64.38 0 0 22.7 157 1010.5 18.3 16
DallasTexas 7/3/2019 21:00 27.4 21 68.19 0 0 16.4 155 1010.5 14.2 16
DallasTexas 7/3/2019 22:00 26.7 21.2 72.13 0 0 16.5 164 1011.5 19.1 16
DallasTexas 7/3/2019 23:00 25.8 21.8 78.42 0 0 16.2 149 1012.4 27.1 16
DallasTexas 7/4/2019 0:00 25.2 22 82.28 0 0 17 152 1012.2 41.4 16
DallasTexas 7/4/2019 1:00 24.9 22.3 85.47 0 0 12.4 163 1012.4 23.7 15.9
DallasTexas 7/4/2019 2:00 24.9 22.9 88.46 0 0 15.9 164 1011.8 44 15.9
DallasTexas 7/4/2019 3:00 24.9 23 89.13 0 0 16.8 168 1011.5 61.2 15.7
DallasTexas 7/4/2019 4:00 25.2 23.1 87.86 0 0 16.8 170 1011.5 94.1 15.7
DallasTexas 7/4/2019 5:00 25.5 23.3 87.36 0 0 19.7 182 1011.7 93 15.3
DallasTexas 7/4/2019 6:00 25.6 23.3 87.2 0 0 19.1 178 1011.6 91.6 14.2
DallasTexas 7/4/2019 7:00 25.8 23.3 85.94 0 0 17.2 175 1012 90.1 14.1
DallasTexas 7/4/2019 8:00 26.3 23.5 84.85 0 0 16.1 175 1012.6 93.1 15.1
DallasTexas 7/4/2019 9:00 27.5 23.2 77.04 0 0 16.5 184 1013.2 78 15.7
DallasTexas 7/4/2019 10:00 28.6 22.9 71.11 0 0 17.9 183 1013.5 84.3 15.8
DallasTexas 7/4/2019 11:00 30.3 22.3 62.48 0 0 23 178 1013.3 45.4 16
DallasTexas 7/4/2019 12:00 31 22.3 59.67 0 0 21.6 181 1013.4 40.9 16
DallasTexas 7/4/2019 13:00 31.7 22.1 56.94 0 0 21.3 180 1013.4 54.9 15.9
DallasTexas 7/4/2019 14:00 32 22.2 56.34 0 0 23.1 177 1013.1 66.2 16
DallasTexas 7/4/2019 15:00 32.8 22.1 53.66 0 0 23.9 175 1012.5 61.2 15.9
DallasTexas 7/4/2019 16:00 32.9 22.5 54.57 0 0 27.1 157 1012.1 67 15.9
DallasTexas 7/4/2019 17:00 30.8 22.8 62.15 2.51 0 19.4 145 1011.9 52.7 14.6
DallasTexas 7/4/2019 18:00 32.5 21.4 51.93 0 0 26.1 170 1011.5 23.1 15.9
DallasTexas 7/4/2019 19:00 32 21.7 54.38 0 0 25.2 157 1011.5 34.2 16
DallasTexas 7/4/2019 20:00 31.2 21.1 55.07 0 0 19.5 164 1012 13.7 15.9
DallasTexas 7/4/2019 21:00 30.1 20.8 57.56 0 0 14.3 160 1012.1 13.7 16
DallasTexas 7/4/2019 22:00 29.4 21.3 61.57 0 0 15.4 156 1012.6 11.8 15.9
DallasTexas 7/4/2019 23:00 28.7 21.4 64.43 0 0 15.2 155 1013.4 11.8 14.4
DallasTexas 7/5/2019 0:00 27.9 22 70.23 0 0 15.7 162 1013.9 0 15
DallasTexas 7/5/2019 1:00 27.4 21.7 71.2 0 0 18.3 178 1014.2 0 15.8
DallasTexas 7/5/2019 2:00 26.8 21.8 73.89 0 0 19 181 1014.4 0 16
DallasTexas 7/5/2019 3:00 26.1 21.9 77.61 0 0 16.8 174 1014.4 1.5 16
DallasTexas 7/5/2019 4:00 25.7 22.3 81.52 0 0 17.5 168 1014.4 17.8 15.9
DallasTexas 7/5/2019 5:00 25.3 22.8 86.19 0 0 17.4 164 1014.7 34.2 15.7
DallasTexas 7/5/2019 6:00 25.3 22.9 86.39 0 0 15 169 1015 70.9 14.8
DallasTexas 7/5/2019 7:00 25.5 22.9 85.52 0 0 13.5 172 1015.5 88.3 14.6
DallasTexas 7/5/2019 8:00 26 22.9 83.26 0 0 16.8 181 1016.3 85.4 15.8
DallasTexas 7/5/2019 9:00 26.9 22.4 76.33 0 0 17.1 180 1016.7 86.8 15.8
DallasTexas 7/5/2019 10:00 28.3 22.3 70.28 0 0 22.5 188 1017.1 85.7 15.8
DallasTexas 7/5/2019 11:00 29.9 21.9 62.51 0 0 21.3 187 1016.9 82 16
DallasTexas 7/5/2019 12:00 30.5 21.7 59.56 0 0 20 186 1017.1 75.7 16
DallasTexas 7/5/2019 13:00 31.4 22.4 58.7 0 0 23.2 186 1017 74.5 16
DallasTexas 7/5/2019 14:00 32.3 22 54.74 0 0 20.4 191 1016.6 78.2 16
DallasTexas 7/5/2019 15:00 32.7 22.4 54.83 0 0 20.1 172 1016 74 16
DallasTexas 7/5/2019 16:00 33.1 22 52.39 0 0 17.8 185 1015.6 73.1 16
DallasTexas 7/5/2019 17:00 33.4 22.2 51.86 0 0 17.3 183 1015 44.2 16
DallasTexas 7/5/2019 18:00 33.6 21.5 49.27 0 0 17.9 176 1014.5 27.2 16
DallasTexas 7/5/2019 19:00 33.3 20.8 47.9 0 0 20.9 161 1014.9 23.4 16
DallasTexas 7/5/2019 20:00 32.5 21.1 51.37 0 0 15.2 151 1015.2 28.1 16
DallasTexas 7/5/2019 21:00 31.1 21.4 56.34 0 0 13.1 143 1015.1 18.9 16
DallasTexas 7/5/2019 22:00 30.1 22 61.77 0 0 12.1 134 1016 23.9 16
DallasTexas 7/5/2019 23:00 29.6 22.3 65 0 0 14.2 131 1016.2 23.3 16
DallasTexas 7/6/2019 0:00 28.7 22.9 70.96 0 0 11.9 155 1016.5 23.3 16
DallasTexas 7/6/2019 1:00 28.1 22.9 73.48 0 0 14.6 161 1016.5 13.5 16
DallasTexas 7/6/2019 2:00 27.5 22.7 74.96 0 0 13.7 245 1016.6 11.8 16
DallasTexas 7/6/2019 3:00 27.1 22.4 75.6 0 0 10.7 22 1017 13.5 16
DallasTexas 7/6/2019 4:00 26.7 22.4 77.39 0 0 11.5 241 1016.8 24.7 16
DallasTexas 7/6/2019 5:00 26 22.4 80.21 0 0 10.6 235 1016.9 41.5 16
DallasTexas 7/6/2019 6:00 25.9 22.4 80.68 0 0 8.1 209 1017.7 42.8 16
DallasTexas 7/6/2019 7:00 25.4 22.6 84.52 0 0 10.1 228 1018 26.2 15.3
DallasTexas 7/6/2019 8:00 26 23 83.39 0 0 12.2 182 1018.1 22.7 15.7
DallasTexas 7/6/2019 9:00 27.3 23 77.38 0 0 12.9 203 1018.6 44.7 16
DallasTexas 7/6/2019 10:00 27.9 22.5 72.19 0 0 14.7 218 1018.9 54 16
DallasTexas 7/6/2019 11:00 29.3 22.6 67.12 0 0 13.5 205 1018.6 32.6 16
DallasTexas 7/6/2019 12:00 30.7 22 59.91 0 0 11.5 224 1018.8 50.1 16
DallasTexas 7/6/2019 13:00 31.8 21.6 54.81 0 0 5.9 268 1018.3 33.6 16
DallasTexas 7/6/2019 14:00 33 21.6 51.15 0 0 11.3 201 1017.6 49.8 16
DallasTexas 7/6/2019 15:00 33.6 21.6 49.38 0 0 12.2 198 1016.1 31.1 16
DallasTexas 7/6/2019 16:00 33.7 20.6 46.18 0 0 15 189 1015.1 22.4 16
DallasTexas 7/6/2019 17:00 34.2 20.2 43.95 0 0 12.3 175 1015 33.2 16
DallasTexas 7/6/2019 18:00 33.5 19.9 45.05 0.12 0 11.2 266 1015.1 39.1 16
DallasTexas 7/6/2019 19:00 27.6 21.3 68.8 0.51 0 24.9 339 1017.1 78 15
DallasTexas 7/6/2019 20:00 25.9 19 65.84 1.34 0 11.3 64 1016.5 28.3 15.8
DallasTexas 7/6/2019 21:00 25.5 20 71.91 0.02 0 4.6 79 1014.8 42.8 16
DallasTexas 7/6/2019 22:00 25.4 20.8 75.49 0.05 0 5.6 334 1016 32.1 16
DallasTexas 7/6/2019 23:00 26.1 20.8 72.96 0 0 5.7 103 1015.9 39.5 16
DallasTexas 7/7/2019 0:00 26 20.8 73.21 0 0 4.7 58 1015.8 28.6 16
DallasTexas 7/7/2019 1:00 25.9 21.3 75.78 0 0 4.9 64 1015.9 43.9 16
DallasTexas 7/7/2019 2:00 25.7 21.6 78.29 0 0 0.2 2 1015.8 43.5 16
DallasTexas 7/7/2019 3:00 25.7 21.7 78.78 0 0 4 93 1015.3 44.6 16
DallasTexas 7/7/2019 4:00 25.2 21.7 80.95 0 0 5.7 135 1015 43.9 16
DallasTexas 7/7/2019 5:00 25.7 21.8 79.37 0 0 5.7 39 1015.3 29.7 16
DallasTexas 7/7/2019 6:00 25.8 21.8 78.55 0 0 4.9 216 1015.7 30 16
DallasTexas 7/7/2019 7:00 26.1 22 78.23 0 0 9.3 234 1016.1 30 16
DallasTexas 7/7/2019 8:00 26.7 22.4 77.48 0 0 9.9 254 1016.5 35.2 16
DallasTexas 7/7/2019 9:00 28.2 22.4 70.88 0 0 12.2 227 1016.7 28.1 16
DallasTexas 7/7/2019 10:00 29.7 22.5 65.19 0 0 15.6 229 1016.8 42 16
DallasTexas 7/7/2019 11:00 31.3 22.9 61.11 0 0 14.2 212 1016.4 33.5 16
DallasTexas 7/7/2019 12:00 32.3 22.6 56.6 0 0 14.8 225 1015.8 29.7 16
DallasTexas 7/7/2019 13:00 33.1 22.2 52.78 0 0 5.1 310 1015.4 38.9 16
DallasTexas 7/7/2019 14:00 34.1 22 49.19 0 0 7.8 323 1014.6 42.1 16
DallasTexas 7/7/2019 15:00 34.6 21.6 46.79 0 0 4.3 355 1013.7 54.2 15.9
DallasTexas 7/7/2019 16:00 34.7 20.4 43.41 0 0 2.8 25 1012.9 31.4 16
DallasTexas 7/7/2019 17:00 35.5 21.3 43.73 0 0 12.6 139 1012.2 26.3 16
DallasTexas 7/7/2019 18:00 34.6 20.2 43.12 0 0 15.4 151 1011.9 31.1 16
DallasTexas 7/7/2019 19:00 33.7 20.7 46.81 0 0 17.2 144 1011.9 29.4 16
DallasTexas 7/7/2019 20:00 32.7 20.5 48.53 0 0 17.2 153 1011.8 27.8 16
DallasTexas 7/7/2019 21:00 31.4 21.7 56.31 0 0 13 160 1012.7 23.4 16
DallasTexas 7/7/2019 22:00 30.1 22.5 63.93 0 0 14.2 158 1012.4 19.6 16
DallasTexas 7/7/2019 23:00 29.3 22.9 68.23 0 0 13.5 161 1012.8 25.3 16
DallasTexas 7/8/2019 0:00 28.7 22.9 71.01 0 0 10.6 121 1013.1 25.3 16
DallasTexas 7/8/2019 1:00 28.3 22.4 70.32 0 0 10 242 1013 42 16
DallasTexas 7/8/2019 2:00 27.7 22.4 72.72 0 0 9.2 41 1012.5 42 16
DallasTexas 7/8/2019 3:00 27.3 22.4 74.55 0 0 8.4 31 1012.5 28.6 16
DallasTexas 7/8/2019 4:00 26.7 22.4 77.39 0 0 5.8 126 1012.4 29 16
DallasTexas 7/8/2019 5:00 26.4 22.4 78.67 0 0 6.5 142 1012.6 20.4 16
DallasTexas 7/8/2019 6:00 26 22.7 82.04 0 0 5.1 106 1013.1 27.8 15.8
DallasTexas 7/8/2019 7:00 26.1 22.7 81.42 0 0 6.4 129 1013.3 28.1 15.4
DallasTexas 7/8/2019 8:00 26.7 23 80.18 0 0 8 116 1013.5 28.1 16
DallasTexas 7/8/2019 9:00 28 23 74.36 0 0 9.1 196 1014 19.6 16
DallasTexas 7/8/2019 10:00 30 22.3 63.28 0 0 11.8 206 1013.9 27.8 16
DallasTexas 7/8/2019 11:00 31.3 21.6 56.49 0 0 13.2 224 1013.9 27.8 16
DallasTexas 7/8/2019 12:00 32.6 21.4 51.51 0 0 13.3 218 1013.5 22.6 16
DallasTexas 7/8/2019 13:00 33.3 21.3 49.58 0 0 9.2 258 1013.1 41.6 16
DallasTexas 7/8/2019 14:00 33.9 21.1 47.38 0 0 15.9 178 1012.4 62.2 16
DallasTexas 7/8/2019 15:00 34.3 21.1 46.21 0 0 16 153 1011.6 57 16
DallasTexas 7/8/2019 16:00 34.1 21.1 46.85 0 0 19.5 162 1011.5 46.4 16
DallasTexas 7/8/2019 17:00 32.2 21.5 53.08 0 0 22.4 235 1011.5 66.9 16
DallasTexas 7/8/2019 18:00 29.7 21.4 61.19 0 0 14.3 255 1011.6 30.6 16
DallasTexas 7/8/2019 19:00 29.1 20.9 61.33 0.02 0 4.7 263 1010.8 23.1 16
DallasTexas 7/8/2019 20:00 28.8 20.8 62.19 0 0 5.2 239 1011.5 21.4 16
DallasTexas 7/8/2019 21:00 27.9 20.2 62.9 0 0 6.2 222 1011.7 20.6 16
DallasTexas 7/8/2019 22:00 27.4 20.4 65.7 0 0 7.2 113 1011.7 28.6 16
DallasTexas 7/8/2019 23:00 26.7 20.5 68.88 0 0 6.4 147 1011.4 18.3 16
DallasTexas 7/9/2019 0:00 26.7 20 66.86 0 0 6.7 156 1011.6 18.3 16
DallasTexas 7/9/2019 1:00 26.5 20.2 68.31 0 0 6.9 330 1011.8 40.7 16
DallasTexas 7/9/2019 2:00 26.6 20.5 68.97 0 0 6.1 21 1011.3 32.3 16
DallasTexas 7/9/2019 3:00 26.4 20.7 70.99 0 0 7.4 153 1010.9 31.3 16
DallasTexas 7/9/2019 4:00 26.2 21 73.31 0 0 12 175 1010.9 38.6 16
DallasTexas 7/9/2019 5:00 26.5 21.2 72.68 0 0 11.5 179 1011.2 32.4 16
DallasTexas 7/9/2019 6:00 26.4 21.2 72.8 0 0 12.8 174 1011.7 42.8 16
DallasTexas 7/9/2019 7:00 26 21.4 76.03 0 0 10.5 117 1012.2 42.4 16
DallasTexas 7/9/2019 8:00 26.4 22.1 77.24 0 0 12.5 169 1012.7 46.2 16
DallasTexas 7/9/2019 9:00 27 22.6 76.9 0 0 16.5 166 1013.3 61.5 16
DallasTexas 7/9/2019 10:00 28.7 23.4 73.21 0 0 16.2 174 1013.1 48.1 16
DallasTexas 7/9/2019 11:00 30.4 23.6 67.17 0 0 16.5 188 1013.3 35.2 16
DallasTexas 7/9/2019 12:00 31.6 23.7 62.93 0 0 18.3 158 1013 23.6 16
DallasTexas 7/9/2019 13:00 33.1 23.7 57.81 0 0 15.9 157 1012.8 23.4 16
DallasTexas 7/9/2019 14:00 34.5 23.2 51.87 0 0 17.8 158 1012 18 16
DallasTexas 7/9/2019 15:00 35.4 23 48.93 0 0 20.6 162 1011.4 14.4 16
DallasTexas 7/9/2019 16:00 35.5 22.6 47.38 0 0 23.5 167 1011.2 14.2 16
DallasTexas 7/9/2019 17:00 35.3 22.9 48.84 0 0 22.2 166 1010.7 13.5 15.9
DallasTexas 7/9/2019 18:00 34.9 22.4 48.44 0 0 20.7 162 1010.2 13.5 16
DallasTexas 7/9/2019 19:00 34.4 22.5 50.3 0 0 19.9 149 1010.2 13.5 16
DallasTexas 7/9/2019 20:00 33.2 22.4 53.24 0 0 19.7 152 1010.5 13.7 16
DallasTexas 7/9/2019 21:00 31.8 22.8 58.79 0 0 18.3 148 1011.1 13.5 16
DallasTexas 7/9/2019 22:00 30.9 23 62.74 0 0 13.6 152 1011.8 11.8 16
DallasTexas 7/9/2019 23:00 30 23.3 67.27 0 0 13.2 139 1012.5 17.4 16
DallasTexas 7/10/2019 0:00 29.4 23.1 68.84 0 0 14.9 155 1012.7 17.4 16
DallasTexas 7/10/2019 1:00 28.8 23.2 71.44 0 0 14.2 152 1012.7 19.1 16
DallasTexas 7/10/2019 2:00 28.5 23.1 72.57 0 0 12.3 148 1012.7 35.4 16
DallasTexas 7/10/2019 3:00 28 22.9 74.06 0 0 9.1 152 1012.8 19.1 16
DallasTexas 7/10/2019 4:00 27.3 23.2 78.22 0 0 8.8 151 1012.9 15 16
DallasTexas 7/10/2019 5:00 27 23.2 79.73 0 0 8.3 258 1013.2 13.5 16
DallasTexas 7/10/2019 6:00 26.7 23.3 82.02 0 0 7.6 30 1013.4 16.1 15.9
DallasTexas 7/10/2019 7:00 26.7 23.4 82.25 0 0 8.1 25 1013.7 31.7 15.5
DallasTexas 7/10/2019 8:00 27.5 23.7 79.61 0 0 10.2 163 1014 17.8 15.8
DallasTexas 7/10/2019 9:00 29 24 74.49 0 0 14.3 161 1014.6 17.3 16
DallasTexas 7/10/2019 10:00 30.8 24.1 67.56 0 0 11.2 170 1014.6 16.7 16
DallasTexas 7/10/2019 11:00 32.4 24 61.35 0 0 14.4 173 1014.2 15.4 16
DallasTexas 7/10/2019 12:00 33.5 24.2 58.43 0 0 12.9 154 1014.5 17.9 16
DallasTexas 7/10/2019 13:00 34.3 23.7 54.11 0 0 9.3 134 1014.7 26 16
DallasTexas 7/10/2019 14:00 35.1 23.8 51.98 0 0 13.2 154 1014.2 28 16
DallasTexas 7/10/2019 15:00 35.2 23.4 50.59 0 0 12.6 152 1013.5 57.5 16
DallasTexas 7/10/2019 16:00 35.6 23.2 48.95 0 0 15.6 133 1012.6 49.2 16
DallasTexas 7/10/2019 17:00 35.8 23.2 48.26 0 0 15.7 135 1012.5 33.2 15.9
DallasTexas 7/10/2019 18:00 34.9 22.6 48.94 0 0 15.9 112 1012.4 34.5 16
DallasTexas 7/10/2019 19:00 26 20.6 71.87 1.66 0 26.8 328 1014.6 67.7 13.9
DallasTexas 7/10/2019 20:00 24.6 21.4 82.06 2.29 0 10.1 283 1013.8 41.9 15.8
DallasTexas 7/10/2019 21:00 24.3 21.3 83.15 0 0 7.5 8 1014.9 30.8 15.9
DallasTexas 7/10/2019 22:00 24.4 20.8 79.94 0.45 0 4.7 57 1015.2 30.1 16
DallasTexas 7/10/2019 23:00 25.7 21.3 76.53 0 0 15.2 84 1015.9 29.2 16
DallasTexas 7/11/2019 0:00 24.9 21.2 80.16 0 0 5.6 277 1015.5 33.8 16
DallasTexas 7/11/2019 1:00 25 21.3 80.05 0 0 0.3 351 1014.8 28.2 16
DallasTexas 7/11/2019 2:00 24.6 21.6 83.17 0 0 5.6 284 1014.3 43.1 16
DallasTexas 7/11/2019 3:00 24.6 21.7 83.56 0 0 10.6 308 1014.1 42 16
DallasTexas 7/11/2019 4:00 24.2 21.4 84.66 0 0 11.3 322 1013.8 25.3 16
DallasTexas 7/11/2019 5:00 24.1 21.5 85.76 0 0 5.4 343 1014.3 27.8 16
DallasTexas 7/11/2019 6:00 23.9 21.6 87.24 0 0 10 338 1015.2 28.6 16
DallasTexas 7/11/2019 7:00 24.4 21.8 85.56 1.75 0 13.7 346 1015.5 23.4 16
DallasTexas 7/11/2019 8:00 26 21.9 77.99 0 0 14.8 357 1016.3 70.7 16
DallasTexas 7/11/2019 9:00 27.3 21.3 70.12 0 0 15.1 4 1016.6 51.9 16
DallasTexas 7/11/2019 10:00 28.8 20.4 60.81 0 0 13.5 17 1016.1 40.6 16
DallasTexas 7/11/2019 11:00 30.9 20.6 54.38 0 0 14.8 26 1015.4 22.4 16
DallasTexas 7/11/2019 12:00 32.5 21 50.79 0 0 16.4 20 1014.9 13.5 16
DallasTexas 7/11/2019 13:00 33.5 19.7 44.41 0 0 18.5 25 1014.4 13.5 16
DallasTexas 7/11/2019 14:00 34.2 19.3 41.49 0 0 12.6 26 1013.7 13.5 16
DallasTexas 7/11/2019 15:00 35.3 18.1 36.14 0 0 16 42 1013.1 14.2 16
DallasTexas 7/11/2019 16:00 35.7 18.1 35.39 0 0 15.9 42 1012.6 14.2 16
DallasTexas 7/11/2019 17:00 35.7 18.6 36.56 0 0 16.5 45 1011.6 14.2 16
DallasTexas 7/11/2019 18:00 35.2 18.5 37.38 0 0 10.9 60 1011.2 17.6 16
DallasTexas 7/11/2019 19:00 34.5 18.2 38.13 0 0 14.7 42 1010.9 13.5 16
DallasTexas 7/11/2019 20:00 33.3 18.9 42.84 0 0 10.9 41 1011.2 13.7 16
DallasTexas 7/11/2019 21:00 31.8 19.7 48.77 0 0 10.1 32 1011 18.5 16
DallasTexas 7/11/2019 22:00 30.7 20.5 54.44 0 0 8.3 37 1011.3 13.5 16
DallasTexas 7/11/2019 23:00 29.7 21.3 60.65 0 0 9.6 33 1011.9 11.8 16
DallasTexas 7/12/2019 0:00 29 19.9 57.92 0 0 10.6 44 1012.6 11.8 16
DallasTexas 7/12/2019 1:00 28.1 18.7 56.71 0 0 11.5 40 1012.7 11.8 16
DallasTexas 7/12/2019 2:00 27.1 18.6 59.68 0 0 12.1 39 1012.5 13.5 16
DallasTexas 7/12/2019 3:00 26.3 18.3 61.62 0 0 8.4 28 1012.1 23.3 16
DallasTexas 7/12/2019 4:00 25.1 18.5 67.17 0 0 6.8 8 1011.8 13.5 16
DallasTexas 7/12/2019 5:00 24.5 18.6 69.5 0 0 7 1 1011.5 11.8 16
DallasTexas 7/12/2019 6:00 23.6 18.6 73.8 0 0 6.7 6 1011.7 11.8 16
DallasTexas 7/12/2019 7:00 23.5 18.8 75.05 0 0 7.2 355 1011.8 13.7 16
DallasTexas 7/12/2019 8:00 25.7 18.8 65.77 0 0 10.5 16 1012.1 23.5 16
DallasTexas 7/12/2019 9:00 27.3 18.7 59.3 0 0 11.9 41 1012.4 23.3 16
DallasTexas 7/12/2019 10:00 28.4 19.3 57.75 0 0 10.8 79 1012.5 23.3 16
DallasTexas 7/12/2019 11:00 29.7 19.5 54.62 0 0 11.3 97 1012.6 44.8 16
DallasTexas 7/12/2019 12:00 30.7 18.9 49.63 0 0 9 43 1012.5 64.9 16
DallasTexas 7/12/2019 13:00 31.8 18.5 45.32 0 0 9.9 14 1012.2 57.3 16
DallasTexas 7/12/2019 14:00 32.4 17.6 41.24 0 0 10.4 54 1011.7 53.1 16
DallasTexas 7/12/2019 15:00 33.4 17.2 38.03 0 0 13.5 62 1011 46 16
DallasTexas 7/12/2019 16:00 33.4 16.8 37.06 0 0 14.5 46 1010.2 33.7 16
DallasTexas 7/12/2019 17:00 33.4 16.9 37.54 0 0 14.3 46 1009.5 22.1 16
DallasTexas 7/12/2019 18:00 33.2 17.1 38.28 0 0 15.2 34 1009.2 15.6 16
DallasTexas 7/12/2019 19:00 32.5 16.9 39.49 0 0 15.7 63 1009 15.5 16
DallasTexas 7/12/2019 20:00 31.2 16.6 41.59 0 0 14.1 36 1009.4 14.4 16
DallasTexas 7/12/2019 21:00 29.6 16.7 45.79 0 0 10.9 46 1009.8 14.3 16
DallasTexas 7/12/2019 22:00 28.7 17 49.15 0 0 10.1 40 1010.2 14.7 16
DallasTexas 7/12/2019 23:00 27.9 17.3 52.43 0 0 8 53 1010.9 23.9 16
DallasTexas 7/13/2019 0:00 27.1 17.6 56.12 0 0 7.5 56 1010.9 42.7 15.8
DallasTexas 7/13/2019 1:00 25.9 17.8 61.11 0 0 5.2 25 1010.9 50.9 15.9
DallasTexas 7/13/2019 2:00 25.5 18.1 63.76 0 0 6.5 13 1010.6 41.7 16
DallasTexas 7/13/2019 3:00 25 18.3 66.67 0 0 8.7 352 1010.5 66.5 16
DallasTexas 7/13/2019 4:00 25 18.5 67.33 0 0 8.4 356 1010.4 60.3 16
DallasTexas 7/13/2019 5:00 24.8 18.6 68.32 0 0 7.1 8 1010.6 68 16
DallasTexas 7/13/2019 6:00 24.9 18.9 69.54 0 0 8 6 1010.6 70.3 16
DallasTexas 7/13/2019 7:00 24.9 19.1 70.01 0 0 9.7 348 1010.9 54.1 16
DallasTexas 7/13/2019 8:00 26.3 19.6 66.66 0 0 11.5 351 1011.6 25.6 16
DallasTexas 7/13/2019 9:00 28 20 62.08 0 0 13.6 360 1011.9 13.5 16
DallasTexas 7/13/2019 10:00 29.2 20.8 60.47 0 0 15.1 25 1011.8 17.4 16
DallasTexas 7/13/2019 11:00 30.7 21.6 58.24 0 0 16.4 20 1011.7 38.6 16
DallasTexas 7/13/2019 12:00 31.5 21.7 56.12 0 0 17.1 20 1011.5 67.8 16
DallasTexas 7/13/2019 13:00 32 21.6 54.28 0 0 20.3 20 1011.4 82.3 16
DallasTexas 7/13/2019 14:00 33.1 21.7 51.2 0 0 21.8 21 1010.7 74.8 16
DallasTexas 7/13/2019 15:00 33.5 21.4 49.11 0 0 22.6 31 1010.3 71.4 16
DallasTexas 7/13/2019 16:00 33.4 21.8 50.67 0 0 22.2 22 1009.8 68.2 16
DallasTexas 7/13/2019 17:00 33.9 22.2 50.42 0 0 21.4 35 1009.7 53.3 16
DallasTexas 7/13/2019 18:00 33.1 22.3 53.17 0 0 16.8 29 1009.4 47.4 16
DallasTexas 7/13/2019 19:00 32.9 21.9 52.39 0 0 19.8 33 1009.1 29 16
DallasTexas 7/13/2019 20:00 32.2 21.8 54.31 0 0 16 30 1009.4 55.1 16
DallasTexas 7/13/2019 21:00 31.1 22 58.46 0 0 14.8 45 1009.8 42.1 16
DallasTexas 7/13/2019 22:00 30.4 22.4 62.33 0 0 11.4 33 1009.9 53 16
DallasTexas 7/13/2019 23:00 29.4 22 64.46 0 0 13 55 1010.4 31.9 16
DallasTexas 7/14/2019 0:00 28.6 21.8 66.63 0 0 15.8 55 1010.4 14.7 16
DallasTexas 7/14/2019 1:00 27.5 21.1 68.19 0 0 14.1 61 1010.8 23.3 16
DallasTexas 7/14/2019 2:00 26.5 20.9 71.09 0 0 9.9 46 1010.8 15.2 16
DallasTexas 7/14/2019 3:00 26 21 74.09 0 0 8.9 19 1010.6 25.9 16
DallasTexas 7/14/2019 4:00 25.4 21.2 77.45 0 0 11.6 44 1010.7 48.5 16
DallasTexas 7/14/2019 5:00 24.6 21.3 81.5 0 0 11 31 1011 50.4 16
DallasTexas 7/14/2019 6:00 24.5 20.8 79.94 0 0 13.5 38 1011.6 74.1 16
DallasTexas 7/14/2019 7:00 24.5 20.7 79.71 0 0 13.7 21 1012.1 86.2 16
DallasTexas 7/14/2019 8:00 24.7 20.7 78.6 0 0 16.3 12 1012.2 91.6 16
DallasTexas 7/14/2019 9:00 25.3 20.2 73.67 0 0 16.6 16 1012.5 93.6 16
DallasTexas 7/14/2019 10:00 26.2 20.2 69.43 0 0 17.5 358 1012.5 91.3 16
DallasTexas 7/14/2019 11:00 27.4 20.2 64.78 0 0 19.5 10 1012.7 96.9 16
DallasTexas 7/14/2019 12:00 27.8 20.2 63.3 0 0 20.1 13 1012.7 95.6 16
DallasTexas 7/14/2019 13:00 28.4 20.2 61.17 0 0 18.3 6 1012.5 92.8 16
DallasTexas 7/14/2019 14:00 28.8 20.2 59.59 0 0 20.4 3 1011.7 91.9 16
DallasTexas 7/14/2019 15:00 29.7 20.3 57.05 0 0 20.3 360 1011.3 77.9 16
DallasTexas 7/14/2019 16:00 29.8 20.2 56.44 0 0 21.1 2 1010.9 83.1 16
DallasTexas 7/14/2019 17:00 29 20.5 60.1 0 0 20.1 27 1011.1 79.4 16
DallasTexas 7/14/2019 18:00 28.4 20.9 63.65 0 0 17.7 9 1011 60.5 16
DallasTexas 7/14/2019 19:00 29 19.9 57.95 0 0 16.4 17 1010.7 35.5 16
DallasTexas 7/14/2019 20:00 28.3 19.8 59.98 0 0 15 35 1010.8 57.6 16
DallasTexas 7/14/2019 21:00 26.9 19.4 63.77 0 0 7 43 1010.9 24.4 16
DallasTexas 7/14/2019 22:00 26.2 19.3 65.89 0 0 3.3 26 1011.4 14 16
DallasTexas 7/14/2019 23:00 25 19.5 71.56 0 0 4.1 356 1011.6 14.3 16
DallasTexas 7/15/2019 0:00 24.5 19.5 74.05 0 0 7 337 1011.7 16.4 16
DallasTexas 7/15/2019 1:00 24.4 19.5 74.31 0 0 6.2 357 1011.7 17.7 16
DallasTexas 7/15/2019 2:00 23.6 19.5 77.77 0 0 1.6 348 1011.9 2.2 15.9
DallasTexas 7/15/2019 3:00 23.2 19.5 79.51 0 0 5 320 1011.8 1.8 15.8
DallasTexas 7/15/2019 4:00 22.8 19.5 81.71 0 0 6.8 312 1011.7 13.5 15.8
DallasTexas 7/15/2019 5:00 22.6 19.5 82.37 0 0 6.3 326 1011.7 13.5 15.7
DallasTexas 7/15/2019 6:00 22.7 19.7 83.16 0 0 6.6 322 1012.3 13.5 15.9
DallasTexas 7/15/2019 7:00 22.6 20 85.35 0 0 11.8 327 1012.8 13.5 16
DallasTexas 7/15/2019 8:00 24.4 20.6 79.11 0 0 13 325 1013.1 13.5 16
DallasTexas 7/15/2019 9:00 26.2 20.1 69.1 0 0 12.9 304 1013.2 12.1 15.9
DallasTexas 7/15/2019 10:00 27.7 20.1 63.22 0 0 9.2 306 1013.4 12.1 15.9
DallasTexas 7/15/2019 11:00 29.4 20.4 58.31 0 0 11.2 323 1013.4 18 15.9
DallasTexas 7/15/2019 12:00 30.4 20.2 54.24 0 0 6.3 314 1013.1 25.5 16
DallasTexas 7/15/2019 13:00 31.5 19.7 49.61 0 0 11.2 295 1012.6 36.6 15.9
DallasTexas 7/15/2019 14:00 31.8 19.6 48.55 0 0 8.9 292 1012.2 66.6 16
DallasTexas 7/15/2019 15:00 33 19.8 45.79 0 0 7.1 251 1011.8 75.9 16
DallasTexas 7/15/2019 16:00 33.8 19.4 43.01 0 0 9.4 293 1011.2 59.1 16
DallasTexas 7/15/2019 17:00 33.9 19.1 41.78 0 0 9.7 301 1010.7 44.5 16
DallasTexas 7/15/2019 18:00 33.7 18.9 41.69 0 0 5.7 268 1010.1 44 16
DallasTexas 7/15/2019 19:00 33.8 19.1 42.05 0 0 11.4 222 1010 28.9 16
DallasTexas 7/15/2019 20:00 32.9 19.4 45.02 0 0 9.1 296 1010.1 15.9 16
DallasTexas 7/15/2019 21:00 31.7 19.9 49.65 0 0 9 358 1010.3 14 16
DallasTexas 7/15/2019 22:00 30.2 21 57.9 0 0 14.1 150 1010.9 0 16
DallasTexas 7/15/2019 23:00 29.2 21.8 64.09 0 0 13.2 137 1011.5 0 16
DallasTexas 7/16/2019 0:00 28.7 22.2 68.12 0 0 14.5 137 1011.7 0 16
DallasTexas 7/16/2019 1:00 28.1 22.9 73.45 0 0 10.9 165 1011.6 14.4 16
DallasTexas 7/16/2019 2:00 27.6 23.4 78 0 0 13.4 164 1011.4 21.3 16
DallasTexas 7/16/2019 3:00 27.4 23.8 80.78 0 0 10.3 177 1011.4 20.8 16
DallasTexas 7/16/2019 4:00 27.4 23.5 79.5 0 0 17.8 183 1011.5 20 16
DallasTexas 7/16/2019 5:00 26.9 23.5 81.44 0 0 13.6 191 1011.7 14.3 15.6
DallasTexas 7/16/2019 6:00 26.8 23.2 80.7 0 0 14.8 186 1012.3 18.7 15.8
DallasTexas 7/16/2019 7:00 26.5 23 81.21 0 0 14.5 186 1012.9 18.1 15.9
DallasTexas 7/16/2019 8:00 27.5 22.6 74.64 0 0 17.2 198 1013.4 13.7 16
DallasTexas 7/16/2019 9:00 29.1 22.3 66.83 0 0 18.2 209 1013.6 13.5 16
DallasTexas 7/16/2019 10:00 30.3 22.2 61.85 0 0 19.7 207 1013.8 13.5 16
DallasTexas 7/16/2019 11:00 31.6 22.4 58.12 0 0 17.3 201 1014.1 13.7 16
DallasTexas 7/16/2019 12:00 33 22.4 53.72 0 0 16.6 215 1014.1 15.8 16
DallasTexas 7/16/2019 13:00 34 22.6 51.49 0 0 17.7 207 1013.9 20.4 16
DallasTexas 7/16/2019 14:00 34.7 22.6 49.51 0 0 16.5 199 1013.7 23.5 16
DallasTexas 7/16/2019 15:00 35.8 22.3 45.85 0 0 17.5 193 1013.1 32.7 16
DallasTexas 7/16/2019 16:00 36 22 44.39 0 0 18.8 169 1012.6 33.1 16
DallasTexas 7/16/2019 17:00 36.2 21.7 42.96 0 0 19.2 169 1012.1 32.9 16
DallasTexas 7/16/2019 18:00 35.8 21.7 44.12 0 0 25.8 172 1011.5 28.4 16
DallasTexas 7/16/2019 19:00 34.6 20.9 44.7 0 0 19.5 178 1011.7 19.6 16
DallasTexas 7/16/2019 20:00 33.7 20.8 46.71 0 0 14.4 169 1012 27.5 16
DallasTexas 7/16/2019 21:00 32.5 20.8 50.13 0 0 12.8 159 1011.9 27.5 16
DallasTexas 7/16/2019 22:00 31.6 21.2 54.31 0 0 13 158 1012.4 43.9 16
DallasTexas 7/16/2019 23:00 30.7 21.8 59.13 0 0 15 163 1013.2 43.9 16
DallasTexas 7/17/2019 0:00 30.1 22.3 63.23 0 0 18 164 1013.3 43.9 16
DallasTexas 7/17/2019 1:00 29.6 22.4 65.46 0 0 17.3 177 1013.6 27.2 16
DallasTexas 7/17/2019 2:00 28.9 22.7 69.33 0 0 19.2 174 1013.6 24.7 16
DallasTexas 7/17/2019 3:00 28 22.3 71.31 0 0 16.8 182 1013.8 15 16
DallasTexas 7/17/2019 4:00 27.4 22.3 73.49 0 0 19 180 1014 24.7 16
DallasTexas 7/17/2019 5:00 26.7 22.1 76.25 0 0 15.8 179 1014.3 3.2 16
DallasTexas 7/17/2019 6:00 26.1 22 78.61 0 0 19.2 177 1014.7 14.9 16
DallasTexas 7/17/2019 7:00 25.6 22.3 82.01 0 0 19.6 174 1015.3 27 16
DallasTexas 7/17/2019 8:00 26 22.4 80.37 0 0 20.8 179 1015.7 46.2 16
DallasTexas 7/17/2019 9:00 27.4 22.4 74.04 0 0 20.3 186 1015.9 42.9 16
DallasTexas 7/17/2019 10:00 28.9 22.1 66.8 0 0 22.7 189 1015.8 25.6 16
DallasTexas 7/17/2019 11:00 30.7 21.5 58.09 0 0 19.8 199 1016.1 24.2 16
DallasTexas 7/17/2019 12:00 31.9 21.6 54.5 0 0 21.9 185 1016 20.5 16
DallasTexas 7/17/2019 13:00 33.3 21.7 50.8 0 0 21.1 188 1015.9 30.4 16
DallasTexas 7/17/2019 14:00 34 21.4 48.1 0 0 21 187 1015.1 22.3 16
DallasTexas 7/17/2019 15:00 34.6 21.2 45.92 0 0 19.6 181 1014.5 33.9 16
DallasTexas 7/17/2019 16:00 35.3 21 43.41 0 0 24.5 166 1014 40.4 16
DallasTexas 7/17/2019 17:00 35.1 20.8 43.4 0 0 22 180 1013.6 42.8 16
DallasTexas 7/17/2019 18:00 34.9 20.7 43.51 0 0 24.2 173 1013 47.3 15.8
DallasTexas 7/17/2019 19:00 34.4 21 45.56 0 0 21.6 160 1012.5 30.6 16
DallasTexas 7/17/2019 20:00 33.4 20.9 47.79 0 0 21.2 158 1012.1 13.7 16
DallasTexas 7/17/2019 21:00 31.8 21.4 54.09 0 0 16.9 157 1012.2 11.9 16
DallasTexas 7/17/2019 22:00 31.1 21.8 57.68 0 0 20.7 156 1012.6 0 16
DallasTexas 7/17/2019 23:00 30.4 22.3 61.79 0 0 16.9 154 1013.1 0 16
DallasTexas 7/18/2019 0:00 29.7 22.8 66.7 0 0 19.3 159 1013.6 1.9 16
DallasTexas 7/18/2019 1:00 29.1 23.2 70.64 0 0 19.1 164 1014 16.3 16
DallasTexas 7/18/2019 2:00 28.5 23 72.25 0 0 18.1 177 1014.3 0.2 16
DallasTexas 7/18/2019 3:00 28 22.9 74.15 0 0 18.6 178 1014.2 0 16
DallasTexas 7/18/2019 4:00 27.4 22.7 75.48 0 0 18.2 179 1014.1 0 16
DallasTexas 7/18/2019 5:00 26.7 22 75.82 0 0 20.8 179 1014.2 0 16
DallasTexas 7/18/2019 6:00 25.8 22 79.5 0 0 21.6 179 1014.3 0 16
DallasTexas 7/18/2019 7:00 25.3 22.1 82.39 0 0 17.4 179 1014.4 17.5 16
DallasTexas 7/18/2019 8:00 26.1 22.3 79.59 0 0 17.7 177 1014.9 23.7 16
DallasTexas 7/18/2019 9:00 27.5 22.1 72.1 0 0 23 176 1015 24.7 15.6
DallasTexas 7/18/2019 10:00 29 21.6 64.27 0 0 24 189 1015 30.2 16
DallasTexas 7/18/2019 11:00 30.7 21.4 57.64 0 0 22.2 193 1015.2 24.7 16
DallasTexas 7/18/2019 12:00 31.7 20.6 51.78 0 0 21.8 198 1014.8 18.5 16
DallasTexas 7/18/2019 13:00 33.2 20.8 48.26 0 0 23.8 185 1014.1 17.9 16
DallasTexas 7/18/2019 14:00 34.2 20.5 44.61 0 0 19.9 197 1013.4 21 16
DallasTexas 7/18/2019 15:00 35.1 20.3 42.06 0 0 22.8 187 1012.9 26 16
DallasTexas 7/18/2019 16:00 35.3 20.3 41.75 0 0 24.4 177 1012.1 25.1 16
DallasTexas 7/18/2019 17:00 35.3 20 40.83 0 0 21.8 164 1011.6 18.7 16
DallasTexas 7/18/2019 18:00 35.3 20.1 41.11 0 0 24.2 171 1010.9 20.2 16
DallasTexas 7/18/2019 19:00 34.4 20.2 43.64 0 0 25.7 161 1010.6 15.1 16
DallasTexas 7/18/2019 20:00 33.2 20.2 46.4 0 0 23.1 165 1010.7 13.8 16
DallasTexas 7/18/2019 21:00 31.8 20.7 52.02 0 0 18.7 155 1010.9 11.8 16
DallasTexas 7/18/2019 22:00 30.9 21.3 56.77 0 0 20.6 156 1011.4 0 16
DallasTexas 7/18/2019 23:00 30.1 21.7 60.76 0 0 22.9 150 1011.8 0 16
DallasTexas 7/19/2019 0:00 29.7 21.8 62.6 0 0 20.1 158 1012.1 0 16
DallasTexas 7/19/2019 1:00 29.1 22.3 66.64 0 0 18.7 173 1012.4 0 16
DallasTexas 7/19/2019 2:00 28.5 22.4 69.51 0 0 19.1 179 1012.5 0 16
DallasTexas 7/19/2019 3:00 28 22.3 71.43 0 0 18.4 179 1012.5 0 16
DallasTexas 7/19/2019 4:00 27.4 22.2 73.34 0 0 18.8 179 1012.5 0 16
DallasTexas 7/19/2019 5:00 26.7 22.2 76.51 0 0 14.9 181 1012.6 0 16
DallasTexas 7/19/2019 6:00 26 22.2 79.69 0 0 14.6 179 1013 0 16
DallasTexas 7/19/2019 7:00 25.5 22.3 82.16 0 0 16.2 178 1013.2 14.5 16
DallasTexas 7/19/2019 8:00 26.4 22.1 77.32 0 0 19.9 180 1013.5 21.2 16
DallasTexas 7/19/2019 9:00 28 21.8 69.19 0 0 19.7 189 1013.9 16.1 16
DallasTexas 7/19/2019 10:00 29.9 21.1 59.13 0 0 20 186 1013.9 16.6 16
DallasTexas 7/19/2019 11:00 31.4 20.8 53.37 0 0 20 176 1014.3 13.7 16
DallasTexas 7/19/2019 12:00 32.7 20.5 48.68 0 0 21.6 182 1014.1 13.5 16
DallasTexas 7/19/2019 13:00 33.5 20.8 47.24 0 0 25.6 175 1013.8 13.5 16
DallasTexas 7/19/2019 14:00 34.2 20.5 44.86 0 0 22.6 180 1013.3 14.3 16
DallasTexas 7/19/2019 15:00 35.2 20.4 42.09 0 0 21.9 165 1012.9 14.6 16
DallasTexas 7/19/2019 16:00 35.3 20.7 42.57 0 0 26.8 168 1012.2 19.1 16
DallasTexas 7/19/2019 17:00 35 20.2 42.09 0 0 24.7 177 1011.5 29.5 16
DallasTexas 7/19/2019 18:00 35 20.5 42.87 0 0 25.8 169 1011.1 36 16
DallasTexas 7/19/2019 19:00 34 20.4 45.06 0 0 24.4 168 1011.1 38.9 16
DallasTexas 7/19/2019 20:00 33 20.6 48.32 0 0 20.5 155 1011.3 28.1 16
DallasTexas 7/19/2019 21:00 31.7 20.9 52.84 0 0 18.3 155 1011.4 30 16
DallasTexas 7/19/2019 22:00 30.6 21.1 57.08 0 0 18.6 155 1011.8 29.7 16
DallasTexas 7/19/2019 23:00 29.8 21.3 60.34 0 0 17.8 156 1012.4 29.7 16
DallasTexas 7/20/2019 0:00 29.4 21.7 63.54 0 0 15 150 1012.6 27.2 16
DallasTexas 7/20/2019 1:00 28.7 22.2 67.88 0 0 18.5 166 1012.4 23.3 16
DallasTexas 7/20/2019 2:00 28 22.3 71 0 0 18.9 172 1012.2 13.5 16
DallasTexas 7/20/2019 3:00 27.8 22.3 72.02 0 0 21.3 176 1012 13.5 16
DallasTexas 7/20/2019 4:00 27.2 22.2 74.09 0 0 19.1 185 1012 13.5 16
DallasTexas 7/20/2019 5:00 26.7 22.2 76.54 0 0 15.9 179 1012.3 13.5 16
DallasTexas 7/20/2019 6:00 26.1 22.3 79.71 0 0 15.2 174 1012.6 13.5 16
DallasTexas 7/20/2019 7:00 25.6 22.3 82.34 0 0 14.4 177 1013 14.3 16
DallasTexas 7/20/2019 8:00 26.2 22.6 80.57 0 0 20.2 178 1013.4 22.1 16
DallasTexas 7/20/2019 9:00 27.5 22.6 74.44 0 0 19.7 180 1013.7 35.7 16
DallasTexas 7/20/2019 10:00 29.1 22.2 66.28 0 0 18.3 173 1013.7 27.4 16
DallasTexas 7/20/2019 11:00 31 21.4 56.88 0 0 17.8 170 1013.8 16.8 16
DallasTexas 7/20/2019 12:00 32.4 20.8 50.37 0 0 19.7 168 1013.5 15.2 16
DallasTexas 7/20/2019 13:00 33.4 19.8 44.85 0 0 17.9 179 1013.6 14.4 16
DallasTexas 7/20/2019 14:00 34.2 20 43.26 0 0 21.5 170 1012.7 13.5 16
DallasTexas 7/20/2019 15:00 34.9 19.4 40.21 0 0 21.5 182 1011.8 13.5 16
DallasTexas 7/20/2019 16:00 35.5 19.3 38.73 0 0 23.2 183 1011.1 13.5 16
DallasTexas 7/20/2019 17:00 35.8 19.3 37.94 0 0 20.2 162 1010.6 13.5 16
DallasTexas 7/20/2019 18:00 35.5 19.1 38.27 0 0 22.4 152 1010.3 14.4 16
DallasTexas 7/20/2019 19:00 34.5 19.4 41.17 0 0 19.2 162 1010 13.5 16
DallasTexas 7/20/2019 20:00 33.2 19.6 44.76 0 0 20.6 157 1010.4 13.7 16
DallasTexas 7/20/2019 21:00 31.8 20.6 51.67 0 0 19.2 150 1010.9 17.8 16
DallasTexas 7/20/2019 22:00 30.6 21 56.6 0 0 16.3 151 1011 17.7 16
DallasTexas 7/20/2019 23:00 29.9 20.9 58.7 0 0 13.9 156 1011.4 17.4 16
DallasTexas 7/21/2019 0:00 29.1 21.2 62.42 0 0 18 166 1011.1 13.4 16
DallasTexas 7/21/2019 1:00 28.4 21.1 64.69 0 0 16.8 162 1010.9 13.5 16
DallasTexas 7/21/2019 2:00 27.9 21 66.36 0 0 13.3 173 1011.2 13.5 16
DallasTexas 7/21/2019 3:00 27.4 21 68.49 0 0 14.4 166 1011.7 13.5 16
DallasTexas 7/21/2019 4:00 26.8 21.1 70.69 0 0 12.3 173 1012 11.8 16
DallasTexas 7/21/2019 5:00 26.1 21 73.89 0 0 13.1 173 1012.1 11.8 16
DallasTexas 7/21/2019 6:00 25.7 20.9 74.99 0 0 15.2 181 1012.6 13.5 16
DallasTexas 7/21/2019 7:00 25.4 21 76.73 0 0 11.7 168 1013.3 14.3 16
DallasTexas 7/21/2019 8:00 25.8 21 74.83 0 0 11.3 173 1013.8 13.7 16
DallasTexas 7/21/2019 9:00 27.6 21 67.36 0 0 12.9 184 1014.1 13.5 16
DallasTexas 7/21/2019 10:00 29.5 20.6 58.72 0 0 13.5 189 1014.1 13.5 16
DallasTexas 7/21/2019 11:00 31.2 19.7 50.36 0 0 16.8 210 1013.8 18.3 16
DallasTexas 7/21/2019 12:00 32.5 19.1 45.25 0 0 16 194 1013.5 27.8 16
DallasTexas 7/21/2019 13:00 33.9 18.3 39.55 0 0 15.1 208 1013.3 34.2 16
DallasTexas 7/21/2019 14:00 34.4 17.4 36.52 0 0 18.4 174 1012.7 34.2 16
DallasTexas 7/21/2019 15:00 35.6 17.5 34.37 0 0 16.5 163 1012.4 28.6 16
DallasTexas 7/21/2019 16:00 35.6 18 35.63 0 0 18 154 1012 27.8 16
DallasTexas 7/21/2019 17:00 35.9 17.3 33.54 0 0 14.4 146 1011.3 29.9 16
DallasTexas 7/21/2019 18:00 35.8 17.2 33.5 0 0 18.7 153 1011.1 31.8 16
DallasTexas 7/21/2019 19:00 35 17.5 35.56 0 0 16.4 154 1011.3 31.8 16
DallasTexas 7/21/2019 20:00 33.6 18.8 41.56 0 0 17.7 142 1011.5 32.1 16
DallasTexas 7/21/2019 21:00 31.8 20.1 50.08 0 0 16.4 140 1012.2 28.5 16
DallasTexas 7/21/2019 22:00 30.5 19.8 52.84 0 0 11.9 140 1012.4 29.7 16
DallasTexas 7/21/2019 23:00 29.6 19.7 55.44 0 0 11.8 141 1012.5 43.9 16
DallasTexas 7/22/2019 0:00 28.8 20.1 59.35 0 0 8.7 135 1012.6 43.9 16
DallasTexas 7/22/2019 1:00 27.8 20.4 64.03 0 0 8.9 113 1012.7 43.9 16
DallasTexas 7/22/2019 2:00 27.6 20.7 66.15 0 0 12.9 129 1013.1 43.9 16
DallasTexas 7/22/2019 3:00 26.8 21.1 71 0 0 10.5 257 1013 43.9 16
DallasTexas 7/22/2019 4:00 26.4 21.2 73.45 0 0 12.1 225 1013 41.5 16
DallasTexas 7/22/2019 5:00 26.1 21.6 75.98 0 0 9.2 242 1012.9 24.7 15.8
DallasTexas 7/22/2019 6:00 25.8 21.7 78.31 0 0 6.9 240 1013.4 19.5 16
DallasTexas 7/22/2019 7:00 25.7 21.7 78.74 0 0 5.5 276 1014.4 50.8 16
DallasTexas 7/22/2019 8:00 26.7 22.2 76.42 0 0 6.4 224 1015.4 69.6 16
DallasTexas 7/22/2019 9:00 28.3 22.3 70.09 0 0 10.2 233 1015.7 22 16
DallasTexas 7/22/2019 10:00 30 22.2 63.27 0 0 11.8 253 1015.6 27.9 16
DallasTexas 7/22/2019 11:00 31.8 22.1 56.55 0 0 16.3 283 1015.5 19.2 16
DallasTexas 7/22/2019 12:00 33 21.8 51.79 0 0 15 282 1015.4 34.9 16
DallasTexas 7/22/2019 13:00 33.4 21.2 48.88 0 0 21.8 305 1015.4 37.4 16
DallasTexas 7/22/2019 14:00 31.1 22 58.39 0.02 0 19 322 1015 61.7 15.8
DallasTexas 7/22/2019 15:00 33.5 22.4 52.31 0 0 21.1 339 1014.1 24 16
DallasTexas 7/22/2019 16:00 33.6 21.8 50.24 0 0 23.9 354 1013.8 61.5 16
DallasTexas 7/22/2019 17:00 33.2 21.5 50.25 0 0 24.7 11 1013.6 73.3 16
DallasTexas 7/22/2019 18:00 33.3 20.9 48.41 0 0 20 1 1013.6 73.8 16
DallasTexas 7/22/2019 19:00 32.7 20.4 48.5 0 0 23.7 10 1014 57.5 16
DallasTexas 7/22/2019 20:00 31.2 20 51.49 0 0 22 21 1014.8 58.7 16
DallasTexas 7/22/2019 21:00 29.5 19.6 55.31 0 0 21.6 29 1015.5 47.7 16
DallasTexas 7/22/2019 22:00 28.5 19.8 59.29 0 0 19.9 18 1016 18.3 16
DallasTexas 7/22/2019 23:00 27.9 19.2 59.1 0 0 13.8 27 1017.1 46.7 16
DallasTexas 7/23/2019 0:00 27.5 17.5 54.35 0 0 14.8 16 1017.5 38.9 16
DallasTexas 7/23/2019 1:00 26.8 17.2 55.41 0 0 18.2 11 1017.8 63.8 16
DallasTexas 7/23/2019 2:00 26.2 16.9 56.52 0 0 18.5 14 1017.6 29.1 16
DallasTexas 7/23/2019 3:00 25.2 16.8 59.67 0 0 14.8 18 1017.6 25.7 16
DallasTexas 7/23/2019 4:00 25.1 16.4 58.53 0 0 14.3 26 1018 79.8 16
DallasTexas 7/23/2019 5:00 24.7 16.4 59.96 0 0 14.3 31 1018.3 42.6 16
DallasTexas 7/23/2019 6:00 23.7 16.4 63.33 0 0 12.9 23 1018.7 13.5 16
DallasTexas 7/23/2019 7:00 23.3 16.4 65.25 0 0 12.2 16 1019.2 15 16
DallasTexas 7/23/2019 8:00 24.2 16.7 63.05 0 0 13.7 18 1019.5 18.7 16
DallasTexas 7/23/2019 9:00 25.8 16.7 57.31 0 0 15.9 22 1020.1 13.4 16
DallasTexas 7/23/2019 10:00 27.3 16.8 52.59 0 0 15.2 16 1020.3 13.5 16
DallasTexas 7/23/2019 11:00 28.6 16.6 48.28 0 0 19.5 36 1020 29.7 16
DallasTexas 7/23/2019 12:00 29.5 15.5 42.62 0 0 15.1 15 1019.9 55.3 16
DallasTexas 7/23/2019 13:00 30.7 14.8 37.98 0 0 14.9 24 1019.4 51 16
DallasTexas 7/23/2019 14:00 31.6 14.2 34.72 0 0 19 29 1018.8 60.2 16
DallasTexas 7/23/2019 15:00 31.5 13.8 34.1 0 0 18.4 21 1018.3 49.4 16
DallasTexas 7/23/2019 16:00 31.9 13.4 32.59 0 0 18.8 17 1017.7 64.6 16
DallasTexas 7/23/2019 17:00 31.8 13.2 32.35 0 0 18.6 35 1017.2 59 16
DallasTexas 7/23/2019 18:00 31.5 12.8 31.88 0 0 17.2 40 1016.7 51.8 16
DallasTexas 7/23/2019 19:00 31.2 13.2 33.43 0 0 14 52 1016.5 36.5 16
DallasTexas 7/23/2019 20:00 30.1 13.2 35.63 0 0 12 37 1016.8 41.9 16
DallasTexas 7/23/2019 21:00 28.4 13.2 39.19 0 0 10.5 35 1017.3 31.1 16
DallasTexas 7/23/2019 22:00 27.5 13.5 42.01 0 0 7.5 25 1017.8 38.2 16
DallasTexas 7/23/2019 23:00 26.5 14 46.07 0 0 7.8 32 1018.4 62.1 16
DallasTexas 7/24/2019 0:00 25.9 14.7 50.22 0 0 8.8 37 1018.7 78.3 16
DallasTexas 7/24/2019 1:00 25.5 15 52.17 0 0 11.2 37 1019.1 69.9 16
DallasTexas 7/24/2019 2:00 24.8 15.6 56.61 0 0 9.7 49 1019 82.1 16
DallasTexas 7/24/2019 3:00 23.9 16 61.3 0 0 7.4 51 1019 67 16
DallasTexas 7/24/2019 4:00 23.2 16.4 65.67 0 0 6.4 49 1019 79.6 16
DallasTexas 7/24/2019 5:00 22.8 16.4 67 0 0 5.9 54 1019.2 73 16
DallasTexas 7/24/2019 6:00 22 16.4 70.23 0 0 7.3 51 1019.5 18.6 16
DallasTexas 7/24/2019 7:00 21.7 16.5 72.71 0 0 5.7 53 1020 24.2 16
DallasTexas 7/24/2019 8:00 23.2 16.9 67.55 0 0 10 70 1020.9 25.5 15.8
DallasTexas 7/24/2019 9:00 24.6 16.3 60.1 0 0 10.3 100 1021.5 15.6 16
DallasTexas 7/24/2019 10:00 26 15.4 52.12 0 0 7.6 98 1021.6 18.4 15.8
DallasTexas 7/24/2019 11:00 27.3 14.6 45.81 0 0 6.9 58 1021.3 14.2 16
DallasTexas 7/24/2019 12:00 28.1 14.8 44.36 0 0 12.7 72 1020.8 38.3 16
DallasTexas 7/24/2019 13:00 28.9 14 40.17 0 0 11.3 33 1020.3 62.4 15.6
DallasTexas 7/24/2019 14:00 29.5 13.7 38.06 0 0 5.6 32 1019.6 40.8 16
DallasTexas 7/24/2019 15:00 30.3 13.5 35.75 0 0 10.1 38 1018.8 28.3 15.8
DallasTexas 7/24/2019 16:00 29.9 11.8 32.79 0 0 12.1 31 1017.9 14.4 15.6
DallasTexas 7/24/2019 17:00 30.4 12.2 32.67 0 0 10 32 1017.3 13.5 15.6
DallasTexas 7/24/2019 18:00 30.3 12.3 33.18 0 0 10.1 95 1016.8 0 16
DallasTexas 7/24/2019 19:00 29.7 12.2 34.07 0 0 10.4 73 1016.9 0 15.8
DallasTexas 7/24/2019 20:00 28.9 12.6 36.46 0 0 12.3 93 1017.1 0 16
DallasTexas 7/24/2019 21:00 27.3 12.7 40.44 0 0 8.8 97 1017.3 0 16
DallasTexas 7/24/2019 22:00 25.9 13.7 46.97 0 0 9.9 108 1017.8 0 16
DallasTexas 7/24/2019 23:00 24.6 13.9 51.15 0 0 7 96 1018.3 0 16
DallasTexas 7/25/2019 0:00 24 13.8 52.76 0 0 7.3 103 1018.4 0 16
DallasTexas 7/25/2019 1:00 22.6 14 58.24 0 0 3.4 62 1018.6 0 16
DallasTexas 7/25/2019 2:00 21.9 14.3 61.89 0 0 3.1 69 1018.6 0 16
DallasTexas 7/25/2019 3:00 21.4 14.2 63.59 0 0 5.4 101 1018.7 0 16
DallasTexas 7/25/2019 4:00 20.8 14.2 66.17 0 0 5 99 1018.7 0 16
DallasTexas 7/25/2019 5:00 20.2 14.2 68.42 0 0 4.6 100 1018.4 0 16
DallasTexas 7/25/2019 6:00 19.6 14.3 71.39 0 0 0.3 6 1018.9 0 16
DallasTexas 7/25/2019 7:00 19.4 14.3 72.31 0 0 2.5 47 1019.5 13.7 16
DallasTexas 7/25/2019 8:00 22 15.5 66.94 0 0 4.7 91 1019.9 15.1 16
DallasTexas 7/25/2019 9:00 24.4 15.5 57.68 0 0 8.8 102 1020.5 25.3 16
DallasTexas 7/25/2019 10:00 26.1 14.1 47.58 0 0 12.2 122 1020.3 19.7 16
DallasTexas 7/25/2019 11:00 27.1 13.8 44.13 0 0 11.4 126 1020.6 29.1 16
DallasTexas 7/25/2019 12:00 28.6 13.6 39.88 0 0 11.9 147 1020.3 41.4 16
DallasTexas 7/25/2019 13:00 29.4 13.5 37.65 0 0 13 90 1019.7 34.7 16
DallasTexas 7/25/2019 14:00 29.5 13.5 37.48 0 0 11.2 77 1019.3 39.4 16
DallasTexas 7/25/2019 15:00 29.9 12.8 34.99 0 0 10.8 67 1018.4 34 16
DallasTexas 7/25/2019 16:00 31.1 12.9 32.89 0 0 11.7 81 1017.9 38.4 16
DallasTexas 7/25/2019 17:00 30.4 12.5 33.37 0 0 16.1 91 1017.3 29.6 16
DallasTexas 7/25/2019 18:00 30.5 12.6 33.32 0 0 14.2 89 1017 19.9 16
DallasTexas 7/25/2019 19:00 30 12.3 33.8 0 0 14.3 83 1017.1 14.8 16
DallasTexas 7/25/2019 20:00 28.9 12.9 37.21 0 0 13.6 102 1017.2 15.3 16
DallasTexas 7/25/2019 21:00 27.4 13.2 41.55 0 0 10.9 100 1017.3 15.4 16
DallasTexas 7/25/2019 22:00 26.6 13.4 44.05 0 0 7.3 99 1017.8 0 16
DallasTexas 7/25/2019 23:00 24.9 13.7 49.8 0 0 6.6 94 1018.6 0.8 16
DallasTexas 7/26/2019 0:00 24 13.9 53.12 0 0 6 92 1018.9 8.8 16
DallasTexas 7/26/2019 1:00 23.3 13.9 55.52 0 0 4.4 82 1019 33.2 16
DallasTexas 7/26/2019 2:00 22.8 14.5 59.57 0 0 3 72 1019 25.8 16
DallasTexas 7/26/2019 3:00 22 15.2 65.09 0 0 3.1 72 1018.6 29.7 16
DallasTexas 7/26/2019 4:00 21.7 15.8 69 0 0 5 80 1018.6 18.8 16
DallasTexas 7/26/2019 5:00 21 15.6 71.13 0 0 5.7 79 1018.6 16 16
DallasTexas 7/26/2019 6:00 20.8 15.9 73.44 0 0 5.8 81 1019.2 17.8 16
DallasTexas 7/26/2019 7:00 20.5 16.2 76.24 0 0 4.1 74 1019.7 31.6 16
DallasTexas 7/26/2019 8:00 22.1 16.8 71.7 0 0 7.6 87 1020.4 24.5 16
DallasTexas 7/26/2019 9:00 24.3 16.8 63.08 0 0 12.6 121 1020.8 42.2 16
DallasTexas 7/26/2019 10:00 26.3 16.6 55.34 0 0 10.4 140 1020.8 34.1 16
DallasTexas 7/26/2019 11:00 28.4 16 47.06 0 0 10.4 146 1020.7 28.5 16
DallasTexas 7/26/2019 12:00 29.2 13.6 38.33 0 0 13.8 110 1020.7 42.2 16
DallasTexas 7/26/2019 13:00 30.2 12.8 34.32 0 0 8.9 251 1020.1 49.7 16
DallasTexas 7/26/2019 14:00 31 13 33.37 0 0 11.3 94 1019.6 55.7 16
DallasTexas 7/26/2019 15:00 31.3 13.7 34.22 0 0 11.4 146 1019.1 47.2 16
DallasTexas 7/26/2019 16:00 31.4 14 34.84 0 0 14.8 124 1018.7 43.5 16
DallasTexas 7/26/2019 17:00 30.9 14.4 36.66 0 0 16 128 1018.5 56.8 16
DallasTexas 7/26/2019 18:00 30.8 14.1 36.36 0 0 16.7 137 1018.5 50.7 16
DallasTexas 7/26/2019 19:00 30.2 14 37.16 0 0 17 117 1018.3 45.9 16
DallasTexas 7/26/2019 20:00 29.1 13.8 39.02 0 0 13.7 130 1018.6 27.5 16
DallasTexas 7/26/2019 21:00 27.5 13.9 43.38 0 0 7.8 134 1018.7 18.5 16
DallasTexas 7/26/2019 22:00 26.3 14.6 48.53 0 0 3.4 73 1019.2 18.3 16
DallasTexas 7/26/2019 23:00 25.1 15.2 54.13 0 0 4.8 108 1019.5 17.6 16
DallasTexas 7/27/2019 0:00 24.4 15.5 57.67 0 0 5.4 92 1019.7 15 16
DallasTexas 7/27/2019 1:00 23.7 15.8 61.45 0 0 4.1 68 1019.7 15 16
DallasTexas 7/27/2019 2:00 23.2 16.2 64.7 0 0 4 73 1019.4 15.9 16
DallasTexas 7/27/2019 3:00 22.8 16.5 67.81 0 0 0.9 20 1019.2 20.9 16
DallasTexas 7/27/2019 4:00 22.6 16.5 68.78 0 0 3.3 63 1018.9 17.6 16
DallasTexas 7/27/2019 5:00 21.9 16.8 72.54 0 0 5.5 104 1019 16.8 16
DallasTexas 7/27/2019 6:00 21.9 17 73.6 0 0 7.3 101 1019.4 15.2 16
DallasTexas 7/27/2019 7:00 21.7 17.4 76.55 0 0 8.7 125 1019.9 13.7 16
DallasTexas 7/27/2019 8:00 23.7 18.2 71.05 0 0 5.8 123 1020.6 13.7 16
DallasTexas 7/27/2019 9:00 26.3 18.5 62.22 0 0 11.2 156 1021.3 13.5 16
DallasTexas 7/27/2019 10:00 28.3 18.8 56.42 0 0 14.6 164 1021.2 13.5 16
DallasTexas 7/27/2019 11:00 30 18.5 50.09 0 0 17.1 150 1021 15 16
DallasTexas 7/27/2019 12:00 31.5 17.5 43.31 0 0 13.2 157 1020.8 54.4 16
DallasTexas 7/27/2019 13:00 32.6 16 36.88 0 0 13.6 126 1020.2 47.1 16
DallasTexas 7/27/2019 14:00 33 15.2 34.44 0 0 11 111 1019.7 55.6 16
DallasTexas 7/27/2019 15:00 33.3 14.4 32.18 0 0 13.7 152 1019.1 42.7 16
DallasTexas 7/27/2019 16:00 34 14.2 30.4 0 0 15.3 144 1018.4 25.4 16
DallasTexas 7/27/2019 17:00 33.8 14.6 31.53 0 0 16.6 154 1018 31.2 16
DallasTexas 7/27/2019 18:00 33.6 15.2 33.21 0 0 12.9 142 1017.2 24.2 16
DallasTexas 7/27/2019 19:00 32.9 15.8 35.87 0 0 13.8 141 1016.9 14.4 16
DallasTexas 7/27/2019 20:00 32.2 16.7 39.66 0 0 15.8 139 1016.8 13.7 16
DallasTexas 7/27/2019 21:00 30.6 17.6 45.86 0 0 13.3 118 1017 13.5 16
DallasTexas 7/27/2019 22:00 29.7 18.4 50.84 0 0 10.5 120 1017.4 11.8 16
DallasTexas 7/27/2019 23:00 29 18.9 54.47 0 0 9.6 121 1017.6 11.8 16
DallasTexas 7/28/2019 0:00 28 19.2 58.75 0 0 9 105 1017.6 0 16
DallasTexas 7/28/2019 1:00 27.5 19.5 61.76 0 0 7.3 100 1017.5 0 16
DallasTexas 7/28/2019 2:00 26.9 19.5 63.77 0 0 7 94 1017.2 0 16
DallasTexas 7/28/2019 3:00 26.3 20.4 69.87 0 0 10 118 1016.8 0 16
DallasTexas 7/28/2019 4:00 25.6 20.9 75.24 0 0 9.5 121 1016.7 0 16
DallasTexas 7/28/2019 5:00 25.2 21.4 79.21 0 0 10.3 136 1016.6 0 16
DallasTexas 7/28/2019 6:00 24.5 21.5 82.98 0 0 9.2 127 1017 13.5 16
DallasTexas 7/28/2019 7:00 24.4 21.5 83.91 0 0 11 163 1017.4 13.7 16
DallasTexas 7/28/2019 8:00 25.6 21.6 78.63 0 0 13.9 169 1017.9 13.7 16
DallasTexas 7/28/2019 9:00 27.5 21.6 70.18 0 0 15.7 176 1018.2 13.5 16
DallasTexas 7/28/2019 10:00 29.3 21.3 62.16 0 0 16 191 1018 13.9 16
DallasTexas 7/28/2019 11:00 31.3 21 54.4 0 0 16.6 174 1017.8 15.5 16
DallasTexas 7/28/2019 12:00 32.4 20.8 50.37 0 0 19 172 1017.5 37.3 16
DallasTexas 7/28/2019 13:00 33.2 20.3 46.61 0 0 19.8 163 1016.8 39.2 16
DallasTexas 7/28/2019 14:00 33.5 20 45.14 0 0 19.4 157 1016.1 36.8 16
DallasTexas 7/28/2019 15:00 34.1 19.9 43.52 0 0 19 174 1015.4 43.5 16
DallasTexas 7/28/2019 16:00 34.8 19.4 40.42 0 0 18.5 152 1014.6 52 16
DallasTexas 7/28/2019 17:00 35.1 19.1 39.05 0 0 19.1 172 1013.7 47.5 16
DallasTexas 7/28/2019 18:00 34.7 19.1 39.94 0 0 18.1 160 1013.2 40.1 16
DallasTexas 7/28/2019 19:00 34.5 19.4 41.11 0 0 18.5 141 1013 39.5 16
DallasTexas 7/28/2019 20:00 33.1 20.3 47.12 0 0 20.3 137 1013 28.9 16
DallasTexas 7/28/2019 21:00 31.9 20.8 51.65 0 0 20.9 141 1013.4 13.7 16
DallasTexas 7/28/2019 22:00 30.7 21.3 57.41 0 0 21.9 153 1013.8 13.5 16
DallasTexas 7/28/2019 23:00 29.4 21.7 62.99 0 0 21.3 158 1014.3 15 16
DallasTexas 7/29/2019 0:00 28.5 21.7 66.91 0 0 19.1 160 1014.6 26.3 16
DallasTexas 7/29/2019 1:00 27.5 22.2 72.69 0 0 19.4 156 1014.5 43.7 16
DallasTexas 7/29/2019 2:00 27.1 22.3 74.77 0 0 18.7 164 1014.2 14.7 16
DallasTexas 7/29/2019 3:00 26.5 22.3 77.52 0 0 15.3 172 1013.8 17.1 16
DallasTexas 7/29/2019 4:00 26.5 22.1 76.84 0 0 15.5 174 1013.9 32.5 16
DallasTexas 7/29/2019 5:00 26.3 21.8 76.25 0 0 13.5 184 1013.7 27 16
DallasTexas 7/29/2019 6:00 26.2 21.8 76.93 0 0 13.1 182 1013.9 26.5 16
DallasTexas 7/29/2019 7:00 25.8 21.9 79.04 0 0 14.7 175 1014.4 30.3 15.8
DallasTexas 7/29/2019 8:00 26.1 22.3 79.43 0 0 13.7 176 1015.3 39.6 15.8
DallasTexas 7/29/2019 9:00 27.5 22.8 75.68 0 0 16.2 195 1015.2 36.9 16
DallasTexas 7/29/2019 10:00 29.3 21.8 64 0 0 24.8 215 1015.4 35.3 16
DallasTexas 7/29/2019 11:00 30.6 21.3 57.48 0.01 0 19.4 217 1016 35.2 16
DallasTexas 7/29/2019 12:00 31.3 21 54.43 0.06 0 13.5 243 1016.2 55.5 15.9
DallasTexas 7/29/2019 13:00 32.2 20.4 49.92 0.02 0 14.1 206 1015.6 42.5 16
DallasTexas 7/29/2019 14:00 32.8 20.1 47.2 0 0 15.1 192 1014.8 21.9 16
DallasTexas 7/29/2019 15:00 32.7 20.1 47.44 0 0 12.6 199 1014.4 43.5 16
DallasTexas 7/29/2019 16:00 33.6 20 44.95 0 0 12.3 199 1013.4 38 16
DallasTexas 7/29/2019 17:00 34.7 19.6 41.31 0 0 14.8 164 1013 34.3 16
DallasTexas 7/29/2019 18:00 34.6 19.2 40.25 0 0 13.1 168 1012.6 32.9 16
DallasTexas 7/29/2019 19:00 33.9 20 43.91 0 0 13.1 122 1012.1 35.8 16
DallasTexas 7/29/2019 20:00 33.1 19.8 45.81 0 0 15.3 133 1012.1 31.8 16
DallasTexas 7/29/2019 21:00 32.1 20.2 49.61 0 0 11.4 136 1012.4 55.3 16
DallasTexas 7/29/2019 22:00 30.6 21.2 57.09 0 0 10 129 1013 29.8 16
DallasTexas 7/29/2019 23:00 29.8 21.2 60.11 0 0 8.8 127 1013.2 21.3 16
DallasTexas 7/30/2019 0:00 29 21.4 63.61 0 0 7.4 121 1013.4 29.7 16
DallasTexas 7/30/2019 1:00 28.1 21.6 67.59 0 0 7.1 110 1013.7 42.7 16
DallasTexas 7/30/2019 2:00 27.7 21.6 69.48 0 0 7.6 117 1013.7 33.7 15.9
DallasTexas 7/30/2019 3:00 27.1 21.6 72.01 0 0 9.2 124 1013.6 43.9 16
DallasTexas 7/30/2019 4:00 26.6 21.5 73.88 0 0 8.9 42 1013.7 44.2 16
DallasTexas 7/30/2019 5:00 26.4 21.5 74.65 0 0 7.5 19 1013.9 43.9 16
DallasTexas 7/30/2019 6:00 25.8 21.5 77.05 0 0 6.7 23 1014.3 27.8 16
DallasTexas 7/30/2019 7:00 25.8 21.5 77.32 0 0 6.8 22 1015.2 28.1 16
DallasTexas 7/30/2019 8:00 27.1 21.8 72.63 0 0 8.7 223 1015.3 28.1 16
DallasTexas 7/30/2019 9:00 28.9 21.8 65.49 0 0 13.5 225 1015.7 28 16
DallasTexas 7/30/2019 10:00 30.8 21.8 58.85 0 0 14.2 258 1015.7 21.4 16
DallasTexas 7/30/2019 11:00 32.9 21.7 51.57 0 0 15.3 260 1015.4 25.3 16
DallasTexas 7/30/2019 12:00 34.7 21.1 45.29 0 0 14.3 297 1014.9 14.3 16
DallasTexas 7/30/2019 13:00 35.8 20.4 40.81 0 0 11.1 319 1014.5 18.9 16
DallasTexas 7/30/2019 14:00 36.5 19.6 37.32 0 0 9.7 294 1014.1 20.9 16
DallasTexas 7/30/2019 15:00 37.3 19.3 34.94 0 0 9.6 6 1013.5 26.9 16
DallasTexas 7/30/2019 16:00 37.9 18.5 32.33 0 0 8.5 344 1012.5 32.9 16
DallasTexas 7/30/2019 17:00 38.2 17.7 30.04 0 0 9.7 355 1011.9 18 16
DallasTexas 7/30/2019 18:00 38 18.8 32.67 0 0 11.9 29 1011.7 38.8 16
DallasTexas 7/30/2019 19:00 36.5 19.9 38.05 0 0 14.6 44 1011.9 15.2 16
DallasTexas 7/30/2019 20:00 34.9 19.7 40.9 0 0 14.7 100 1012.7 21.2 16
DallasTexas 7/30/2019 21:00 32.7 20.8 49.69 0 0 16.3 135 1013.8 21.8 16
DallasTexas 7/30/2019 22:00 30.8 20.8 55.43 0 0 14.6 161 1014.4 22.8 16
DallasTexas 7/30/2019 23:00 29.2 19.7 56.64 0 0 11.4 137 1014.7 15.3 16
DallasTexas 7/31/2019 0:00 27.7 20 62.93 0 0 9.4 131 1014.7 15.3 16
DallasTexas 7/31/2019 1:00 26.8 20.2 66.95 0 0 7.6 110 1014.8 21.5 16
DallasTexas 7/31/2019 2:00 25.9 20.4 71.52 0 0 8.3 148 1014.9 23.3 16
DallasTexas 7/31/2019 3:00 25.6 20.7 74.38 0 0 8.7 134 1014.8 13.5 16
DallasTexas 7/31/2019 4:00 25 20.7 76.79 0 0 5.2 137 1014.7 11.8 16
DallasTexas 7/31/2019 5:00 24.6 20.7 78.79 0 0 6.8 126 1014.7 13.5 16
DallasTexas 7/31/2019 6:00 24.1 20.7 81.57 0 0 7.7 83 1015 13.5 16
DallasTexas 7/31/2019 7:00 23.8 20.8 82.92 0 0 5.9 91 1015.6 24.9 16
DallasTexas 7/31/2019 8:00 25.4 21.3 77.99 0 0 8.1 119 1015.9 24.9 16
DallasTexas 7/31/2019 9:00 26.8 21.4 72.21 0 0 9.6 123 1016.8 13.5 16
DallasTexas 7/31/2019 10:00 28.5 21.9 67.22 0 0 7.1 129 1017.2 13.5 16
DallasTexas 7/31/2019 11:00 31 22 58.73 0 0 11.7 126 1017 13.7 16
DallasTexas 7/31/2019 12:00 33.1 21.8 51.55 0 0 17.2 114 1016.8 14.4 16
DallasTexas 7/31/2019 13:00 34 21.7 48.81 0 0 18.7 137 1016.5 16.6 16
DallasTexas 7/31/2019 14:00 34.6 21.6 46.86 0 0 10.2 109 1016 30.2 16
DallasTexas 7/31/2019 15:00 35.3 21.2 44.19 0 0 18.3 161 1015.5 39.6 16
DallasTexas 7/31/2019 16:00 35.9 20.2 40 0 0 12.4 125 1014.9 33.4 16
DallasTexas 7/31/2019 17:00 35.8 19.3 38.22 0 0 12.8 127 1014.6 24.5 16
DallasTexas 7/31/2019 18:00 35.6 19.6 39.15 0 0 14 137 1014.4 16.3 16
DallasTexas 7/31/2019 19:00 34.7 19.1 40.07 0 0 12.2 122 1014.1 15.2 16
DallasTexas 7/31/2019 20:00 33.7 19.1 42.31 0 0 15.5 130 1014.1 13.7 16
DallasTexas 7/31/2019 21:00 32.2 19.4 47 0 0 14.2 131 1014.2 13.7 16
DallasTexas 7/31/2019 22:00 30.9 20 52.48 0 0 14.2 127 1014.4 0 16
DallasTexas 7/31/2019 23:00 30.1 20.3 55.84 0 0 13.4 140 1014.7 0 16
DallasTexas 8/1/2019 0:00 29.1 20.5 59.76 0 0 12 132 1014.8 0 15.8
DallasTexas 8/1/2019 1:00 27.9 20.8 65.15 0 0 8.9 126 1015 0 15.6
DallasTexas 8/1/2019 2:00 27.3 21.1 69.06 0 0 8.1 151 1015 0 16
DallasTexas 8/1/2019 3:00 26.9 21.1 70.78 0 0 8 140 1015.2 11.8 16
DallasTexas 8/1/2019 4:00 26.5 21.2 72.67 0 0 7.4 116 1015.3 24.7 16
DallasTexas 8/1/2019 5:00 25.8 21.5 77.3 0 0 6.9 138 1015.2 24.7 16
DallasTexas 8/1/2019 6:00 25.5 21.6 78.95 0 0 9.2 19 1015.2 43.9 16
DallasTexas 8/1/2019 7:00 25.4 21.7 79.96 0 0 6.5 133 1015.7 30.7 16
DallasTexas 8/1/2019 8:00 26.3 22.1 77.52 0 0 7.9 127 1016.5 30 16
DallasTexas 8/1/2019 9:00 27.9 21.9 69.63 0 0 10.3 175 1016.8 27.8 16
DallasTexas 8/1/2019 10:00 29.3 21.2 61.45 0 0 11.9 180 1016.7 29.4 16
DallasTexas 8/1/2019 11:00 31.5 20.7 52.59 0 0 11.3 169 1017.2 27.8 16
DallasTexas 8/1/2019 12:00 32.7 20.8 49.76 0 0 12.7 304 1017.5 31.3 16
DallasTexas 8/1/2019 13:00 33.5 20.9 47.7 0 0 14 163 1017.2 52.6 16
DallasTexas 8/1/2019 14:00 34.2 19.4 41.89 0 0 14.4 128 1016.8 34.3 16
DallasTexas 8/1/2019 15:00 34.6 19.9 42.43 0 0 10.8 143 1016 42.9 16
DallasTexas 8/1/2019 16:00 35 19.2 39.35 0 0 10.5 126 1015.3 34.5 16
DallasTexas 8/1/2019 17:00 34.6 19.3 40.73 0 0 14.8 115 1014.7 39 16
DallasTexas 8/1/2019 18:00 34.4 19.5 41.59 0 0 15.7 131 1014 28.6 16
DallasTexas 8/1/2019 19:00 33.8 19.2 42.41 0 0 16.1 128 1013.6 42 16
DallasTexas 8/1/2019 20:00 32.7 19 44.39 0 0 12.7 123 1013.7 24.7 16
DallasTexas 8/1/2019 21:00 31.3 20.1 51.27 0 0 12.4 123 1013.8 24.9 16
DallasTexas 8/1/2019 22:00 30.3 20.7 56.43 0 0 11.1 121 1014.4 17.6 16
DallasTexas 8/1/2019 23:00 29.4 20.8 59.87 0 0 9 114 1014.8 17.6 16
DallasTexas 8/2/2019 0:00 28.7 21 63.09 0 0 8.3 112 1015.3 13.5 16
DallasTexas 8/2/2019 1:00 28.1 20.9 64.89 0 0 9.4 113 1015.7 24.7 16
DallasTexas 8/2/2019 2:00 27.5 20.9 67.37 0 0 7.9 115 1015.3 13.5 15.8
DallasTexas 8/2/2019 3:00 26.9 21 69.89 0 0 6.5 111 1014.8 13.5 15.5
DallasTexas 8/2/2019 4:00 26.5 21.2 72.63 0 0 8.5 122 1014.4 13.4 16
DallasTexas 8/2/2019 5:00 26.4 21.7 75.13 0 0 12.5 132 1014.1 13.5 16
DallasTexas 8/2/2019 6:00 25.6 21.7 78.85 0 0 10 124 1014.3 13.5 16
DallasTexas 8/2/2019 7:00 25.4 22 81.44 0 0 10.5 126 1014.8 14.3 15.8
DallasTexas 8/2/2019 8:00 26.4 22.2 77.66 0 0 10 161 1015 26.7 16
DallasTexas 8/2/2019 9:00 27.8 22.1 71.07 0 0 6.6 15 1015.4 26.5 16
DallasTexas 8/2/2019 10:00 29.5 22 64.14 0 0 0.8 1 1015.7 26.5 16
DallasTexas 8/2/2019 11:00 31.1 21.8 57.87 0 0 5.8 74 1015.9 29.9 16
DallasTexas 8/2/2019 12:00 32.8 21.7 52.27 0 0 4.9 45 1015.5 49.1 16
DallasTexas 8/2/2019 13:00 33.4 21 48.38 0 0 2.3 18 1015.2 49.7 16
DallasTexas 8/2/2019 14:00 34.7 20.9 44.77 0 0 9.1 85 1014.5 30.8 16
DallasTexas 8/2/2019 15:00 34.8 20.4 42.94 0 0 10.7 89 1013.8 37.1 16
DallasTexas 8/2/2019 16:00 35.1 20.7 43 0 0 13.8 104 1013.3 32 16
DallasTexas 8/2/2019 17:00 34.4 20.4 43.91 0 0 12.6 104 1012.7 23.6 16
DallasTexas 8/2/2019 18:00 34.5 20.4 43.91 0 0 12.8 144 1012.4 29.4 16
DallasTexas 8/2/2019 19:00 33.6 20.6 46.59 0 0 15.3 137 1012.1 28.6 16
DallasTexas 8/2/2019 20:00 32.7 20.6 49.09 0 0 16.3 134 1012.1 19.3 16
DallasTexas 8/2/2019 21:00 31.7 20.7 52.27 0 0 11.6 138 1012.2 18.5 16
DallasTexas 8/2/2019 22:00 30.8 21.2 56.73 0 0 14.9 141 1012.3 28.6 16
DallasTexas 8/2/2019 23:00 30.1 21.7 60.85 0 0 15.7 151 1012.7 46 16
DallasTexas 8/3/2019 0:00 29.6 22.1 64.24 0 0 13.1 148 1013.1 46.7 16
DallasTexas 8/3/2019 1:00 29.3 21.6 63.17 0 0 14.7 154 1012.9 44.9 16
DallasTexas 8/3/2019 2:00 28.9 21.4 64.1 0 0 11.3 142 1012.4 29.1 16
DallasTexas 8/3/2019 3:00 28.4 21.1 64.53 0 0 10.5 139 1012.4 44.8 16
DallasTexas 8/3/2019 4:00 28 21.5 67.68 0 0 13.6 138 1011.8 65.8 16
DallasTexas 8/3/2019 5:00 27.7 21.3 68.18 0.01 0 10.9 124 1012.6 77.2 15.9
DallasTexas 8/3/2019 6:00 26.9 22.3 76.02 0.02 0 3.6 42 1013.7 68.5 16
DallasTexas 8/3/2019 7:00 26.7 22.5 77.71 0 0 9.3 112 1013.4 35.4 15.8
DallasTexas 8/3/2019 8:00 25.9 22.8 83.26 0.19 0 5.1 75 1014.5 52.4 14.5
DallasTexas 8/3/2019 9:00 25.4 23.3 88.15 1.13 0 10.3 88 1015 69.3 11.8
DallasTexas 8/3/2019 10:00 24.8 23.5 92.66 3.4 0 9 89 1015.2 87.9 7.4
DallasTexas 8/3/2019 11:00 25.3 23.5 90.17 1.51 0 9.8 116 1014.5 62.1 13.7
DallasTexas 8/3/2019 12:00 25.9 23.5 86.24 0.25 0 11.9 96 1014.7 84.9 14.9
DallasTexas 8/3/2019 13:00 26.8 23.8 83.65 0.61 0 11.9 143 1013.7 51.8 15.5
DallasTexas 8/3/2019 14:00 28.3 23.4 74.87 0.09 0 14.2 164 1012.9 44.1 16
DallasTexas 8/3/2019 15:00 30 23.2 66.82 0 0 13.4 166 1012.4 36.1 16
DallasTexas 8/3/2019 16:00 31.1 22.3 59.4 0 0 13 160 1011.5 30.4 16
DallasTexas 8/3/2019 17:00 30.8 23.1 63.47 0 0 13.6 132 1011.4 28.4 16
DallasTexas 8/3/2019 18:00 30.3 22.8 64.03 0 0 13.3 128 1011.2 20.4 16
DallasTexas 8/3/2019 19:00 29.6 23.4 69.33 0 0 14.8 119 1011 25.2 16
DallasTexas 8/3/2019 20:00 28.8 23.3 72.23 0 0 11.3 122 1011.8 25.5 16
DallasTexas 8/3/2019 21:00 27.8 23.2 76.43 0 0 8.4 96 1012.2 67.4 16
DallasTexas 8/3/2019 22:00 27.7 23.4 77.33 0 0 7.2 86 1013 76.6 16
DallasTexas 8/3/2019 23:00 27.6 23.5 78.33 0 0 6 74 1013.4 73.6 15.9
DallasTexas 8/4/2019 0:00 27.4 23.6 79.76 0 0 7.4 104 1013.3 60.6 15.8
DallasTexas 8/4/2019 1:00 27.1 23.3 79.7 0 0 5.2 92 1013.6 70.3 16
DallasTexas 8/4/2019 2:00 27 23.6 81.33 0.03 0 7.3 98 1013.6 80.9 15.4
DallasTexas 8/4/2019 3:00 26.9 23.6 82.11 0.04 0 2.5 44 1013.4 94.5 15.3
DallasTexas 8/4/2019 4:00 26.8 24 84.91 0.01 0 6.2 113 1013.4 70.8 15
DallasTexas 8/4/2019 5:00 26.7 23.6 83.48 0 0 6.9 123 1013.4 79 15.4
DallasTexas 8/4/2019 6:00 25.8 23.9 88.91 0.35 0 3.6 83 1013.5 67.1 14.3
DallasTexas 8/4/2019 7:00 25.2 23.1 88.41 1.17 0 9.2 101 1014.2 83.9 14.2
DallasTexas 8/4/2019 8:00 24.6 22.8 89.74 2.21 0 8.3 68 1014.7 68.7 11.4
DallasTexas 8/4/2019 9:00 25.1 22.8 87.01 0.17 0 8.5 59 1015.3 65.9 14.1
DallasTexas 8/4/2019 10:00 26 22.8 82.8 0.05 0 4.9 85 1015.2 66.3 15.6
DallasTexas 8/4/2019 11:00 27 23.1 78.94 0 0 3.7 94 1015.4 83.1 15.8
DallasTexas 8/4/2019 12:00 29.2 22.7 67.92 0 0 0.6 340 1015.3 81 16
DallasTexas 8/4/2019 13:00 31.3 21.3 55.61 0 0 4.4 29 1014.6 58.9 16
DallasTexas 8/4/2019 14:00 31.3 21.8 56.92 0.21 0 5.5 5 1013.9 65.1 15.8
DallasTexas 8/4/2019 15:00 32.7 21.8 52.91 0.24 0 4 51 1013.4 74.2 16
DallasTexas 8/4/2019 16:00 32.2 21.3 52.49 0.06 0 5.1 58 1013 69.3 16
DallasTexas 8/4/2019 17:00 32.5 21.2 51.32 0.04 0 8.5 109 1012.5 60.8 16
DallasTexas 8/4/2019 18:00 32.6 20.8 50.09 0 0 7.3 72 1012.2 51.3 16
DallasTexas 8/4/2019 19:00 32.4 21.4 52.25 0 0 12.6 93 1012.1 32.4 16
DallasTexas 8/4/2019 20:00 31.2 21.8 57.6 0 0 14 96 1012.1 20.3 16
DallasTexas 8/4/2019 21:00 29.6 22.2 64.55 0 0 8.1 99 1012.4 18 16
DallasTexas 8/4/2019 22:00 28.9 22.4 67.75 0 0 8.1 110 1012.6 13.5 16
DallasTexas 8/4/2019 23:00 28.4 22.3 69.84 0 0 7.4 104 1013.2 11.8 16
DallasTexas 8/5/2019 0:00 27.7 22.6 73.7 0 0 3.9 65 1013.8 25.8 16
DallasTexas 8/5/2019 1:00 27.1 22.7 76.64 0 0 4.2 103 1013.7 24 16
DallasTexas 8/5/2019 2:00 26.9 22.7 77.65 0 0 0.6 23 1013.7 48.1 15.8
DallasTexas 8/5/2019 3:00 26.8 23 79.67 0 0 1.8 71 1013.6 50.2 15.6
DallasTexas 8/5/2019 4:00 26.1 23 82.91 0 0 2.4 60 1013.6 31.5 15.3
DallasTexas 8/5/2019 5:00 25.6 23.1 86.06 0 0 4.2 97 1013.6 22.1 15.4
DallasTexas 8/5/2019 6:00 25.7 22.9 84.14 0 0 0.1 3 1013.5 18.3 13.6
DallasTexas 8/5/2019 7:00 25.2 22.9 86.79 0 0 2.7 51 1014 28.9 12
DallasTexas 8/5/2019 8:00 27 23.6 81.65 0 0 0 0 1014.4 28.8 13.9
DallasTexas 8/5/2019 9:00 28.9 23.4 72.22 0 0 0.4 357 1014.6 21.1 14.9
DallasTexas 8/5/2019 10:00 30 22.4 63.83 0 0 2.1 355 1014.8 45.2 15.8
DallasTexas 8/5/2019 11:00 31.5 22.1 57.48 0 0 1.5 5 1014.7 60.4 16
DallasTexas 8/5/2019 12:00 32.5 21.9 53.66 0 0 4.8 81 1014.5 52.4 16
DallasTexas 8/5/2019 13:00 33.3 21.5 50.09 0 0 6.8 355 1014.1 73 16
DallasTexas 8/5/2019 14:00 33.3 21.2 49.04 0 0 4 41 1013.6 77.2 16
DallasTexas 8/5/2019 15:00 34.6 21.3 46.21 0 0 10.8 107 1012.9 54.4 16
DallasTexas 8/5/2019 16:00 34.9 20.6 43.53 0 0 5.2 60 1012.3 47.7 16
DallasTexas 8/5/2019 17:00 35.3 20.6 42.38 0 0 6 51 1011.7 30.2 16
DallasTexas 8/5/2019 18:00 35.4 20.1 40.95 0 0 9.1 83 1011.2 19.9 16
DallasTexas 8/5/2019 19:00 34.6 20.2 42.97 0 0 9.5 110 1011 24.4 16
DallasTexas 8/5/2019 20:00 33.6 21 47.74 0 0 9.6 110 1011.1 21.6 16
DallasTexas 8/5/2019 21:00 32.1 21.2 52.75 0 0 9.5 113 1011.5 16 16
DallasTexas 8/5/2019 22:00 31.5 21.3 54.72 0 0 10 133 1011.9 14.2 16
DallasTexas 8/5/2019 23:00 30.3 22.1 61.51 0 0 12.7 152 1012.1 13.5 16
DallasTexas 8/6/2019 0:00 29.6 22.6 66.33 0 0 9.2 138 1012.1 24.7 16
DallasTexas 8/6/2019 1:00 28.8 23.4 72.48 0 0 10.4 155 1012.2 15 16
DallasTexas 8/6/2019 2:00 28.3 23.3 74.28 0 0 8.5 116 1012.1 18.3 16
DallasTexas 8/6/2019 3:00 28.2 23 73.36 0 0 10.7 268 1012 42 16
DallasTexas 8/6/2019 4:00 27.9 23 74.87 0 0 11.6 228 1012.1 43.9 16
DallasTexas 8/6/2019 5:00 27.5 23 76.65 0 0 6.7 246 1012.2 48.7 16
DallasTexas 8/6/2019 6:00 27.4 23 76.83 0 0 6.5 26 1012.4 43.9 16
DallasTexas 8/6/2019 7:00 26.9 22.8 78.25 0 0 5.8 270 1012.8 42.4 16
DallasTexas 8/6/2019 8:00 27.6 23 76.23 0 0 6 251 1013.5 13.7 16
DallasTexas 8/6/2019 9:00 29.5 23 68.31 0 0 8.6 191 1013.9 20.8 16
DallasTexas 8/6/2019 10:00 30.7 22.8 63.04 0 0 7.7 220 1014.1 48.2 16
DallasTexas 8/6/2019 11:00 33 22.7 54.96 0 0 8.8 235 1014 18.1 16
DallasTexas 8/6/2019 12:00 34.3 22 48.58 0 0 8.7 45 1013.8 20.4 16
DallasTexas 8/6/2019 13:00 34.9 21.7 46.47 0 0 9 64 1012.9 43.5 16
DallasTexas 8/6/2019 14:00 35.7 21.9 44.7 0 0 13.5 70 1012.2 64.3 16
DallasTexas 8/6/2019 15:00 35.7 21.5 43.85 0 0 14.5 167 1011.6 42.7 16
DallasTexas 8/6/2019 16:00 35.5 21.2 43.48 0 0 13.5 33 1011.2 43.4 16
DallasTexas 8/6/2019 17:00 35.5 21.1 43.22 0 0 12.3 4 1010.5 30.2 16
DallasTexas 8/6/2019 18:00 36.2 20.2 39.46 0 0 12.1 165 1010.2 19.9 16
DallasTexas 8/6/2019 19:00 35.4 20 40.61 0 0 10 155 1009.9 14.4 16
DallasTexas 8/6/2019 20:00 34.3 19.6 42.1 0 0 12.7 148 1010 13.7 16
DallasTexas 8/6/2019 21:00 32.7 21.4 51.65 0 0 12.7 144 1010.1 13.7 16
DallasTexas 8/6/2019 22:00 31.5 22.1 57.8 0 0 12.2 149 1011 15 16
DallasTexas 8/6/2019 23:00 30.7 22.5 61.7 0 0 10.5 131 1011.6 43.9 16
DallasTexas 8/7/2019 0:00 30.2 22.9 65.15 0 0 10.2 139 1011.5 43.9 16
DallasTexas 8/7/2019 1:00 29.6 22.9 67.3 0 0 13.4 140 1011.4 43.9 16
DallasTexas 8/7/2019 2:00 29.1 22.9 69.06 0 0 9.2 120 1011.5 43.9 16
DallasTexas 8/7/2019 3:00 28.7 22.7 69.91 0 0 11.2 188 1011.2 43.9 16
DallasTexas 8/7/2019 4:00 28.7 22.3 68.53 0 0 12.2 185 1011.1 43.9 16
DallasTexas 8/7/2019 5:00 28 22.3 71.03 0 0 8.6 183 1011.6 43.9 15.9
DallasTexas 8/7/2019 6:00 27.5 22.3 73.19 0 0 8.5 28 1011.6 45.9 16
DallasTexas 8/7/2019 7:00 27 22.3 75.56 0 0 10.1 56 1011.9 29.3 16
DallasTexas 8/7/2019 8:00 27.5 22.7 75.23 0 0 11.9 176 1012.3 28.1 16
DallasTexas 8/7/2019 9:00 29.4 23 68.45 0 0 12.1 207 1012.5 27.8 16
DallasTexas 8/7/2019 10:00 31 22.8 61.6 0 0 11.6 226 1012.8 18.3 16
DallasTexas 8/7/2019 11:00 32.9 22.7 55.07 0 0 10.9 221 1012.6 14.2 16
DallasTexas 8/7/2019 12:00 34.6 21.9 47.61 0 0 14.4 211 1012.1 17.4 16
DallasTexas 8/7/2019 13:00 35.7 21.4 43.59 0 0 11 221 1011.7 25.2 16
DallasTexas 8/7/2019 14:00 36.6 21.1 40.66 0 0 7.7 305 1011.2 22.2 16
DallasTexas 8/7/2019 15:00 37.2 20.7 38.54 0 0 9.8 136 1010.7 26.2 16
DallasTexas 8/7/2019 16:00 37.4 20.6 37.92 0 0 14.9 155 1010 25.7 16
DallasTexas 8/7/2019 17:00 37.5 20.7 37.9 0 0 14.1 163 1009.7 30 16
DallasTexas 8/7/2019 18:00 37 20.5 38.31 0 0 15.6 170 1009.3 29.2 16
DallasTexas 8/7/2019 19:00 36.2 20.2 39.27 0 0 22.1 154 1008.9 18.7 16
DallasTexas 8/7/2019 20:00 34.7 20.2 42.83 0 0 17.6 157 1009 18.7 16
DallasTexas 8/7/2019 21:00 33.3 20.6 47.27 0 0 16.9 154 1009.5 44.9 16
DallasTexas 8/7/2019 22:00 32.2 20.4 49.87 0 0 18.3 156 1009.8 44.6 16
DallasTexas 8/7/2019 23:00 31.4 20.5 52.66 0 0 13.5 153 1010.6 44.6 16
DallasTexas 8/8/2019 0:00 30.5 20.7 55.65 0 0 13.8 154 1010.7 44.6 16
DallasTexas 8/8/2019 1:00 29.6 20.9 59.32 0 0 12.8 147 1010.5 44.6 16
DallasTexas 8/8/2019 2:00 29.2 20.9 60.85 0 0 14.5 165 1010.2 27.6 16
DallasTexas 8/8/2019 3:00 28.9 21.3 63.76 0 0 14.7 182 1010.5 44.6 16
DallasTexas 8/8/2019 4:00 28.1 21.8 68.31 0 0 14.8 183 1010.2 44.6 16
DallasTexas 8/8/2019 5:00 27.7 21.8 70.29 0 0 12.3 183 1010.3 44.6 16
DallasTexas 8/8/2019 6:00 27.2 22.2 74.21 0 0 11.8 170 1011.3 44.6 16
DallasTexas 8/8/2019 7:00 26.9 22.3 76.25 0 0 12.9 181 1011.9 25.2 16
DallasTexas 8/8/2019 8:00 27 22.9 78.53 0 0 16.4 179 1012.3 44.9 16
DallasTexas 8/8/2019 9:00 27.9 23.1 75.4 0 0 15.1 192 1012.4 46.5 16
DallasTexas 8/8/2019 10:00 29.6 22.8 66.91 0 0 17.3 207 1012.7 47 16
DallasTexas 8/8/2019 11:00 31.5 22.8 60.08 0 0 13.3 201 1012.9 44.8 16
DallasTexas 8/8/2019 12:00 32.7 22.7 55.95 0 0 12.9 185 1013 44.2 16
DallasTexas 8/8/2019 13:00 33.8 22.4 51.54 0 0 17 172 1012.5 29.7 16
DallasTexas 8/8/2019 14:00 35 22.2 47.7 0 0 17.5 156 1011.9 27.8 16
DallasTexas 8/8/2019 15:00 35.2 21.6 45.32 0 0 15.8 157 1011.5 33.5 16
DallasTexas 8/8/2019 16:00 35.2 21.6 45.27 0 0 18.6 163 1010.8 29.4 16
DallasTexas 8/8/2019 17:00 35.1 21.6 45.72 0 0 17.9 154 1010.3 28.6 16
DallasTexas 8/8/2019 18:00 35 21.2 44.74 0 0 17.3 165 1010.1 28.6 16
DallasTexas 8/8/2019 19:00 34.6 20.9 44.85 0 0 15.3 165 1009.7 29.7 16
DallasTexas 8/8/2019 20:00 33.6 21 47.89 0 0 12.7 134 1009.8 30 16
DallasTexas 8/8/2019 21:00 32.2 22 54.86 0 0 12.5 127 1010.1 30 16
DallasTexas 8/8/2019 22:00 31.1 22.3 59.41 0 0 11.3 120 1010.5 43.9 16
DallasTexas 8/8/2019 23:00 30.4 22.3 61.91 0 0 11.4 122 1011 24.7 16
DallasTexas 8/9/2019 0:00 29.9 22.3 63.63 0 0 13.8 142 1010.6 15 16
DallasTexas 8/9/2019 1:00 29.5 22.3 65.16 0 0 11.7 136 1011 13.5 16
DallasTexas 8/9/2019 2:00 29.1 22.3 66.8 0 0 11.9 157 1010.9 13.5 16
DallasTexas 8/9/2019 3:00 28.4 22.6 71.09 0 0 13.3 167 1010.6 13.5 16
DallasTexas 8/9/2019 4:00 27.9 22.3 71.69 0 0 13.9 165 1010.7 26 16
DallasTexas 8/9/2019 5:00 27.5 22.6 74.82 0 0 11.5 177 1010.7 19.6 16
DallasTexas 8/9/2019 6:00 27.2 22.7 76.37 0 0 13.2 180 1011.2 25.3 16
DallasTexas 8/9/2019 7:00 26.9 22.9 78.96 0 0 11.7 178 1011.9 28.1 15.8
DallasTexas 8/9/2019 8:00 27.3 23.4 79.35 0 0 15.8 182 1012.5 29.6 15.9
DallasTexas 8/9/2019 9:00 28.6 23.3 73.37 0 0 16.3 190 1012.9 35.9 16
DallasTexas 8/9/2019 10:00 30.3 22.4 62.71 0 0 16.1 204 1013 27.8 16
DallasTexas 8/9/2019 11:00 32.2 21.7 53.99 0 0 17.5 209 1013.3 27.8 16
DallasTexas 8/9/2019 12:00 33.8 21.2 48.01 0 0 13.3 211 1013.3 27.8 16
DallasTexas 8/9/2019 13:00 35.3 20.5 42.13 0 0 13.4 186 1012.6 42 16
DallasTexas 8/9/2019 14:00 36.6 20 38.21 0 0 11.4 180 1012 27.8 16
DallasTexas 8/9/2019 15:00 37.5 19.3 34.59 0 0 12 177 1011.4 27.8 16
DallasTexas 8/9/2019 16:00 38.2 19 32.71 0 0 17.2 163 1010.3 28.6 16
DallasTexas 8/9/2019 17:00 38.2 18.9 32.61 0 0 16.6 157 1009.8 36.1 16
DallasTexas 8/9/2019 18:00 37.7 19.3 34.38 0 0 17 159 1009.4 29.8 16
DallasTexas 8/9/2019 19:00 36.7 19 35.59 0 0 17.2 147 1009.1 27.8 16
DallasTexas 8/9/2019 20:00 35.8 18.7 36.75 0 0 16.9 151 1009.5 28.1 16
DallasTexas 8/9/2019 21:00 33.9 20.4 45.03 0 0 17.3 145 1010.1 28.1 16
DallasTexas 8/9/2019 22:00 32.8 21.1 50.21 0 0 14.9 154 1011 43.9 16
DallasTexas 8/9/2019 23:00 32 21.2 53.1 0 0 16.6 155 1011.1 43.9 16
DallasTexas 8/10/2019 0:00 30.9 21.4 56.82 0 0 16.7 162 1011 27.2 16
DallasTexas 8/10/2019 1:00 30.6 21.3 57.89 0 0 19 170 1011.1 27.2 16
DallasTexas 8/10/2019 2:00 30 21.3 59.72 0 0 15.2 173 1011.1 27.2 16
DallasTexas 8/10/2019 3:00 29.4 21.3 61.88 0 0 17.4 178 1010.9 27.2 16
DallasTexas 8/10/2019 4:00 28.7 21.5 65.28 0 0 12.5 177 1011.3 24.7 16
DallasTexas 8/10/2019 5:00 27.9 21.4 67.93 0 0 12.2 176 1011.8 24.7 16
DallasTexas 8/10/2019 6:00 27.1 21.7 72.72 0 0 14.3 175 1011.8 24.7 16
DallasTexas 8/10/2019 7:00 26.6 21.8 75.3 0 0 15 174 1012.5 14.3 16
DallasTexas 8/10/2019 8:00 26.5 22.3 78.1 0 0 15.1 186 1013.1 14.4 16
DallasTexas 8/10/2019 9:00 28.1 22.6 72.26 0 0 16 190 1013.6 23.9 16
DallasTexas 8/10/2019 10:00 29.7 22.9 66.81 0 0 14.7 208 1013.8 21.6 16
DallasTexas 8/10/2019 11:00 31.4 22.6 59.63 0 0 14.8 205 1013.9 17.7 16
DallasTexas 8/10/2019 12:00 33.4 22.3 52.18 0 0 14.7 199 1013.7 14.6 16
DallasTexas 8/10/2019 13:00 34.3 21.7 47.85 0 0 12.8 183 1012.9 17.6 16
DallasTexas 8/10/2019 14:00 35.4 21 43.15 0 0 12.7 217 1012.3 23.9 16
DallasTexas 8/10/2019 15:00 36.6 20 38.08 0 0 10.3 110 1011.5 27.2 16
DallasTexas 8/10/2019 16:00 37.7 18.5 32.67 0 0 17.4 177 1010.7 41.5 16
DallasTexas 8/10/2019 17:00 38 18 31.15 0 0 14.1 167 1010 23.9 16
DallasTexas 8/10/2019 18:00 38.2 18.1 31.12 0 0 19.5 153 1009.6 24.7 16
DallasTexas 8/10/2019 19:00 37.2 18.5 33.5 0 0 18.1 164 1009.7 41.5 16
DallasTexas 8/10/2019 20:00 35.6 18.7 37.13 0 0 17.5 149 1010.1 24.7 16
DallasTexas 8/10/2019 21:00 33.8 20.2 44.78 0 0 16.6 144 1010.9 23.3 16
DallasTexas 8/10/2019 22:00 32.6 21.4 51.79 0 0 14.8 143 1011.8 13.5 16
DallasTexas 8/10/2019 23:00 31.5 21.3 54.74 0 0 14 139 1012.4 15 16
DallasTexas 8/11/2019 0:00 30.6 21.6 58.67 0 0 12 147 1012.6 13.5 16
DallasTexas 8/11/2019 1:00 29.7 21.8 62.42 0 0 12.1 164 1012.3 13.5 16
DallasTexas 8/11/2019 2:00 29.3 21.8 64.02 0 0 12.5 158 1012.6 13.5 16
DallasTexas 8/11/2019 3:00 28.6 21.8 66.54 0 0 13.8 149 1012.3 13.5 16
DallasTexas 8/11/2019 4:00 27.8 21.6 69.13 0 0 11.9 167 1012.1 13.5 16
DallasTexas 8/11/2019 5:00 27.5 21.5 69.92 0 0 13.6 242 1012.1 13.5 16
DallasTexas 8/11/2019 6:00 27 21.3 71.11 0 0 11.8 176 1012.8 13.5 16
DallasTexas 8/11/2019 7:00 26.8 21.3 71.86 0 0 12.5 175 1013.6 30 16
DallasTexas 8/11/2019 8:00 27 21.4 71.44 0 0 11.5 180 1014.4 41.8 16
DallasTexas 8/11/2019 9:00 28.7 21.4 64.81 0 0 14.4 209 1014.9 41.5 16
DallasTexas 8/11/2019 10:00 30.5 21.3 58.16 0 0 18.2 198 1014.8 41.5 16
DallasTexas 8/11/2019 11:00 32.4 20.8 50.61 0 0 16.8 203 1014.9 43.9 16
DallasTexas 8/11/2019 12:00 33.8 19.9 44.28 0 0 15.1 204 1014.5 43.9 16
DallasTexas 8/11/2019 13:00 35.1 19.7 40.55 0 0 17 169 1013.9 43.9 15.8
DallasTexas 8/11/2019 14:00 36.1 19.5 37.86 0 0 14.3 174 1013 29.7 16
DallasTexas 8/11/2019 15:00 37.3 18.5 33.21 0 0 16.8 161 1012.7 29.7 16
DallasTexas 8/11/2019 16:00 37.7 18.5 32.74 0 0 14.1 173 1012 20.4 16
DallasTexas 8/11/2019 17:00 37.5 17.5 30.94 0 0 17.8 165 1011.6 19.1 16
DallasTexas 8/11/2019 18:00 37.4 18.6 33.27 0 0 20.6 142 1011.2 41.8 16
DallasTexas 8/11/2019 19:00 36.6 18.4 34.35 0 0 18.9 149 1010.8 43.9 16
DallasTexas 8/11/2019 20:00 35.1 19.6 40.41 0 0 15.9 144 1010.8 23.5 16
DallasTexas 8/11/2019 21:00 33.4 20.5 46.82 0 0 18 140 1011.2 13.7 16
DallasTexas 8/11/2019 22:00 32.3 20.5 49.92 0 0 19.9 142 1011.6 11.8 16
DallasTexas 8/11/2019 23:00 31.2 21.3 55.88 0 0 15.3 139 1011.9 11.8 16
DallasTexas 8/12/2019 0:00 30.3 21.6 59.66 0 0 12.1 137 1011.9 11.8 16
DallasTexas 8/12/2019 1:00 29.5 21.7 63.07 0 0 12 125 1011.7 11.8 16
DallasTexas 8/12/2019 2:00 29.1 21.8 65.04 0 0 11.8 155 1011.3 1.8 16
DallasTexas 8/12/2019 3:00 28.7 21.9 67.06 0 0 10.6 152 1011 0 16
DallasTexas 8/12/2019 4:00 28.2 22 69.32 0 0 10.5 29 1011.2 0 16
DallasTexas 8/12/2019 5:00 27.7 21.8 70.46 0 0 12.9 174 1011.1 0 16
DallasTexas 8/12/2019 6:00 27.6 21.8 71.06 0 0 11.5 175 1011.3 0 16
DallasTexas 8/12/2019 7:00 27.2 21.9 72.65 0 0 13.6 174 1011.7 3.2 16
DallasTexas 8/12/2019 8:00 27.8 22.4 72.21 0 0 14.9 187 1012.2 0 16
DallasTexas 8/12/2019 9:00 29.4 22.4 66.13 0 0 14.1 192 1012.5 0 16
DallasTexas 8/12/2019 10:00 31.4 22.3 58.79 0 0 15.9 200 1012.5 0 16
DallasTexas 8/12/2019 11:00 33 21.7 51.49 0 0 17.6 198 1012.6 0 16
DallasTexas 8/12/2019 12:00 34.9 21.3 45.25 0 0 16.3 178 1012.6 0 16
DallasTexas 8/12/2019 13:00 35.8 20.7 41.49 0 0 15.2 189 1012.1 13.5 16
DallasTexas 8/12/2019 14:00 36.8 20.5 38.84 0 0 12.9 170 1011.6 13.5 16
DallasTexas 8/12/2019 15:00 37.5 19.5 35 0 0 13.2 164 1010.9 14.4 16
DallasTexas 8/12/2019 16:00 38 18.8 32.73 0 0 18.3 170 1010 14.4 16
DallasTexas 8/12/2019 17:00 38.2 18.4 31.56 0 0 19.8 166 1009.3 13.7 16
DallasTexas 8/12/2019 18:00 38 18.2 31.4 0 0 20.9 162 1008.9 11.8 16
DallasTexas 8/12/2019 19:00 37.3 18.4 32.98 0 0 17.3 145 1008.4 11.8 16
DallasTexas 8/12/2019 20:00 35.8 18.9 37.03 0 0 17.7 150 1008.7 11.9 16
DallasTexas 8/12/2019 21:00 34.3 18.9 40.24 0 0 14.5 148 1009.1 11.9 16
DallasTexas 8/12/2019 22:00 32.9 19.9 46.42 0 0 15.9 148 1009.7 0 16
DallasTexas 8/12/2019 23:00 31.8 20.1 49.83 0 0 13.6 142 1010.1 0 16
DallasTexas 8/13/2019 0:00 30.9 20.6 54.6 0 0 13.4 139 1010 0 16
DallasTexas 8/13/2019 1:00 30.3 20.9 57.38 0 0 11.6 140 1010.1 0 16
DallasTexas 8/13/2019 2:00 29.6 21.1 60.19 0 0 10.8 151 1010.1 0 16
DallasTexas 8/13/2019 3:00 29.1 21.2 62.29 0 0 10.8 63 1010.1 0 16
DallasTexas 8/13/2019 4:00 28.6 21.2 64.59 0 0 10.1 26 1010.2 0 16
DallasTexas 8/13/2019 5:00 28 21.6 68.3 0 0 10 23 1010.4 13.5 16
DallasTexas 8/13/2019 6:00 27.5 21.7 70.94 0 0 8.9 234 1010.9 13.5 16
DallasTexas 8/13/2019 7:00 27.1 22.1 74.14 0 0 10.2 156 1011.6 13.7 16
DallasTexas 8/13/2019 8:00 27.9 22.5 72.51 0 0 10.8 345 1012.3 13.7 16
DallasTexas 8/13/2019 9:00 29.2 23 69.48 0 0 11.3 180 1012.6 13.5 16
DallasTexas 8/13/2019 10:00 31.4 23 60.89 0 0 12.5 185 1012.7 13.5 16
DallasTexas 8/13/2019 11:00 33.6 22.4 51.95 0 0 13.2 231 1012.8 13.5 16
DallasTexas 8/13/2019 12:00 34.5 22.1 48.6 0 0 6.5 14 1012.7 13.5 16
DallasTexas 8/13/2019 13:00 35.8 21.9 44.79 0 0 3.8 22 1012.3 44.4 16
DallasTexas 8/13/2019 14:00 37 21.6 41.01 0 0 3.5 45 1011.6 38.7 16
DallasTexas 8/13/2019 15:00 37.4 20.8 38.38 0 0 9.2 82 1011.1 33.8 16
DallasTexas 8/13/2019 16:00 38.4 20.5 35.61 0 0 16.8 98 1010.5 41.4 16
DallasTexas 8/13/2019 17:00 38.2 20 35.02 0 0 14.5 131 1010 31 16
DallasTexas 8/13/2019 18:00 37.8 19.6 34.61 0 0 13.9 126 1010 23.2 16
DallasTexas 8/13/2019 19:00 37.2 19.7 36.21 0 0 12 130 1009.8 20.3 16
DallasTexas 8/13/2019 20:00 35.6 19.7 39.3 0 0 14.3 133 1010.2 17.7 16
DallasTexas 8/13/2019 21:00 34.4 19.5 41.69 0 0 14.1 143 1011.1 31.9 16
DallasTexas 8/13/2019 22:00 33.4 19.5 43.91 0 0 13.4 146 1011.5 29.4 16
DallasTexas 8/13/2019 23:00 32.6 19.9 47.03 0 0 8.5 142 1012.6 28 16
DallasTexas 8/14/2019 0:00 32 19.8 48.47 0 0 7.6 141 1012.6 37.5 16
DallasTexas 8/14/2019 1:00 31.5 20 50.71 0 0 6.8 121 1012.7 35.3 16
DallasTexas 8/14/2019 2:00 30.6 20.5 55.02 0 0 4.7 80 1012.5 32.4 16
DallasTexas 8/14/2019 3:00 29.8 20.9 58.94 0.71 0 5.6 24 1012.6 64.2 15.7
DallasTexas 8/14/2019 4:00 29.3 21.9 64.75 0.05 0 15.9 21 1013.4 67.5 15.1
DallasTexas 8/14/2019 5:00 27 22.8 77.91 0.03 0 18.5 13 1014.4 57.9 15.6
DallasTexas 8/14/2019 6:00 25.6 21.6 78.74 0.61 0 14.8 41 1014.8 70.6 14.6
DallasTexas 8/14/2019 7:00 24.7 21.9 84.82 0.63 0 15.3 347 1016.1 65.1 15.7
DallasTexas 8/14/2019 8:00 24.4 21.9 86.12 0.56 0 6.7 351 1016 55.1 14.7
DallasTexas 8/14/2019 9:00 24.5 22.7 89.82 1.16 0 10.1 101 1014.9 53 16
DallasTexas 8/14/2019 10:00 26.5 22.9 80.25 0.03 0 8.9 24 1015.3 23.9 15.3
DallasTexas 8/14/2019 11:00 28.8 22.6 69.61 0 0 12.8 7 1015.8 53.7 15.3
DallasTexas 8/14/2019 12:00 29.9 22.6 65.23 0.03 0 9.3 27 1016.2 73.6 15.6
DallasTexas 8/14/2019 13:00 30.6 22.4 61.65 0.03 0 10.2 42 1016.1 69.6 16
DallasTexas 8/14/2019 14:00 31.2 22 57.97 0 0 10.5 59 1015.5 72.5 15.8
DallasTexas 8/14/2019 15:00 31 21.5 57.04 0 0 9 88 1014.7 49.8 16
DallasTexas 8/14/2019 16:00 33 21.2 49.98 0 0 4.5 47 1013.4 18.2 16
DallasTexas 8/14/2019 17:00 34 20.7 45.95 0 0 5.7 31 1012.7 21.1 15.6
DallasTexas 8/14/2019 18:00 34.4 20.7 44.9 0 0 6.6 48 1012.6 20.8 15.6
DallasTexas 8/14/2019 19:00 34.2 20.9 45.92 0 0 4.5 57 1011.9 16.2 15.5
DallasTexas 8/14/2019 20:00 32.8 21.1 50.27 0 0 3.8 57 1012.5 20.5 15.6
DallasTexas 8/14/2019 21:00 31.2 21.7 56.81 0 0 5.1 83 1013 28.2 15.8
DallasTexas 8/14/2019 22:00 30.9 22.1 59.47 0 0 5.6 46 1014.7 51.2 15.6
DallasTexas 8/14/2019 23:00 29.8 22.8 66.07 0 0 4.2 40 1015.2 41.2 15.6
DallasTexas 8/15/2019 0:00 29.5 21.9 63.65 0 0 9.4 102 1015.4 47 15.8
DallasTexas 8/15/2019 1:00 28.4 21.6 66.95 0 0 1 29 1015.5 27.2 15.6
DallasTexas 8/15/2019 2:00 28 21.3 66.91 0 0 3.8 97 1015.1 20.4 15.6
DallasTexas 8/15/2019 3:00 27.1 21.7 72.34 0 0 6.8 97 1015 13.5 15.6
DallasTexas 8/15/2019 4:00 26.5 21.9 76.13 0 0 3 70 1014.7 20.3 15.9
DallasTexas 8/15/2019 5:00 25.7 22.2 80.92 0 0 3.9 98 1014.5 40.7 15.6
DallasTexas 8/15/2019 6:00 25.3 22.5 84.62 0 0 2.9 80 1014.5 15 15.5
DallasTexas 8/15/2019 7:00 25.4 22.2 82.56 0 0 2 78 1015 14.3 15.5
DallasTexas 8/15/2019 8:00 26.7 22.7 78.86 0 0 2.4 105 1015.4 13.7 16
DallasTexas 8/15/2019 9:00 29 22.9 69.55 0 0 0.2 359 1015.9 14 16
DallasTexas 8/15/2019 10:00 30.6 22.5 61.88 0 0 10.1 110 1016.2 15.4 16
DallasTexas 8/15/2019 11:00 32.2 22.4 56.26 0 0 12.1 114 1016.2 28.9 16
DallasTexas 8/15/2019 12:00 33 21.9 52.11 0 0 11.6 147 1015.9 53.2 16
DallasTexas 8/15/2019 13:00 33.7 20.8 46.9 0 0 5.5 65 1015.2 79.5 15.6
DallasTexas 8/15/2019 14:00 34.3 20.5 44.51 0 0 9.7 70 1014.5 52.6 15.8
DallasTexas 8/15/2019 15:00 35.5 19.8 39.76 0 0 10.5 98 1013.6 43.1 16
DallasTexas 8/15/2019 16:00 36.1 18.9 36.64 0 0 8.8 83 1012.9 46 16
DallasTexas 8/15/2019 17:00 36.2 18.6 35.56 0 0 5.6 69 1012.1 20.3 16
DallasTexas 8/15/2019 18:00 35.9 18.8 36.55 0 0 5.9 78 1011.9 15.4 16
DallasTexas 8/15/2019 19:00 35.3 18.8 37.77 0 0 11.7 123 1011.6 12.6 16
DallasTexas 8/15/2019 20:00 34 18.9 41.06 0 0 14 135 1011.7 13.7 16
DallasTexas 8/15/2019 21:00 32.4 18.9 44.85 0 0 10.8 114 1011.7 44.3 16
DallasTexas 8/15/2019 22:00 31.3 19.2 48.62 0 0 10.1 119 1012.3 43.9 16
DallasTexas 8/15/2019 23:00 30.7 19.5 51.28 0 0 12.4 134 1012.8 27.2 16
DallasTexas 8/16/2019 0:00 29.8 19.8 54.92 0 0 14 145 1012.8 15 16
DallasTexas 8/16/2019 1:00 29.3 20.2 57.86 0 0 12.8 140 1012.9 13.5 16
DallasTexas 8/16/2019 2:00 28.6 20.3 61.03 0 0 13.1 140 1012.6 13.5 15.9
DallasTexas 8/16/2019 3:00 27.9 20.9 66.03 0 0 9.8 153 1012.5 13.5 15.9
DallasTexas 8/16/2019 4:00 27.4 21.1 68.76 0 0 9.1 128 1012.7 13.5 15.9
DallasTexas 8/16/2019 5:00 26.9 21.4 71.76 0 0 9.8 129 1012.7 13.5 15.9
DallasTexas 8/16/2019 6:00 26.1 21.5 75.66 0 0 9.9 171 1012.6 1.8 15.9
DallasTexas 8/16/2019 7:00 26.1 21.7 77.11 0 0 10.4 161 1013 14.3 16
DallasTexas 8/16/2019 8:00 26.9 22.3 75.82 0 0 9.8 19 1013.3 13.7 16
DallasTexas 8/16/2019 9:00 28.9 22.7 69.24 0 0 10.6 171 1013.5 11.8 15.9
DallasTexas 8/16/2019 10:00 31.3 22.7 60.3 0 0 14.2 185 1013.5 0 15.9
DallasTexas 8/16/2019 11:00 33.3 22.3 52.67 0 0 12.7 195 1013.7 12.6 15.9
DallasTexas 8/16/2019 12:00 35.1 21.8 46.31 0 0 14.8 165 1013.4 16.2 16
DallasTexas 8/16/2019 13:00 35.5 21 42.77 0 0 6.8 315 1012.9 22.8 16
DallasTexas 8/16/2019 14:00 36.5 20.1 38.29 0 0 13.5 145 1012.1 20.6 16
DallasTexas 8/16/2019 15:00 37.2 20.1 37.02 0 0 12.7 77 1011.3 27.4 16
DallasTexas 8/16/2019 16:00 37.7 19.7 35.11 0 0 19.7 151 1010.7 21 16
DallasTexas 8/16/2019 17:00 37.6 19.5 34.98 0 0 20.4 131 1010.2 25.8 16
DallasTexas 8/16/2019 18:00 36.8 19 35.35 0 0 20 134 1010 15.8 16
DallasTexas 8/16/2019 19:00 36.1 18.5 35.79 0 0 22.1 134 1009.6 14.4 16
DallasTexas 8/16/2019 20:00 34.5 19.1 40.39 0 0 20.3 135 1009.4 13.7 16
DallasTexas 8/16/2019 21:00 32.7 19.9 46.83 0 0 16.9 138 1009.5 13.7 16
DallasTexas 8/16/2019 22:00 31.9 20.4 50.68 0 0 15.1 141 1010.1 1.8 16
DallasTexas 8/16/2019 23:00 31.1 21.2 55.43 0 0 16.2 139 1011 1.8 16
DallasTexas 8/17/2019 0:00 30.4 21.7 59.89 0 0 16.6 157 1011.4 1.8 16
DallasTexas 8/17/2019 1:00 29.7 21.8 62.8 0 0 18.6 153 1011.7 13.5 16
DallasTexas 8/17/2019 2:00 29.1 22.3 67.13 0 0 17.4 159 1011.5 44 16
DallasTexas 8/17/2019 3:00 28.4 22.9 71.82 0 0 15.7 158 1011 29.7 16
DallasTexas 8/17/2019 4:00 27.7 23.1 76.3 0 0 15.6 169 1010.6 13.5 16
DallasTexas 8/17/2019 5:00 27.5 23.3 78 0 0 14.7 168 1010.3 13.5 16
DallasTexas 8/17/2019 6:00 27.2 22.8 77.27 0 0 12.8 180 1010.3 11.8 16
DallasTexas 8/17/2019 7:00 26.9 22.3 75.88 0 0 14.6 181 1010.6 13.7 16
DallasTexas 8/17/2019 8:00 27.4 22 72.23 0 0 13 172 1011.1 13.7 16
DallasTexas 8/17/2019 9:00 28.4 21.9 68.04 0 0 14.7 180 1011.5 3.8 16
DallasTexas 8/17/2019 10:00 30.5 21.4 58.43 0 0 15.4 181 1011.3 1.6 16
DallasTexas 8/17/2019 11:00 32.1 21 51.92 0 0 14.6 183 1011.5 0 16
DallasTexas 8/17/2019 12:00 33.7 21.1 47.83 0 0 16 180 1011.1 13.5 16
DallasTexas 8/17/2019 13:00 35 21.7 45.93 0 0 15.3 160 1010.4 13.5 16
DallasTexas 8/17/2019 14:00 36 21.1 42.09 0 0 20.4 172 1009.6 15.4 16
DallasTexas 8/17/2019 15:00 36.7 20.7 39.49 0 0 20.5 176 1008.8 28.5 16
DallasTexas 8/17/2019 16:00 37.1 20.6 38.28 0 0 18.6 159 1008 35.4 16
DallasTexas 8/17/2019 17:00 37.2 20.1 36.93 0 0 18.3 143 1007.6 31.3 16
DallasTexas 8/17/2019 18:00 36.9 20 37.35 0 0 20 161 1007.4 22.9 16
DallasTexas 8/17/2019 19:00 35.9 20.3 40.18 0 0 22.6 140 1007 14.4 16
DallasTexas 8/17/2019 20:00 34.5 20.6 44.22 0 0 21.1 139 1006.8 13.7 16
DallasTexas 8/17/2019 21:00 33.1 20.5 47.53 0 0 18.5 140 1007.4 13.7 16
DallasTexas 8/17/2019 22:00 32.2 20.7 50.72 0 0 17.9 139 1008.1 13.5 16
DallasTexas 8/17/2019 23:00 31.2 21.2 55.36 0 0 15.7 143 1008.9 15 16
DallasTexas 8/18/2019 0:00 30.7 21.7 58.74 0 0 17.6 156 1009.3 13.5 16
DallasTexas 8/18/2019 1:00 29.7 22.2 64.1 0 0 23.4 160 1009.6 13.5 16
DallasTexas 8/18/2019 2:00 29.2 22.3 66.52 0 0 15 168 1009.6 13.5 16
DallasTexas 8/18/2019 3:00 28.7 22.3 68.51 0 0 18.1 173 1009.2 15 16
DallasTexas 8/18/2019 4:00 28.1 22.3 70.59 0 0 13.8 172 1009.3 15 16
DallasTexas 8/18/2019 5:00 27.8 22.3 71.98 0 0 15.3 173 1009.4 24.7 16
DallasTexas 8/18/2019 6:00 27.1 22.3 74.7 0 0 18.8 172 1009.2 24.7 16
DallasTexas 8/18/2019 7:00 26.9 21.8 73.83 0 0 20.1 180 1009.6 13.7 16
DallasTexas 8/18/2019 8:00 27 22 74.11 0 0 17.3 180 1010.6 21.9 16
DallasTexas 8/18/2019 9:00 28.4 22.3 69.56 0 0 20 189 1011.1 33.3 16
DallasTexas 8/18/2019 10:00 30 21.9 61.94 0 0 21.1 186 1011.4 25.5 16
DallasTexas 8/18/2019 11:00 31.6 21.9 56.24 0 0 20 169 1011.8 21.7 16
DallasTexas 8/18/2019 12:00 33.4 21.5 49.97 0 0 19.2 180 1011.4 17.9 16
DallasTexas 8/18/2019 13:00 34.5 21.5 46.78 0 0 22.4 160 1011.2 15.2 16
DallasTexas 8/18/2019 14:00 35.9 21.1 42.19 0 0 17 160 1010.8 14.4 16
DallasTexas 8/18/2019 15:00 36.4 20.5 39.75 0 0 13.6 163 1010.2 14.4 16
DallasTexas 8/18/2019 16:00 37.1 20.3 37.62 0 0 17.8 170 1009.8 16.1 16
DallasTexas 8/18/2019 17:00 37.4 19.8 35.88 0 0 16.3 156 1009.3 15.4 16
DallasTexas 8/18/2019 18:00 37 19.2 35.51 0 0 21.9 161 1008.7 13.5 16
DallasTexas 8/18/2019 19:00 36.3 19.3 36.91 0 0 21.6 154 1008.6 13.5 16
DallasTexas 8/18/2019 20:00 34.8 19.5 40.67 0 0 18.7 140 1008.9 13.7 16
DallasTexas 8/18/2019 21:00 33.5 20.2 45.58 0 0 14.2 136 1009.4 14.9 16
DallasTexas 8/18/2019 22:00 32.6 19.6 46.44 0 0 15.7 136 1010.3 21.5 16
DallasTexas 8/18/2019 23:00 31.7 19.9 49.76 0 0 12.2 135 1011 29.7 16
DallasTexas 8/19/2019 0:00 30.8 20.4 54.07 0 0 11.6 144 1011.3 44 16
DallasTexas 8/19/2019 1:00 30.4 21 57.45 0 0 14.7 161 1011.5 44.3 16
DallasTexas 8/19/2019 2:00 29.8 21.5 61.05 0 0 14.1 167 1011.6 41.5 16
DallasTexas 8/19/2019 3:00 29.1 21.8 64.93 0 0 13.4 157 1011.7 24.7 16
DallasTexas 8/19/2019 4:00 28.2 21.9 68.54 0 0 14.4 165 1012 23.7 16
DallasTexas 8/19/2019 5:00 27.7 22.1 71.49 0 0 12.5 173 1012.2 17.6 16
DallasTexas 8/19/2019 6:00 27.3 21.8 71.68 0 0 12.5 172 1013.2 13.5 16
DallasTexas 8/19/2019 7:00 26.8 21.8 73.97 0 0 14.2 177 1013.7 14.3 16
DallasTexas 8/19/2019 8:00 27 22.3 75.38 0 0 15.2 173 1014.1 13.7 15.5
DallasTexas 8/19/2019 9:00 28.2 22.9 73 0 0 16.6 184 1014.6 15.4 16
DallasTexas 8/19/2019 10:00 30.4 22.7 63.33 0 0 16.2 181 1014.6 13.5 16
DallasTexas 8/19/2019 11:00 32.2 22.1 55.38 0 0 14.8 206 1014.6 13.5 16
DallasTexas 8/19/2019 12:00 34 21.3 47.69 0 0 14.5 194 1014.6 13.5 16
DallasTexas 8/19/2019 13:00 35.1 20.8 43.29 0 0 11.2 197 1014.5 13.5 16
DallasTexas 8/19/2019 14:00 36.1 20.4 40.06 0 0 13.7 147 1013.8 13.5 16
DallasTexas 8/19/2019 15:00 36.9 19.2 35.69 0 0 15.4 148 1013.1 14.4 16
DallasTexas 8/19/2019 16:00 37.5 18.9 33.89 0 0 14.9 180 1012.4 16.6 16
DallasTexas 8/19/2019 17:00 37.8 19.1 33.74 0 0 13.7 155 1012 16.6 16
DallasTexas 8/19/2019 18:00 37.7 18.9 33.48 0 0 16.3 135 1011.8 16.6 16
DallasTexas 8/19/2019 19:00 36.7 19.1 35.77 0 0 15.1 143 1011.8 15.2 16
DallasTexas 8/19/2019 20:00 35.1 19.8 40.81 0 0 18.2 135 1012.4 6.2 16
DallasTexas 8/19/2019 21:00 33.9 20.3 45.16 0 0 15.9 136 1013 13.7 16
DallasTexas 8/19/2019 22:00 32.7 20.5 48.77 0 0 14.2 142 1013.7 11.8 16
DallasTexas 8/19/2019 23:00 31.9 20.4 50.87 0 0 10.4 142 1014.3 11.8 16
DallasTexas 8/20/2019 0:00 31.3 20.7 53.47 0 0 9.9 139 1014.5 15 16
DallasTexas 8/20/2019 1:00 30.5 20.6 55.48 0 0 9 147 1014.3 15 16
DallasTexas 8/20/2019 2:00 30.1 20.9 58.01 0 0 13 62 1013.9 15 16
DallasTexas 8/20/2019 3:00 29.3 21.3 62.27 0 0 10.9 244 1013.6 17.4 16
DallasTexas 8/20/2019 4:00 28.5 21.8 66.81 0 0 12 245 1013.7 15 16
DallasTexas 8/20/2019 5:00 27.9 21.8 69.27 0 0 9.9 18 1014.3 15 16
DallasTexas 8/20/2019 6:00 27.4 21.8 71.47 0 0 7 16 1014.5 11.8 16
DallasTexas 8/20/2019 7:00 27.1 21.8 72.64 0 0 7.5 105 1015.1 13.7 16
DallasTexas 8/20/2019 8:00 27.9 22.3 71.69 0 0 5.7 115 1015.5 13.7 15.9
DallasTexas 8/20/2019 9:00 29.6 22.2 64.56 0 0 8 229 1015.6 13.5 16
DallasTexas 8/20/2019 10:00 31.6 21.4 54.66 0 0 9.3 241 1015.6 11.8 16
DallasTexas 8/20/2019 11:00 33.6 21.3 48.65 0 0 9.7 211 1015.8 0 16
DallasTexas 8/20/2019 12:00 34.9 21 44.52 0 0 11.6 57 1016 14.3 16
DallasTexas 8/20/2019 13:00 36.4 20.7 40.15 0 0 12.7 186 1015.5 32.3 16
DallasTexas 8/20/2019 14:00 37 20.1 37.27 0 0 10.7 168 1014.9 42 16
DallasTexas 8/20/2019 15:00 37.5 19.4 34.88 0 0 14.1 145 1014.3 46.2 16
DallasTexas 8/20/2019 16:00 37.9 19.1 33.63 0 0 14.7 133 1013.6 45.5 16
DallasTexas 8/20/2019 17:00 37.9 18.9 32.93 0 0 13.3 137 1013.1 38.4 16
DallasTexas 8/20/2019 18:00 37.7 18.3 32.14 0 0 18.6 136 1012.9 28.8 16
DallasTexas 8/20/2019 19:00 36.6 18.4 34.39 0 0 15.2 141 1012.5 13.5 16
DallasTexas 8/20/2019 20:00 35 18.7 38.32 0 0 13.5 139 1012.6 13.7 16
DallasTexas 8/20/2019 21:00 33.3 19.3 43.79 0 0 10.1 128 1013 11.9 16
DallasTexas 8/20/2019 22:00 32.6 20.1 47.66 0 0 10.4 136 1013.8 0 16
DallasTexas 8/20/2019 23:00 31.8 20.4 51.19 0 0 13.7 136 1014.9 0 16
DallasTexas 8/21/2019 0:00 30.5 21.2 57.49 0 0 10.8 145 1015.3 0 16
DallasTexas 8/21/2019 1:00 29.8 21.3 60.39 0 0 12.4 170 1015.2 0.4 16
DallasTexas 8/21/2019 2:00 28.7 21.7 65.9 0 0 9.5 147 1014.9 15.4 16
DallasTexas 8/21/2019 3:00 28.1 21.6 67.57 0 0 12.1 33 1014.3 0 16
DallasTexas 8/21/2019 4:00 27.7 21.3 68.11 0 0 8.4 19 1013.9 0 16
DallasTexas 8/21/2019 5:00 27.4 21.1 68.51 0 0 8.9 17 1013.7 0 16
DallasTexas 8/21/2019 6:00 27 21.1 70.15 0 0 4.2 253 1013.9 0 16
DallasTexas 8/21/2019 7:00 26.7 21.1 71.22 0 0 4.4 13 1014.3 0 16
DallasTexas 8/21/2019 8:00 26.9 21.5 72.68 0 0 7.2 129 1015.1 0 16
DallasTexas 8/21/2019 9:00 28.3 21.4 66.21 0 0 4.9 268 1015.7 0 16
DallasTexas 8/21/2019 10:00 30.4 21.2 58.09 0 0 1.3 207 1015.9 0 16
DallasTexas 8/21/2019 11:00 32.1 20.4 50.1 0 0 5.7 93 1016.3 14.3 16
DallasTexas 8/21/2019 12:00 33.6 20.5 46.2 0 0 9.1 17 1016 0 16
DallasTexas 8/21/2019 13:00 34.8 19.9 41.58 0 0 7 93 1015.2 19.3 16
DallasTexas 8/21/2019 14:00 36.1 19.9 38.92 0 0 13.8 128 1014.4 28.1 16
DallasTexas 8/21/2019 15:00 36.2 19.3 37.32 0 0 11.7 154 1013.5 40.4 16
DallasTexas 8/21/2019 16:00 36.7 19.1 35.64 0 0 12.4 45 1012.6 39.5 16
DallasTexas 8/21/2019 17:00 36.6 19.1 35.99 0 0 12.4 153 1011.8 23.7 16
DallasTexas 8/21/2019 18:00 36.6 18.9 35.52 0 0 18.9 141 1011.1 19 16
DallasTexas 8/21/2019 19:00 35.5 18.9 37.63 0 0 19.1 149 1010.9 15.1 16
DallasTexas 8/21/2019 20:00 34.1 19.3 41.97 0 0 15.9 145 1011.2 14.8 16
DallasTexas 8/21/2019 21:00 32.9 19.9 46.41 0 0 15.9 149 1011.8 13.7 16
DallasTexas 8/21/2019 22:00 32 20 49.08 0 0 12.8 144 1012.5 0 16
DallasTexas 8/21/2019 23:00 30.9 20.1 52.56 0 0 14.3 143 1012.6 11.8 16
DallasTexas 8/22/2019 0:00 29.9 20.4 56.74 0 0 14.8 164 1012.6 0 16
DallasTexas 8/22/2019 1:00 29.8 20.1 56.04 0 0 14.5 175 1012.6 0 16
DallasTexas 8/22/2019 2:00 29.2 20.1 57.95 0 0 11.6 187 1012.4 0 16
DallasTexas 8/22/2019 3:00 28.4 20.1 60.78 0 0 12.6 181 1012.3 0 16
DallasTexas 8/22/2019 4:00 27.9 19.7 61.41 0 0 10.9 227 1012.2 0 16
DallasTexas 8/22/2019 5:00 27.5 20.1 64.04 0 0 12.9 187 1012.3 0 16
DallasTexas 8/22/2019 6:00 27.2 20.1 65.37 0 0 11.8 191 1012.4 0 16
DallasTexas 8/22/2019 7:00 26.7 20.6 69.22 0 0 12.6 170 1013.1 1.8 16
DallasTexas 8/22/2019 8:00 26.9 20.8 69.21 0 0 9.7 176 1013.9 1.8 16
DallasTexas 8/22/2019 9:00 28.3 20.8 63.93 0 0 13.4 191 1014.1 13.5 16
DallasTexas 8/22/2019 10:00 30.2 20.3 55.5 0 0 17.9 197 1013.7 13.5 16
DallasTexas 8/22/2019 11:00 31.9 20.1 49.79 0 0 16.9 218 1013.9 13.5 16
DallasTexas 8/22/2019 12:00 33.5 19.4 43.41 0 0 12.4 205 1013.2 13.5 16
DallasTexas 8/22/2019 13:00 34.6 18.9 39.62 0 0 16.3 164 1012.4 13.5 15.8
DallasTexas 8/22/2019 14:00 35.9 18.5 36.1 0 0 14.9 166 1011.7 15.2 16
DallasTexas 8/22/2019 15:00 36.1 18.4 35.38 0 0 16.5 152 1011.1 32.5 16
DallasTexas 8/22/2019 16:00 36.4 17.9 33.74 0 0 13.6 163 1010.1 43.3 16
DallasTexas 8/22/2019 17:00 36.6 18.1 33.79 0 0 16.2 158 1009.3 33.9 16
DallasTexas 8/22/2019 18:00 36.2 17.8 33.91 0 0 16.1 148 1009.2 28.8 16
DallasTexas 8/22/2019 19:00 35.5 18.4 36.44 0 0 18.2 148 1008.9 20.2 16
DallasTexas 8/22/2019 20:00 34.3 18.4 39.22 0 0 18.5 143 1009.5 14.4 16
DallasTexas 8/22/2019 21:00 33 18.9 43.27 0 0 17.7 140 1009.9 13.7 16
DallasTexas 8/22/2019 22:00 31.9 19.2 46.91 0 0 13.8 143 1010.7 13.5 16
DallasTexas 8/22/2019 23:00 31.4 19.2 48.28 0 0 13.2 148 1011.1 13.5 16
DallasTexas 8/23/2019 0:00 30.6 19.2 50.54 0 0 13.7 158 1011.3 13.5 16
DallasTexas 8/23/2019 1:00 29.9 20.1 55.78 0 0 21.8 169 1011.2 13.5 16
DallasTexas 8/23/2019 2:00 29.2 20.9 60.8 0 0 18.7 172 1011.4 13.5 16
DallasTexas 8/23/2019 3:00 28.4 21.2 65.06 0 0 19 177 1011.5 11.7 16
DallasTexas 8/23/2019 4:00 27.8 21.7 69.22 0 0 16 178 1011.3 0 16
DallasTexas 8/23/2019 5:00 27.3 21.7 71.52 0 0 14.6 176 1011 0 16
DallasTexas 8/23/2019 6:00 26.7 21.7 74.12 0 0 10.4 176 1011.5 11.8 16
DallasTexas 8/23/2019 7:00 26.3 22 77.12 0 0 9.1 241 1012.4 13.7 16
DallasTexas 8/23/2019 8:00 26.9 22.2 75.75 0 0 9.5 159 1013 35.2 16
DallasTexas 8/23/2019 9:00 28.1 22.4 71.17 0 0 12.4 170 1013.1 30.3 16
DallasTexas 8/23/2019 10:00 29.7 22.3 64.47 0 0 10.6 167 1013 30.5 16
DallasTexas 8/23/2019 11:00 31.4 21.7 56.51 0 0 9.1 271 1013 24.8 16
DallasTexas 8/23/2019 12:00 32.8 21.5 51.72 0 0 4.3 22 1012.8 43.1 16
DallasTexas 8/23/2019 13:00 33.4 20.9 47.98 0 0 8.6 122 1012.4 78.7 16
DallasTexas 8/23/2019 14:00 33.5 21.3 49.05 0 0 19.1 52 1011.8 67.9 16
DallasTexas 8/23/2019 15:00 34 20.8 46.1 0 0 17.6 73 1011.5 53.6 16
DallasTexas 8/23/2019 16:00 33.6 20.9 47.32 0 0 21.2 48 1010.8 60.5 16
DallasTexas 8/23/2019 17:00 33.8 20.4 45.71 0 0 21.1 61 1009.9 49 16
DallasTexas 8/23/2019 18:00 32.1 20.9 51.48 0.04 0 15 99 1010.1 32.9 16
DallasTexas 8/23/2019 19:00 31.4 20.9 53.66 0.05 0 12.8 129 1009.3 30.1 16
DallasTexas 8/23/2019 20:00 30.6 20.6 55.12 0 0 8.8 111 1009.7 21.4 16
DallasTexas 8/23/2019 21:00 30.7 20.8 55.54 0 0 5.2 61 1010.3 36.8 16
DallasTexas 8/23/2019 22:00 30.3 21.4 58.82 0.01 0 13.3 111 1011.2 45 16
DallasTexas 8/23/2019 23:00 29.6 21.5 61.69 0.12 0 12.5 122 1011.6 45 16
DallasTexas 8/24/2019 0:00 28.9 21.8 65.54 0 0 11.6 120 1012 35.7 16
DallasTexas 8/24/2019 1:00 28 21.7 68.66 0 0 11.2 156 1012.1 47.1 16
DallasTexas 8/24/2019 2:00 27.7 21.7 70.09 0 0 9.2 145 1012.4 30 16
DallasTexas 8/24/2019 3:00 27.2 21.8 72.51 0 0 9.2 144 1012.7 30.5 16
DallasTexas 8/24/2019 4:00 26.7 22 75.5 0 0 9 142 1013 31.4 16
DallasTexas 8/24/2019 5:00 25.8 21.8 78.74 0 0 12.3 157 1012.7 33.1 16
DallasTexas 8/24/2019 6:00 25.7 22 80.28 0 0 10.6 159 1012.6 27.8 16
DallasTexas 8/24/2019 7:00 25.3 22.1 82.21 0 0 9.2 151 1012.5 28.1 16
DallasTexas 8/24/2019 8:00 25.6 22.1 81.24 0 0 9.8 161 1012.9 33.2 16
DallasTexas 8/24/2019 9:00 26.6 22.3 77.48 0 0 10.5 134 1013.3 32.3 16
DallasTexas 8/24/2019 10:00 27.4 22.7 75.46 0 0 7.7 143 1013.1 34.9 16
DallasTexas 8/24/2019 11:00 29.1 22.8 68.53 0 0 9.2 146 1013.3 29.6 16
DallasTexas 8/24/2019 12:00 31.2 22.4 59.53 0 0 6 93 1013.3 56.8 16
DallasTexas 8/24/2019 13:00 32 22 55.5 0 0 10.6 112 1012.8 70 16
DallasTexas 8/24/2019 14:00 33 21.5 50.79 0 0 9.8 111 1012.1 47.1 16
DallasTexas 8/24/2019 15:00 33.3 20.8 47.96 0 0 7.7 134 1011.2 44.2 16
DallasTexas 8/24/2019 16:00 33.4 20.4 46.47 0 0 9.9 88 1010.6 47.5 16
DallasTexas 8/24/2019 17:00 33.5 20.2 45.76 0 0 13 85 1010.3 43.6 16
DallasTexas 8/24/2019 18:00 31.8 20.6 51.63 0.67 0 15.5 78 1010.4 30.2 15.4
DallasTexas 8/24/2019 19:00 31 21.5 56.96 0.18 0 14.7 63 1010.1 40.7 16
DallasTexas 8/24/2019 20:00 30.1 21.7 60.78 0 0 11.2 48 1011 23.1 16
DallasTexas 8/24/2019 21:00 29.3 21.4 62.26 0 0 5.7 54 1011.2 35.3 16
DallasTexas 8/24/2019 22:00 28.6 21.7 66.25 0 0 5.2 92 1011.3 18.3 16
DallasTexas 8/24/2019 23:00 27.9 21.8 69.1 0 0 2.3 47 1011.6 18.3 16
DallasTexas 8/25/2019 0:00 27.5 21.8 70.97 0 0 2.4 41 1011.8 15.5 16
DallasTexas 8/25/2019 1:00 27.2 21.7 71.8 0 0 6.3 88 1011.3 16.2 16
DallasTexas 8/25/2019 2:00 26.7 21.7 74 0 0 5.4 60 1010.9 11.8 15.8
DallasTexas 8/25/2019 3:00 26.1 22 77.93 0 0 3.3 46 1010.8 11.8 15.8
DallasTexas 8/25/2019 4:00 25.8 22 79.66 0 0 6.7 107 1010.2 11.8 15.9
DallasTexas 8/25/2019 5:00 25.4 22 81.84 0 0 7.8 124 1010.2 11.8 16
DallasTexas 8/25/2019 6:00 25.1 22.1 83.6 0 0 4.7 101 1010.5 11.8 16
DallasTexas 8/25/2019 7:00 24.9 22.5 86.31 0 0 4.2 84 1010.8 15.4 16
DallasTexas 8/25/2019 8:00 25.6 22.8 84.46 0 0 1.8 55 1011 44 16
DallasTexas 8/25/2019 9:00 27.4 23.4 78.5 0 0 3.2 85 1011.2 18.7 16
DallasTexas 8/25/2019 10:00 29.4 23.2 69.4 0 0 10.4 246 1011.1 20.7 16
DallasTexas 8/25/2019 11:00 31.6 22.6 59.2 0 0 9.1 163 1010.7 20.4 16
DallasTexas 8/25/2019 12:00 32.9 21.6 51.47 0 0 6.6 154 1010.7 44.2 16
DallasTexas 8/25/2019 13:00 34.1 21.2 47.02 0 0 9.8 120 1009.7 60.5 16
DallasTexas 8/25/2019 14:00 35 20.8 43.59 0 0 6.9 127 1009 71.4 16
DallasTexas 8/25/2019 15:00 35.6 20.7 41.82 0 0 10.1 85 1007.8 43.5 16
DallasTexas 8/25/2019 16:00 36.3 20 38.73 0 0 12.7 135 1006.4 45.7 16
DallasTexas 8/25/2019 17:00 36.4 19.5 37.36 0 0 13.1 147 1005.9 37.1 16
DallasTexas 8/25/2019 18:00 36.8 19.5 36.36 0 0 14.6 136 1005.3 23.3 16
DallasTexas 8/25/2019 19:00 35.8 19.9 39.61 0 0 16.1 125 1005.1 17.7 16
DallasTexas 8/25/2019 20:00 34.3 20.3 43.88 0 0 14.7 121 1005.3 13.7 16
DallasTexas 8/25/2019 21:00 33.5 20.4 46.32 0 0 13.8 122 1006 19.8 16
DallasTexas 8/25/2019 22:00 32.9 20.5 48.15 0 0 12.6 131 1006.7 48.4 16
DallasTexas 8/25/2019 23:00 31.9 21.3 53.37 0 0 14.3 141 1006.9 13.5 16
DallasTexas 8/26/2019 0:00 31.1 21.8 57.81 0 0 17.3 156 1007 13.5 15.9
DallasTexas 8/26/2019 1:00 30.1 22.5 64.11 0 0 17.7 163 1006.8 27.7 15.6
DallasTexas 8/26/2019 2:00 29.3 22.9 68.41 0 0 14.6 166 1006.8 36.7 15.7
DallasTexas 8/26/2019 3:00 28.5 22.9 71.92 0 0 15.4 163 1006.6 18.4 15.7
DallasTexas 8/26/2019 4:00 27.9 23 74.62 0 0 15.5 167 1006.8 17.1 15.6
DallasTexas 8/26/2019 5:00 27.4 23.4 78.88 0 0 15.8 168 1006.9 22 15.6
DallasTexas 8/26/2019 6:00 27.1 23.5 80.58 0 0 18 164 1006.8 16.4 15.5
DallasTexas 8/26/2019 7:00 26.9 23.7 82.65 0 0 14.9 168 1006.7 19.6 14.1
DallasTexas 8/26/2019 8:00 27.4 23.9 81.05 0 0 17.1 174 1006.9 24.1 12.2
DallasTexas 8/26/2019 9:00 28.8 23.9 75.07 0 0 20.1 175 1006.9 22.1 13.9
DallasTexas 8/26/2019 10:00 30.7 23.7 66.28 0 0 18.8 170 1006.8 6.1 15.4
DallasTexas 8/26/2019 11:00 32.7 23.3 57.61 0 0 20.8 176 1006.8 0 15.7
DallasTexas 8/26/2019 12:00 35.1 23 49.46 0 0 22.1 171 1006.6 0 15.8
DallasTexas 8/26/2019 13:00 36.2 22.3 44.74 0 0 24.2 175 1006.1 13.5 15.9
DallasTexas 8/26/2019 14:00 37.2 21.8 41.2 0 0 23.3 188 1005.8 13.5 16
DallasTexas 8/26/2019 15:00 38.4 21.4 37.74 0 0 24.2 174 1005 13.5 16
DallasTexas 8/26/2019 16:00 38.5 20.5 35.32 0 0 23.7 174 1004.3 0 16
DallasTexas 8/26/2019 17:00 38.6 20.6 35.24 0 0 26.3 168 1004 0 16
DallasTexas 8/26/2019 18:00 38 20.3 35.72 0 0 22.7 169 1004.1 0 16
DallasTexas 8/26/2019 19:00 37.2 20.1 37 0 0 22.8 170 1004.5 0 16
DallasTexas 8/26/2019 20:00 35.9 20.6 41.05 0 0 21.9 156 1004.8 0 16
DallasTexas 8/26/2019 21:00 34.6 20.8 44.46 0 0 18.1 156 1005.6 0 16
DallasTexas 8/26/2019 22:00 33.5 21.1 48.46 0 0 22.6 153 1005.9 0 16
DallasTexas 8/26/2019 23:00 32.9 21.2 50.26 0 0 20.5 150 1006.7 0 16
DallasTexas 8/27/2019 0:00 32.1 21.2 52.63 0 0 21.3 159 1007 0 16
DallasTexas 8/27/2019 1:00 31.3 21.8 57.08 0 0 24.5 164 1006.9 5.7 16
DallasTexas 8/27/2019 2:00 30.7 22.3 60.79 0 0 18.3 169 1007.4 42 16
DallasTexas 8/27/2019 3:00 30.1 22.8 65.27 0 0 16.6 163 1008.6 27.8 16
DallasTexas 8/27/2019 4:00 29.1 23.3 70.92 0 0 16.4 147 1008.2 27.8 15.5
DallasTexas 8/27/2019 5:00 28.5 23.4 73.67 0 0 14.2 153 1008.9 33.1 15.7
DallasTexas 8/27/2019 6:00 28.3 23.1 73.55 0 0 4.3 2 1011.4 93.6 16
DallasTexas 8/27/2019 7:00 24.1 19.5 75.46 0.17 0 27.7 28 1012.8 90.5 15
DallasTexas 8/27/2019 8:00 22.9 19.7 82.13 0.92 0 18.7 45 1014.4 79.8 13.9
DallasTexas 8/27/2019 9:00 22.4 19.9 85.54 1.18 0 10.1 63 1014.3 55.5 14.8
DallasTexas 8/27/2019 10:00 22.8 20.2 85.15 0.89 0 8.9 78 1016.4 63.2 14.1
DallasTexas 8/27/2019 11:00 22.7 20.5 87.67 1.34 0 19 170 1016 59.7 13
DallasTexas 8/27/2019 12:00 22.8 20.9 88.7 0.41 0 26.3 162 1014 62 15.7
DallasTexas 8/27/2019 13:00 25.3 21.4 78.89 0.05 0 19.2 105 1013.3 35.4 15.7
DallasTexas 8/27/2019 14:00 26.4 21.5 74.21 0.03 0 6.6 88 1013.7 33.8 15.7
DallasTexas 8/27/2019 15:00 26.9 21.4 71.57 0 0 6.7 314 1013.8 56.9 15.8
DallasTexas 8/27/2019 16:00 27.4 20.6 66.38 0 0 4.2 278 1013.3 50.8 15.9
DallasTexas 8/27/2019 17:00 27.8 20.7 65.16 0 0 8 62 1012.9 42 15.8
DallasTexas 8/27/2019 18:00 28.4 20.8 63.33 0 0 12.7 7 1013 32.1 15.6
DallasTexas 8/27/2019 19:00 28 21.1 66.17 0 0 12.8 6 1013 28.6 15.6
DallasTexas 8/27/2019 20:00 26.7 21.1 71.01 0 0 5.4 353 1013.3 19.8 15.6
DallasTexas 8/27/2019 21:00 25.8 21.3 76.3 0 0 4.8 356 1013.7 34.5 15.6
DallasTexas 8/27/2019 22:00 25.1 21.8 81.53 0 0 7.6 352 1014.6 27.3 15.6
DallasTexas 8/27/2019 23:00 24.9 21.8 82.54 0 0 3.5 349 1015.1 43.2 15.6
DallasTexas 8/28/2019 0:00 24.7 22 85.13 0 0 6.4 354 1015.4 24.3 15.6
DallasTexas 8/28/2019 1:00 24.5 21.9 85.75 0 0 5.7 1 1015.8 32.1 15.6
DallasTexas 8/28/2019 2:00 24.7 22.3 86.51 0 0 3.8 14 1016 42.5 15.6
DallasTexas 8/28/2019 3:00 24.7 22.1 85.28 0 0 5.7 46 1015.6 42.6 15.6
DallasTexas 8/28/2019 4:00 24.4 22.1 87.32 0.01 0 1.7 31 1015.9 31.7 15.5
DallasTexas 8/28/2019 5:00 24.1 22.1 88.36 0.01 0 2.8 26 1015.6 20.4 15.5
DallasTexas 8/28/2019 6:00 23.6 22.1 91.08 0 0 6.1 11 1015.8 20.3 15.2
DallasTexas 8/28/2019 7:00 23.6 22.5 93.16 0 0 6 353 1016.4 21.4 15.2
DallasTexas 8/28/2019 8:00 24.6 23 90.8 0 0 8 354 1016.7 29.7 15.2
DallasTexas 8/28/2019 9:00 26.8 23.2 80.68 0 0 8.1 356 1017.2 28.7 15.4
DallasTexas 8/28/2019 10:00 28.4 22.3 69.8 0 0 6.3 83 1017.1 21.2 15.4
DallasTexas 8/28/2019 11:00 29.4 22.1 64.95 0 0 10 102 1017.4 65.4 15.7
DallasTexas 8/28/2019 12:00 30.8 22.6 61.56 0 0 6.8 99 1017.6 62.4 15.5
DallasTexas 8/28/2019 13:00 32 21.6 54.45 0 0 6.3 106 1017.4 75.7 16
DallasTexas 8/28/2019 14:00 32.7 21.6 52.18 0 0 10.9 12 1017 80.5 16
DallasTexas 8/28/2019 15:00 32.9 21.5 51.06 0 0 8.2 342 1016.3 61.9 15.9
DallasTexas 8/28/2019 16:00 33.4 20.8 47.81 0 0 7.7 20 1015 28.4 16
DallasTexas 8/28/2019 17:00 34 20.4 45.05 0 0 10.6 70 1014.5 55 16
DallasTexas 8/28/2019 18:00 33.2 21.8 51.4 0 0 10.1 89 1014 39.1 16
DallasTexas 8/28/2019 19:00 32.4 21.9 54.01 0 0 13.6 96 1013.5 21.3 15.8
DallasTexas 8/28/2019 20:00 31.3 21.5 56.18 0 0 11 100 1013.3 18.5 15.7
DallasTexas 8/28/2019 21:00 30.2 21.9 60.92 0 0 10 130 1014.3 21.7 15.7
DallasTexas 8/28/2019 22:00 29.5 21.8 63.49 0 0 7.3 120 1015.2 21.5 15.7
DallasTexas 8/28/2019 23:00 28.7 21.9 66.62 0 0 6.7 116 1015.5 29.7 15.7
DallasTexas 8/29/2019 0:00 28 21.9 69.58 0 0 8.3 110 1015.3 26.2 15.7
DallasTexas 8/29/2019 1:00 28.1 21.8 68.79 0 0 9.3 126 1015.4 31 16
DallasTexas 8/29/2019 2:00 27.3 21.9 72.34 0 0 6.7 136 1015.5 28 15.8
DallasTexas 8/29/2019 3:00 26.4 22.3 78.17 0 0 4.7 105 1015.5 13.5 15.7
DallasTexas 8/29/2019 4:00 25.8 22.2 80.56 0 0 5.4 28 1015.3 13.5 15.3
DallasTexas 8/29/2019 5:00 26.1 22.1 79.08 0 0 7.7 148 1015.3 13.7 15.3
DallasTexas 8/29/2019 6:00 25.1 22.2 83.83 0 0 5.6 108 1015.6 13.5 15.5
DallasTexas 8/29/2019 7:00 24.8 22.5 86.86 0 0 6.2 116 1016 13.7 15
DallasTexas 8/29/2019 8:00 25.5 22.7 84.23 0 0 7.9 131 1016.6 13.7 15.2
DallasTexas 8/29/2019 9:00 27.3 22.7 75.73 0 0 7.5 150 1016.6 14.9 15.6
DallasTexas 8/29/2019 10:00 29.6 22.4 65.39 0 0 11 171 1016.5 13.5 16
DallasTexas 8/29/2019 11:00 31.5 22.2 57.77 0 0 10.1 158 1016.5 13.5 16
DallasTexas 8/29/2019 12:00 33.1 21.5 50.57 0 0 12.9 145 1016.4 20.4 16
DallasTexas 8/29/2019 13:00 34.5 20.8 44.8 0 0 11.6 161 1015.8 29.5 16
DallasTexas 8/29/2019 14:00 35.2 20.7 42.85 0 0 14.3 159 1015 58.5 16
DallasTexas 8/29/2019 15:00 36.1 20.4 40.11 0 0 13.6 334 1014.2 47.6 16
DallasTexas 8/29/2019 16:00 36.1 19.8 38.75 0 0 15.8 130 1013.4 60.6 16
DallasTexas 8/29/2019 17:00 36 19.3 37.62 0 0 13.2 160 1012.9 41.1 16
DallasTexas 8/29/2019 18:00 35.9 19.7 38.89 0 0 20.3 139 1012.6 29.2 16
DallasTexas 8/29/2019 19:00 34.9 19.5 40.34 0 0 17.8 134 1012.5 14.4 16
DallasTexas 8/29/2019 20:00 33.4 19.7 44.58 0 0 16.4 132 1012.9 18.5 16
DallasTexas 8/29/2019 21:00 32.2 20.2 49.26 0 0 16.6 137 1013.3 28.1 16
DallasTexas 8/29/2019 22:00 31.4 20.6 52.85 0 0 18.3 149 1013.6 43.9 16
DallasTexas 8/29/2019 23:00 30.3 20.8 56.62 0 0 15.6 157 1014.3 35.4 16
DallasTexas 8/30/2019 0:00 30 20.8 57.92 0 0 15.8 146 1014.3 29.7 16
DallasTexas 8/30/2019 1:00 29.2 21 61.27 0 0 17.4 149 1014.4 43.9 16
DallasTexas 8/30/2019 2:00 28.1 21.4 67.02 0 0 14.7 157 1014.2 24.7 16
DallasTexas 8/30/2019 3:00 27.5 21.5 69.77 0 0 12.4 166 1014.4 15 16
DallasTexas 8/30/2019 4:00 26.8 21.5 72.78 0 0 11.8 153 1014.2 24.7 16
DallasTexas 8/30/2019 5:00 26.6 21.7 74.72 0 0 12.4 149 1014.9 43.9 16
DallasTexas 8/30/2019 6:00 26.1 21.8 77.55 0 0 12.1 153 1015.1 43.9 16
DallasTexas 8/30/2019 7:00 25.5 22.1 81.27 0 0 9.7 154 1015.6 44.3 16
DallasTexas 8/30/2019 8:00 25.9 22.2 80.47 0 0 13.5 157 1015.7 42.4 16
DallasTexas 8/30/2019 9:00 27.4 22.4 74.16 0 0 13.8 159 1016 42 16
DallasTexas 8/30/2019 10:00 29.1 21.7 64.08 0 0 11.7 181 1015.8 27.8 16
DallasTexas 8/30/2019 11:00 31.1 21.1 55.15 0 0 13.5 175 1016 27.8 16
DallasTexas 8/30/2019 12:00 32.6 20.6 49.23 0 0 12.3 145 1016.1 21.4 16
DallasTexas 8/30/2019 13:00 33.7 20.3 45.4 0 0 18.3 124 1015.4 32.3 16
DallasTexas 8/30/2019 14:00 33.8 20.2 44.84 0.03 0 12.8 64 1016 52.2 15.9
DallasTexas 8/30/2019 15:00 23.7 20 79.73 1.98 0 38.9 358 1018.5 69 11.8
DallasTexas 8/30/2019 16:00 23.2 19.7 80.86 2.35 0 20.7 24 1018.2 79.7 12.4
DallasTexas 8/30/2019 17:00 23.8 19.8 78.39 0.63 0 12.8 77 1016.2 61.4 16
DallasTexas 8/30/2019 18:00 25.8 18.7 65.12 0.05 0 15.9 116 1011.9 32.8 16
DallasTexas 8/30/2019 19:00 26.2 19.2 65.17 1.21 0 7.4 307 1012 21.4 15.8
DallasTexas 8/30/2019 20:00 25.3 20 72.3 0 0 6.8 7 1013.1 15 16
DallasTexas 8/30/2019 21:00 24.4 20.1 77.22 0 0 8.9 39 1014.8 30.9 16
DallasTexas 8/30/2019 22:00 24.1 19.8 76.68 0 0 7.5 42 1015.8 35.4 16
DallasTexas 8/30/2019 23:00 24.1 19.8 76.73 0 0 6.5 39 1016.3 35.1 16
DallasTexas 8/31/2019 0:00 23.9 20.1 79.43 0 0 3.8 8 1016.5 37.7 16
DallasTexas 8/31/2019 1:00 24 20.5 80.79 0 0 2.9 19 1016.8 27.3 16
DallasTexas 8/31/2019 2:00 23.8 20.5 81.84 0 0 4.7 65 1016.7 27.8 16
DallasTexas 8/31/2019 3:00 23.8 20.7 82.92 0 0 7.2 66 1016.5 29.9 16
DallasTexas 8/31/2019 4:00 23.6 21 85.44 0 0 4.7 33 1016 45.1 16
DallasTexas 8/31/2019 5:00 23.3 21.2 87.67 0 0 5.5 52 1015.9 27.7 16
DallasTexas 8/31/2019 6:00 23.1 21.3 89.36 0 0 10.6 66 1016.2 24.2 16
DallasTexas 8/31/2019 7:00 23.2 21.5 89.96 0 0 7.8 83 1016.5 31.7 16
DallasTexas 8/31/2019 8:00 23.5 21.3 87.35 0.71 0 13.8 66 1017.4 63.7 15.3
DallasTexas 8/31/2019 9:00 23 20.1 83.83 0.6 0 14.3 87 1017.9 60 15.5
DallasTexas 8/31/2019 10:00 22.7 19.8 83.94 0.85 0 14.1 125 1018 47.6 15.5
DallasTexas 8/31/2019 11:00 22.9 20.1 84.44 0.15 0 10.3 119 1018.2 54.2 15.5
DallasTexas 8/31/2019 12:00 23.8 20.1 79.78 0.21 0 12.3 107 1018.9 51.4 14.9
DallasTexas 8/31/2019 13:00 25.2 20.7 76.23 0.03 0 4.3 61 1017.8 62 15.7
DallasTexas 8/31/2019 14:00 26.8 20.8 69.62 0 0 7.5 49 1017.2 59.6 15.4
DallasTexas 8/31/2019 15:00 26.9 21.2 70.67 0 0 12 146 1016.6 30.7 15.3
DallasTexas 8/31/2019 16:00 28.8 21.1 63.11 0 0 9.4 71 1015.7 23.6 15.4
DallasTexas 8/31/2019 17:00 28.8 21.2 63.75 0 0 11.9 95 1014.7 35.1 15.6
DallasTexas 8/31/2019 18:00 28.8 21.1 63.23 0 0 11.7 82 1014.6 21.1 15.4
DallasTexas 8/31/2019 19:00 28.4 20.3 61.55 0 0 10.5 86 1014.7 18.3 15.4
DallasTexas 8/31/2019 20:00 27 20.6 67.97 0 0 9.5 97 1014.8 18.5 16
DallasTexas 8/31/2019 21:00 25.7 20.7 73.92 0 0 8 92 1015.4 17.5 16
DallasTexas 8/31/2019 22:00 25 20.4 75.59 0 0 7.5 104 1016.3 13.5 16
DallasTexas 8/31/2019 23:00 24.5 20.4 77.89 0 0 5.9 101 1016.6 13.5 16
DallasTexas 9/1/2019 0:00 23.9 20.1 79.28 0 0 0.7 11 1016.7 20.3 16
DallasTexas 9/1/2019 1:00 23.4 20.1 81.72 0 0 0.2 360 1016.6 20.3 16
DallasTexas 9/1/2019 2:00 23.1 20.1 83.18 0 0 2.3 35 1016.5 13.5 16
DallasTexas 9/1/2019 3:00 22.8 20.3 85.95 0 0 0.4 5 1016.5 1.8 16
DallasTexas 9/1/2019 4:00 22.5 20.2 87.03 0 0 1.8 352 1016.6 1.8 16
DallasTexas 9/1/2019 5:00 22.7 20.3 86.75 0 0 0 0 1016.6 0 16
DallasTexas 9/1/2019 6:00 22.3 20.3 88.48 0 0 0.6 354 1016.8 11.8 15.8
DallasTexas 9/1/2019 7:00 22.4 20.8 90.45 0 0 0.2 4 1017.1 14.5 16
DallasTexas 9/1/2019 8:00 23.6 21.4 87.45 0 0 4.4 87 1017.7 13.7 15.9
DallasTexas 9/1/2019 9:00 26.2 22.1 78.34 0 0 2.7 26 1018.2 13.4 15.8
DallasTexas 9/1/2019 10:00 28.2 21.9 68.48 0 0 2.7 279 1018.4 13.5 16
DallasTexas 9/1/2019 11:00 30.4 21.7 59.65 0 0 2.5 14 1018.3 14.4 15.8
DallasTexas 9/1/2019 12:00 31.6 21.2 53.99 0 0 6.7 102 1017.9 32.2 15.7
DallasTexas 9/1/2019 13:00 32.3 20.8 50.74 0 0 4.9 39 1017.2 46.9 15.8
DallasTexas 9/1/2019 14:00 33.7 20 44.65 0 0 9.7 72 1016.6 48.9 16
DallasTexas 9/1/2019 15:00 34 19.8 43.2 0 0 8.2 52 1015.7 38.4 16
DallasTexas 9/1/2019 16:00 34.5 19.1 40.45 0 0 8 62 1014.9 32.7 16
DallasTexas 9/1/2019 17:00 34.6 19 40.02 0 0 12.2 80 1014.5 23.2 16
DallasTexas 9/1/2019 18:00 34.1 19 41.12 0 0 12.8 96 1014.3 20 16
DallasTexas 9/1/2019 19:00 33.3 19.1 43.3 0 0 11 86 1014.2 14.7 16
DallasTexas 9/1/2019 20:00 32 19.5 47.76 0 0 10.2 90 1014.4 13.7 16
DallasTexas 9/1/2019 21:00 30.7 20.3 54.14 0 0 7.6 90 1014.8 0 16
DallasTexas 9/1/2019 22:00 29.4 20.5 58.71 0 0 6.9 88 1015.5 0 16
DallasTexas 9/1/2019 23:00 28.5 20.7 62.64 0 0 5 99 1015.9 0 16
DallasTexas 9/2/2019 0:00 28 21 65.88 0 0 5.7 94 1016.1 0 16
DallasTexas 9/2/2019 1:00 27.1 21.1 70 0 0 2.1 68 1016.3 11.8 16
DallasTexas 9/2/2019 2:00 26.3 20.9 72.37 0 0 4.1 80 1016.3 0 15.8
DallasTexas 9/2/2019 3:00 25.5 21.1 76.6 0 0 5 93 1016.4 0 15.7
DallasTexas 9/2/2019 4:00 24.7 21.4 81.9 0 0 0 0 1016.3 0 15.9
DallasTexas 9/2/2019 5:00 24.6 20.9 79.81 0 0 2.5 40 1016.3 11.8 15.6
DallasTexas 9/2/2019 6:00 23.8 20.7 83.08 0 0 0.4 1 1016.5 0 15.2
DallasTexas 9/2/2019 7:00 23.3 20.4 83.86 0 0 0.1 2 1016.7 0 13.9
DallasTexas 9/2/2019 8:00 24.4 20.8 80.21 0 0 0 0 1017.2 0 13.8
DallasTexas 9/2/2019 9:00 28 20.5 63.83 0 0 0.3 5 1017.5 0 14.5
DallasTexas 9/2/2019 10:00 30 19.3 52.93 0 0 4.4 99 1017.9 0 15.5
DallasTexas 9/2/2019 11:00 31.7 18.4 45.02 0 0 1.3 26 1018.2 0 16
DallasTexas 9/2/2019 12:00 33.1 16.9 37.86 0 0 4.5 20 1017.9 11.8 15.8
DallasTexas 9/2/2019 13:00 34 16.7 35.85 0 0 8.6 40 1017.4 15.9 16
DallasTexas 9/2/2019 14:00 34.4 16.4 34.23 0 0 11.5 99 1016.7 18.2 16
DallasTexas 9/2/2019 15:00 34.8 17.1 34.84 0 0 16.8 113 1015.8 20.6 16
DallasTexas 9/2/2019 16:00 34.7 17.3 35.57 0 0 11.2 80 1015 22.6 16
DallasTexas 9/2/2019 17:00 35.2 18 36.25 0 0 15.5 83 1014.6 21.3 16
DallasTexas 9/2/2019 18:00 34.5 18 37.69 0 0 13.8 101 1014.2 19.2 16
DallasTexas 9/2/2019 19:00 33.4 18.4 40.96 0 0 12.9 106 1014.2 13.9 16
DallasTexas 9/2/2019 20:00 32 18.4 44.62 0 0 8.8 97 1014.2 13.7 16
DallasTexas 9/2/2019 21:00 30.6 18.9 49.85 0 0 6.5 88 1014.3 0 16
DallasTexas 9/2/2019 22:00 29.4 19.4 54.98 0 0 5.1 85 1014.9 0 16
DallasTexas 9/2/2019 23:00 28.7 19.6 58.05 0 0 4.1 75 1015.1 0 16
DallasTexas 9/3/2019 0:00 27.6 19.8 62.5 0 0 0.7 17 1014.9 0 16
DallasTexas 9/3/2019 1:00 27.5 20.2 64.1 0 0 5 67 1014.6 0 16
DallasTexas 9/3/2019 2:00 26.5 20.4 68.92 0 0 5.2 80 1014.4 0 16
DallasTexas 9/3/2019 3:00 26.3 20.6 71.02 0 0 4.6 78 1014.2 0 16
DallasTexas 9/3/2019 4:00 25.3 20.6 75.55 0 0 3.7 70 1014.3 0 16
DallasTexas 9/3/2019 5:00 25.1 20.8 77.06 0 0 3.7 90 1014.2 0 16
DallasTexas 9/3/2019 6:00 24.6 20.9 80.23 0 0 5.5 93 1014.5 0 16
DallasTexas 9/3/2019 7:00 24.4 20.9 80.51 0 0 0 0 1015.2 11.9 16
DallasTexas 9/3/2019 8:00 25.5 21 75.99 0 0 3.3 64 1015.6 11.9 16
DallasTexas 9/3/2019 9:00 28.1 20.5 63.54 0 0 4.4 103 1015.7 11.8 16
DallasTexas 9/3/2019 10:00 30.6 19.6 51.84 0 0 7.6 111 1015.8 11.8 16
DallasTexas 9/3/2019 11:00 32.2 19.4 46.91 0 0 10.6 104 1015.7 11.8 16
DallasTexas 9/3/2019 12:00 33.4 18.3 40.76 0 0 12.6 126 1015.4 19.8 16
DallasTexas 9/3/2019 13:00 34.4 18.3 38.69 0 0 9.6 7 1014.9 30.5 16
DallasTexas 9/3/2019 14:00 34.5 17.8 37.28 0 0 10.8 100 1014.1 56.9 16
DallasTexas 9/3/2019 15:00 35.3 17.9 35.91 0 0 11.1 89 1013.2 56.3 16
DallasTexas 9/3/2019 16:00 35.5 17.4 34.43 0 0 13.6 87 1012.6 31.3 16
DallasTexas 9/3/2019 17:00 35.3 17.7 35.4 0 0 9.8 87 1012.3 17.7 16
DallasTexas 9/3/2019 18:00 35 17.8 36.27 0 0 14.8 94 1012.4 15.6 16
DallasTexas 9/3/2019 19:00 33.9 17.6 37.93 0 0 13.6 91 1012.8 14.4 16
DallasTexas 9/3/2019 20:00 32.2 18.2 43.32 0 0 12.1 91 1013.2 13.7 16
DallasTexas 9/3/2019 21:00 30.8 18.4 47.7 0 0 9 82 1013.7 13.7 16
DallasTexas 9/3/2019 22:00 29.6 19 52.96 0 0 5.9 79 1014.4 13.5 16
DallasTexas 9/3/2019 23:00 28.9 19.4 56.6 0 0 5.3 62 1014.6 15 16
DallasTexas 9/4/2019 0:00 28.4 19.8 59.55 0 0 5.2 72 1014.7 15 16
DallasTexas 9/4/2019 1:00 27.6 19.9 62.75 0 0 5.3 86 1014.6 13.5 16
DallasTexas 9/4/2019 2:00 26.6 20.3 68.09 0 0 1.5 51 1014.9 13.5 16
DallasTexas 9/4/2019 3:00 26 20.2 70.57 0 0 3.8 64 1015.1 11.8 16
DallasTexas 9/4/2019 4:00 25.2 20.1 73.06 0 0 3.7 38 1015.2 11.8 16
DallasTexas 9/4/2019 5:00 24.7 20 75.41 0 0 0.7 9 1015.4 11.8 16
DallasTexas 9/4/2019 6:00 24.2 20.3 78.99 0 0 0.3 1 1015.8 11.8 15.8
DallasTexas 9/4/2019 7:00 24.5 20.3 77.34 0 0 0.3 5 1016.5 13.7 16
DallasTexas 9/4/2019 8:00 25.6 20.5 73.57 0 0 2.8 49 1017.4 13.7 15.6
DallasTexas 9/4/2019 9:00 28.5 20.5 61.85 0 0 5.8 77 1017.9 19.2 15.8
DallasTexas 9/4/2019 10:00 30.6 19.7 52.03 0 0 8.7 87 1018.3 17 16
DallasTexas 9/4/2019 11:00 32.6 18.8 44.24 0 0 10.1 87 1018.3 13.5 15.8
DallasTexas 9/4/2019 12:00 33.7 18.1 39.6 0 0 10.9 93 1018.4 28.3 16
DallasTexas 9/4/2019 13:00 34.9 17.1 34.82 0 0 14 83 1017.9 25.3 15.8
DallasTexas 9/4/2019 14:00 35.2 16.2 32.45 0 0 9.7 61 1017.1 36.5 15.7
DallasTexas 9/4/2019 15:00 35.9 16.2 31.1 0 0 13.7 88 1016.5 39.2 15.5
DallasTexas 9/4/2019 16:00 35.9 15.1 29.01 0 0 13.9 89 1015.8 39.2 15.7
DallasTexas 9/4/2019 17:00 35.8 14.8 28.67 0 0 16.5 88 1015.4 39.4 16
DallasTexas 9/4/2019 18:00 35.5 15.6 30.63 0 0 13.9 95 1015.4 20.3 16
DallasTexas 9/4/2019 19:00 34.3 15.9 33.28 0 0 14 98 1015.7 14.4 16
DallasTexas 9/4/2019 20:00 32.4 16.4 38.12 0 0 7.4 91 1015.8 13.7 16
DallasTexas 9/4/2019 21:00 30.8 17.3 44.31 0 0 5.9 89 1016.4 13.7 16
DallasTexas 9/4/2019 22:00 29.9 18.1 49.34 0 0 4.6 74 1016.9 2.5 16
DallasTexas 9/4/2019 23:00 28.6 18.5 54.32 0 0 4.1 82 1017.1 2.5 16
DallasTexas 9/5/2019 0:00 27.9 18.7 57.39 0 0 4.1 73 1017.2 5.6 16
DallasTexas 9/5/2019 1:00 27.5 18.8 58.87 0 0 2.3 46 1017 19.5 16
DallasTexas 9/5/2019 2:00 27.1 18.8 60.53 0 0 0.1 360 1016.9 32.7 16
DallasTexas 9/5/2019 3:00 26.5 19.1 63.75 0 0 1.3 55 1016.9 25 16
DallasTexas 9/5/2019 4:00 25.5 19.1 67.72 0 0 2 66 1017 33.6 16
DallasTexas 9/5/2019 5:00 24.8 19.4 71.67 0 0 0.7 356 1017.1 39.1 16
DallasTexas 9/5/2019 6:00 24.6 19.5 73.28 0 0 2.3 41 1017.3 23 16
DallasTexas 9/5/2019 7:00 24.4 19.1 72.72 0 0 0.6 354 1017.9 20 15.7
DallasTexas 9/5/2019 8:00 25.2 19.9 72.46 0 0 1.6 343 1018.7 21.1 15.4
DallasTexas 9/5/2019 9:00 28.2 19.5 59.07 0 0 6.3 273 1019.2 22.4 16
DallasTexas 9/5/2019 10:00 30.4 19.3 51.55 0 0 11.5 257 1019.6 27.9 16
DallasTexas 9/5/2019 11:00 32.2 19.2 46.19 0 0 11.4 283 1019.6 13.5 15.8
DallasTexas 9/5/2019 12:00 33.7 18.5 40.85 0 0 6.3 271 1019.4 22.5 16
DallasTexas 9/5/2019 13:00 35.2 16.4 32.79 0 0 6.2 23 1018.8 58.1 16
DallasTexas 9/5/2019 14:00 35.1 15.5 31.19 0 0 4.4 82 1018.2 64.9 15.8
DallasTexas 9/5/2019 15:00 36 15.9 30.37 0 0 11.1 310 1017.3 37 16
DallasTexas 9/5/2019 16:00 36.8 15.7 28.6 0 0 8.9 349 1016.3 31.5 16
DallasTexas 9/5/2019 17:00 36.3 15.5 29.13 0 0 8.4 37 1015.8 30.5 16
DallasTexas 9/5/2019 18:00 35.6 15.4 30.04 0 0 11.3 113 1015.3 15.5 16
DallasTexas 9/5/2019 19:00 34.9 15.4 31.36 0 0 9.9 98 1015.1 14.7 16
DallasTexas 9/5/2019 20:00 32.9 15.8 35.85 0 0 8.8 114 1015.2 13.7 16
DallasTexas 9/5/2019 21:00 31.2 16.3 40.91 0 0 6.5 95 1015.7 13.7 16
DallasTexas 9/5/2019 22:00 30 17.1 46.03 0 0 7.1 106 1016.1 1.8 16
DallasTexas 9/5/2019 23:00 28.5 17.7 52.19 0 0 5.6 103 1016.2 0 16
DallasTexas 9/6/2019 0:00 27.8 18 55.44 0 0 5.4 97 1016.1 0 16
DallasTexas 9/6/2019 1:00 26.8 18.1 58.96 0 0 2.4 65 1016.1 0.7 16
DallasTexas 9/6/2019 2:00 26 18.4 62.82 0 0 2.3 65 1016.1 17.3 16
DallasTexas 9/6/2019 3:00 25.9 18.4 63.38 0 0 1.9 61 1016 17.1 16
DallasTexas 9/6/2019 4:00 25.6 18.5 64.71 0 0 4 95 1015.9 20.9 16
DallasTexas 9/6/2019 5:00 25.1 18.4 66.69 0 0 5.8 78 1015.9 19 15.7
DallasTexas 9/6/2019 6:00 24.9 18.4 67.54 0 0 5.6 6 1016.2 0 16
DallasTexas 9/6/2019 7:00 24.8 18.6 68.5 0 0 4.4 358 1016.5 11.9 16
DallasTexas 9/6/2019 8:00 25.5 19 67.13 0 0 2 278 1017 0 15.6
DallasTexas 9/6/2019 9:00 28.6 18.7 55.2 0 0 3 278 1017.2 0 15.6
DallasTexas 9/6/2019 10:00 31.5 19 47.69 0 0 7 234 1017.5 0 16
DallasTexas 9/6/2019 11:00 33.7 18.5 40.64 0 0 10.1 238 1017.6 0 16
DallasTexas 9/6/2019 12:00 35.5 16.9 33.28 0 0 9.6 253 1017.2 15.9 16
DallasTexas 9/6/2019 13:00 36.1 15.9 30.25 0 0 9.3 212 1016.7 26.7 16
DallasTexas 9/6/2019 14:00 36.8 15.6 28.5 0 0 10.3 249 1016 39.6 16
DallasTexas 9/6/2019 15:00 37.5 15.5 27.16 0 0 8.9 186 1015.1 29.5 16
DallasTexas 9/6/2019 16:00 37.3 15.2 27.08 0 0 3.8 9 1014.4 35.3 16
DallasTexas 9/6/2019 17:00 37.6 15.8 27.61 0 0 8.5 61 1013.8 20.3 16
DallasTexas 9/6/2019 18:00 37.1 16.1 28.91 0 0 13.1 99 1013.5 13.5 16
DallasTexas 9/6/2019 19:00 35.8 16.1 31.15 0 0 11.6 113 1013.6 13.5 16
DallasTexas 9/6/2019 20:00 33.8 16.5 35.64 0 0 10.2 110 1013.8 13.7 16
DallasTexas 9/6/2019 21:00 31.9 16.7 40.16 0 0 8.2 117 1014.1 0 16
DallasTexas 9/6/2019 22:00 30.7 17 43.92 0 0 8.8 127 1014.6 0 16
DallasTexas 9/6/2019 23:00 29.7 17.8 48.76 0 0 7 107 1014.8 0 16
DallasTexas 9/7/2019 0:00 29 18 51.36 0 0 7.2 104 1015 0 16
DallasTexas 9/7/2019 1:00 28.4 18.2 53.84 0 0 7.7 92 1015 0 16
DallasTexas 9/7/2019 2:00 27.9 18.3 56.02 0 0 6 116 1015.1 0 16
DallasTexas 9/7/2019 3:00 27.1 18.5 59.59 0 0 2.9 304 1014.9 0 16
DallasTexas 9/7/2019 4:00 26.4 18.5 61.78 0 0 3.3 322 1014.8 0 16
DallasTexas 9/7/2019 5:00 26.6 18.1 59.74 0 0 7.7 13 1014.7 0 16
DallasTexas 9/7/2019 6:00 25.5 18.4 64.99 0 0 4.5 12 1014.9 0 16
DallasTexas 9/7/2019 7:00 25.9 17.8 60.93 0 0 0.8 329 1015.2 14.3 16
DallasTexas 9/7/2019 8:00 26 18.3 62.58 0 0 1.6 342 1015.9 13.7 16
DallasTexas 9/7/2019 9:00 28.1 18.3 55.23 0 0 6.8 311 1016 13.5 16
DallasTexas 9/7/2019 10:00 30.6 18.9 49.9 0 0 6.9 237 1015.9 13.5 16
DallasTexas 9/7/2019 11:00 33.3 19.1 43.21 0 0 10.1 356 1015.7 11.8 16
DallasTexas 9/7/2019 12:00 35.2 18.2 36.6 0 0 12.8 218 1015.2 15.9 16
DallasTexas 9/7/2019 13:00 36.4 17.4 32.66 0 0 14.3 232 1014.6 19.8 16
DallasTexas 9/7/2019 14:00 37.5 15.9 28.01 0 0 17.7 170 1013.7 18.4 16
DallasTexas 9/7/2019 15:00 37.6 15.7 27.55 0 0 14.8 190 1012.9 15 16
DallasTexas 9/7/2019 16:00 37.9 15.3 26.37 0 0 12.8 168 1012.1 26.6 16
DallasTexas 9/7/2019 17:00 37.9 14.1 24.36 0 0 14.7 189 1011.7 14.4 16
DallasTexas 9/7/2019 18:00 37.8 13.2 23.11 0 0 15.7 177 1011.4 13.5 16
DallasTexas 9/7/2019 19:00 36.7 12 22.73 0 0 15.5 183 1011.2 17.6 16
DallasTexas 9/7/2019 20:00 34.3 14.2 29.86 0 0 11.6 153 1011.4 13.7 16
DallasTexas 9/7/2019 21:00 32.3 16.1 37.72 0 0 10.8 138 1011.8 11.9 16
DallasTexas 9/7/2019 22:00 30.6 16.7 43.09 0 0 10.7 141 1012.4 0 16
DallasTexas 9/7/2019 23:00 29.7 16.3 44.56 0 0 11.3 156 1012.8 0 16
DallasTexas 9/8/2019 0:00 29.3 15.5 43.14 0 0 12.6 154 1013 0 16
DallasTexas 9/8/2019 1:00 28.4 14.8 43.51 0 0 11.3 7 1013.2 0 16
DallasTexas 9/8/2019 2:00 27.4 15.3 47.62 0 0 9.1 18 1013.2 0 16
DallasTexas 9/8/2019 3:00 27 15.9 50.76 0 0 10.8 170 1013 0 16
DallasTexas 9/8/2019 4:00 26.5 16.4 53.94 0 0 12.2 1 1012.9 0 16
DallasTexas 9/8/2019 5:00 25.6 16.9 58.5 0 0 11.1 179 1013 0 16
DallasTexas 9/8/2019 6:00 25 17.3 62.2 0 0 11.1 26 1013.2 0 16
DallasTexas 9/8/2019 7:00 24.4 17.9 66.99 0 0 11.5 39 1013.5 11.9 16
DallasTexas 9/8/2019 8:00 24.8 18.4 67.72 0 0 9.3 182 1014 13.7 16
DallasTexas 9/8/2019 9:00 27.3 19.7 63.34 0 0 12.1 204 1014.3 15.3 16
DallasTexas 9/8/2019 10:00 29.1 20.2 58.55 0 0 15.8 214 1014.6 15.3 16
DallasTexas 9/8/2019 11:00 31.1 19.5 50.11 0 0 16.8 220 1014.8 15.3 16
DallasTexas 9/8/2019 12:00 33.2 18.5 41.87 0 0 15.1 183 1014.5 15.3 16
DallasTexas 9/8/2019 13:00 34.7 16.4 33.72 0 0 18.4 177 1013.9 15.3 16
DallasTexas 9/8/2019 14:00 36.1 15.4 29.31 0 0 19.6 182 1013.1 13.5 16
DallasTexas 9/8/2019 15:00 36.9 15 27.31 0 0 16.9 190 1012.3 17.6 16
DallasTexas 9/8/2019 16:00 37.2 14.4 25.91 0 0 19 167 1011.6 14.4 16
DallasTexas 9/8/2019 17:00 37.5 14.4 25.33 0 0 23.9 155 1011.2 21.8 16
DallasTexas 9/8/2019 18:00 36.6 14.6 27.15 0 0 26.2 156 1010.7 36.9 16
DallasTexas 9/8/2019 19:00 35.9 14.6 28.15 0 0 21.3 157 1010.7 14.4 16
DallasTexas 9/8/2019 20:00 33.9 15 32.12 0 0 14.9 147 1010.9 13.5 16
DallasTexas 9/8/2019 21:00 32.3 15.6 36.62 0 0 12.3 145 1011.6 13.5 16
DallasTexas 9/8/2019 22:00 31.1 15.8 39.71 0 0 11.7 141 1012.4 0 16
DallasTexas 9/8/2019 23:00 29.8 16.3 44.16 0 0 10.5 137 1012.8 0 16
DallasTexas 9/9/2019 0:00 29.5 15.7 43.2 0 0 11 143 1013 0 16
DallasTexas 9/9/2019 1:00 28.8 16.8 48.29 0 0 12.2 163 1013.4 0 16
DallasTexas 9/9/2019 2:00 27.3 16.7 52.17 0 0 11.4 153 1013.7 0 16
DallasTexas 9/9/2019 3:00 26.4 17.2 56.98 0 0 12.3 158 1013.6 0 16
DallasTexas 9/9/2019 4:00 25.9 17.4 59.79 0 0 12.1 164 1013.6 1.8 16
DallasTexas 9/9/2019 5:00 25 18 65.17 0 0 11.5 142 1013.6 1.8 16
DallasTexas 9/9/2019 6:00 24.5 18.6 69.63 0 0 9.3 42 1014.1 13.5 16
DallasTexas 9/9/2019 7:00 24.2 19.3 74.17 0 0 10.3 115 1014.8 13.7 16
DallasTexas 9/9/2019 8:00 24.3 19.8 75.93 0 0 11.3 118 1015.8 23.7 16
DallasTexas 9/9/2019 9:00 25.9 21.1 75.05 0 0 15.8 174 1016.3 35 16
DallasTexas 9/9/2019 10:00 28.2 21.7 67.63 0 0 17.4 193 1016.3 39.7 16
DallasTexas 9/9/2019 11:00 30 21.1 58.85 0 0 17.9 181 1016.3 51.2 16
DallasTexas 9/9/2019 12:00 31.4 20.6 52.82 0 0 19.8 189 1015.9 61.7 16
DallasTexas 9/9/2019 13:00 32.9 19.4 45.01 0 0 16.8 176 1015.5 41.2 16
DallasTexas 9/9/2019 14:00 34.1 18.6 40.06 0 0 21.2 187 1014.9 43.6 16
DallasTexas 9/9/2019 15:00 35 18.1 36.74 0 0 23.3 171 1014 46.7 16
DallasTexas 9/9/2019 16:00 35.3 17.2 34.19 0 0 21.9 181 1013 42.6 16
DallasTexas 9/9/2019 17:00 35.1 17 34.26 0 0 21.4 159 1012.2 36.2 16
DallasTexas 9/9/2019 18:00 35.1 16.3 32.76 0 0 21.5 155 1011.8 17.3 16
DallasTexas 9/9/2019 19:00 34.2 16.3 34.42 0 0 21.3 138 1012 15.5 16
DallasTexas 9/9/2019 20:00 31.9 18 43.66 0 0 22.7 127 1012.8 16.8 16
DallasTexas 9/9/2019 21:00 30.1 18.9 51.05 0 0 23.2 143 1013.3 14.4 16
DallasTexas 9/9/2019 22:00 28.6 19.3 57.1 0 0 21.9 143 1014.5 13.5 16
DallasTexas 9/9/2019 23:00 28 19.6 60.41 0 0 17.6 152 1014.8 11.8 16
DallasTexas 9/10/2019 0:00 27.4 19.5 62.02 0 0 16.6 157 1015.2 0 16
DallasTexas 9/10/2019 1:00 26.5 19.2 64.41 0 0 16.4 142 1015.2 11.8 16
DallasTexas 9/10/2019 2:00 25.9 19.3 66.98 0 0 14 155 1015.6 13.5 16
DallasTexas 9/10/2019 3:00 25.4 19.3 69.25 0 0 14.2 138 1015.7 14.2 16
DallasTexas 9/10/2019 4:00 24.6 19.5 72.95 0 0 11.9 141 1015.5 14.2 16
DallasTexas 9/10/2019 5:00 24 19.4 75.26 0 0 15 160 1015.8 15.5 16
DallasTexas 9/10/2019 6:00 23.8 19.8 78.29 0 0 11.4 146 1016.4 3.7 16
DallasTexas 9/10/2019 7:00 23.5 20 81.02 0 0 10.4 153 1016.9 14.3 16
DallasTexas 9/10/2019 8:00 24.2 20.7 80.88 0 0 12.6 157 1017.6 13.7 16
DallasTexas 9/10/2019 9:00 26.3 21.4 74.49 0 0 14.1 177 1018.1 16.1 16
DallasTexas 9/10/2019 10:00 28.5 21.8 66.96 0 0 17.8 183 1018.3 41.7 16
DallasTexas 9/10/2019 11:00 30.8 20.8 55.05 0 0 19.5 170 1018.2 29.4 16
DallasTexas 9/10/2019 12:00 32.5 19.9 47.33 0 0 18.5 184 1017.8 32.3 16
DallasTexas 9/10/2019 13:00 33.6 18.9 42.05 0 0 18.8 179 1017.3 42.7 16
DallasTexas 9/10/2019 14:00 34.4 18.4 38.86 0 0 20.3 169 1016.9 40.1 16
DallasTexas 9/10/2019 15:00 34.8 18 37.18 0 0 18.7 181 1016.1 48 16
DallasTexas 9/10/2019 16:00 34.3 18.2 38.46 0 0 19.9 140 1015.3 49.8 16
DallasTexas 9/10/2019 17:00 34.5 18.2 38.35 0 0 21.7 123 1015.1 28.2 16
DallasTexas 9/10/2019 18:00 33.9 18 38.92 0.02 0 23.5 124 1014.8 33.7 15.9
DallasTexas 9/10/2019 19:00 32.9 17.7 40.39 0.17 0 24.5 129 1015 19.3 16
DallasTexas 9/10/2019 20:00 31.1 19.3 49.51 0 0 22.6 147 1015.5 15.3 16
DallasTexas 9/10/2019 21:00 29.5 20.6 58.84 0 0 24 154 1016.4 14.3 16
DallasTexas 9/10/2019 22:00 28.2 19.6 59.45 0 0 18.7 168 1017.4 13.5 16
DallasTexas 9/10/2019 23:00 27.2 19.3 62.23 0 0 13.4 164 1017.4 11.8 16
DallasTexas 9/11/2019 0:00 26.5 19.1 63.55 0 0 11.2 153 1017.1 23.3 16
DallasTexas 9/11/2019 1:00 25.9 19.4 67.33 0 0 17 165 1017.3 17.6 16
DallasTexas 9/11/2019 2:00 25.5 20 71.43 0 0 14.3 247 1017.9 13.5 16
DallasTexas 9/11/2019 3:00 24.9 20 74.44 0 0 12.3 160 1017.2 12.1 16
DallasTexas 9/11/2019 4:00 24.3 20 77.18 0 0 8.4 162 1017.4 11.8 16
DallasTexas 9/11/2019 5:00 23.7 20.3 81.53 0 0 9.4 152 1017.8 0 16
DallasTexas 9/11/2019 6:00 23.2 20.4 84.29 0 0 9.1 137 1018 2 16
DallasTexas 9/11/2019 7:00 23.2 20.6 85.66 0 0 8.3 138 1018.7 22.3 15.9
DallasTexas 9/11/2019 8:00 23.8 20.8 83.04 0 0 8.7 130 1019.2 37.6 15.9
DallasTexas 9/11/2019 9:00 24.5 21.2 82.04 0 0 10.2 161 1020 67.3 16
DallasTexas 9/11/2019 10:00 26.7 21.8 74.69 0 0 13.3 178 1020 56.4 16
DallasTexas 9/11/2019 11:00 28.7 22 67.12 0 0 18.1 179 1019.6 58.7 16
DallasTexas 9/11/2019 12:00 31 21.9 58.18 0 0 18.4 174 1019.1 55.3 16
DallasTexas 9/11/2019 13:00 32.6 20.9 50.21 0 0 19.2 193 1018.2 54.2 16
DallasTexas 9/11/2019 14:00 33.2 19.9 45.65 0 0 19.9 192 1017.6 66.1 16
DallasTexas 9/11/2019 15:00 34.4 18.8 39.75 0 0 15.6 189 1016.3 58.9 16
DallasTexas 9/11/2019 16:00 34.8 17.7 36.34 0 0 15.6 170 1015.3 36.4 16
DallasTexas 9/11/2019 17:00 35.1 18.1 36.73 0 0 20.1 142 1014.7 51 16
DallasTexas 9/11/2019 18:00 32.9 19 43.9 0.02 0 21.9 135 1014.6 60.4 15.9
DallasTexas 9/11/2019 19:00 30.8 18.7 48.52 0.02 0 21.1 141 1015.2 21.2 16
DallasTexas 9/11/2019 20:00 29.3 19.7 56.22 0 0 19.5 150 1015.7 19.9 16
DallasTexas 9/11/2019 21:00 28.6 19.8 59.25 0 0 20.8 159 1016.6 21.3 16
DallasTexas 9/11/2019 22:00 27.5 19.8 62.89 0 0 17.9 179 1017.8 15.2 16
DallasTexas 9/11/2019 23:00 26.6 19.8 66.35 0 0 15.3 240 1017.6 18.8 16
DallasTexas 9/12/2019 0:00 26.1 19.8 68.41 0 0 17.1 173 1016.9 23.3 16
DallasTexas 9/12/2019 1:00 25.5 19.9 71.16 0 0 11.7 178 1016.2 23.3 16
DallasTexas 9/12/2019 2:00 24.8 19.8 73.73 0 0 11.1 237 1016.3 13.5 16
DallasTexas 9/12/2019 3:00 24.3 20.1 77.74 0 0 10.2 103 1016.4 15 16
DallasTexas 9/12/2019 4:00 23.8 20.4 81.48 0 0 8.9 123 1016.2 27.2 16
DallasTexas 9/12/2019 5:00 23.4 20.4 82.98 0 0 6.7 150 1016.2 43.9 16
DallasTexas 9/12/2019 6:00 23.1 20.6 85.53 0 0 9 163 1016.9 18 16
DallasTexas 9/12/2019 7:00 23.3 20.6 84.99 0 0 9.6 354 1017.7 17.7 15.9
DallasTexas 9/12/2019 8:00 23.9 20.7 82.48 0 0 6.9 235 1018.1 13.7 15.9
DallasTexas 9/12/2019 9:00 25.8 21.1 75.31 0 0 12.2 179 1018.3 14.9 16
DallasTexas 9/12/2019 10:00 27.5 21.8 71.29 0 0 12.2 189 1018.8 37.2 16
DallasTexas 9/12/2019 11:00 29.3 21.9 64.61 0 0 17.4 194 1018.8 56.9 16
DallasTexas 9/12/2019 12:00 31 21.5 57.13 0 0 16.4 196 1018.4 71.7 16
DallasTexas 9/12/2019 13:00 32.6 19.5 46.02 0 0 19.1 178 1017.8 43.5 16
DallasTexas 9/12/2019 14:00 33.4 19.2 43.21 0 0 17.9 177 1017.2 29.1 16
DallasTexas 9/12/2019 15:00 34.4 18.3 38.58 0 0 16.6 159 1016.4 36.3 16
DallasTexas 9/12/2019 16:00 34.8 17.6 36.18 0 0 18.1 156 1015.6 26.3 16
DallasTexas 9/12/2019 17:00 34.7 17.2 35.58 0 0 15.1 145 1014.9 32.1 16
DallasTexas 9/12/2019 18:00 34.1 17.7 37.68 0 0 20.1 146 1014.4 18 16
DallasTexas 9/12/2019 19:00 33.5 17.9 39.58 0 0 17.1 130 1014.5 14.8 16
DallasTexas 9/12/2019 20:00 32 18.4 44.28 0 0 13.6 127 1015.3 14.5 16
DallasTexas 9/12/2019 21:00 31 19.3 49.82 0 0 11.1 113 1016.3 14.4 16
DallasTexas 9/12/2019 22:00 30.2 19.9 54.23 0 0 10.6 116 1017.1 17.9 16
DallasTexas 9/12/2019 23:00 29.9 19.7 54.48 0 0 11.3 126 1017.6 22.3 16
DallasTexas 9/13/2019 0:00 29.2 20 57.54 0 0 15.6 151 1017.6 25.8 16
DallasTexas 9/13/2019 1:00 28.2 20 61.44 0 0 13.6 154 1017.4 35.9 16
DallasTexas 9/13/2019 2:00 27.5 20.1 63.8 0 0 14 150 1017.5 17.6 16
DallasTexas 9/13/2019 3:00 26.9 20.4 67.33 0 0 6 42 1018 41.5 16
DallasTexas 9/13/2019 4:00 26.5 20.4 69.25 0 0 7 144 1018.2 27.1 16
DallasTexas 9/13/2019 5:00 25.9 20.4 71.52 0 0 9 156 1018.6 43.9 16
DallasTexas 9/13/2019 6:00 25.6 20.6 73.83 0 0 10.1 30 1018.7 35.4 16
DallasTexas 9/13/2019 7:00 25.6 21.1 76.12 0 0 6.8 212 1019.1 20 15.9
DallasTexas 9/13/2019 8:00 26.2 21.4 74.73 0 0 5.7 278 1019.9 21.3 16
DallasTexas 9/13/2019 9:00 28 21.7 68.62 0 0 9.5 283 1020.6 47.8 16
DallasTexas 9/13/2019 10:00 29.7 21.6 61.7 0 0 9.5 307 1021.1 33.8 16
DallasTexas 9/13/2019 11:00 31.1 19.3 49.54 0 0 7 277 1021.4 25.1 16
DallasTexas 9/13/2019 12:00 32.3 18.5 43.85 0 0 7.7 34 1021 27 16
DallasTexas 9/13/2019 13:00 33.6 16.6 36.22 0 0 11.1 293 1020.4 51.2 16
DallasTexas 9/13/2019 14:00 34.4 16.4 34.4 0 0 4.1 324 1019.6 26.1 16
DallasTexas 9/13/2019 15:00 34.7 15.4 31.74 0 0 8.1 107 1018.5 50.3 16
DallasTexas 9/13/2019 16:00 34.8 15.4 31.41 0 0 9.5 84 1017.7 44.3 16
DallasTexas 9/13/2019 17:00 34.6 15.5 31.95 0 0 9.8 84 1017.3 33.1 16
DallasTexas 9/13/2019 18:00 34 15.2 32.54 0 0 10.7 61 1017.3 31.3 16
DallasTexas 9/13/2019 19:00 33.5 14.5 32 0 0 9.6 99 1017.3 29.4 16
DallasTexas 9/13/2019 20:00 31.9 15.9 38.21 0 0 8.4 82 1017.7 30.1 16
DallasTexas 9/13/2019 21:00 30.6 17 43.98 0 0 10.2 80 1018.2 33.7 16
DallasTexas 9/13/2019 22:00 29.4 17.8 49.62 0 0 6.2 79 1018.6 24.1 16
DallasTexas 9/13/2019 23:00 28.7 17.7 51.62 0 0 5.5 79 1018.9 19.1 16
DallasTexas 9/14/2019 0:00 27.4 17.7 55.78 0 0 5.4 58 1019 27.3 16
DallasTexas 9/14/2019 1:00 26.9 19 61.8 0 0 8.5 60 1019.1 43.9 16
DallasTexas 9/14/2019 2:00 26.6 19 62.99 0 0 6.7 59 1019.4 43.9 16
DallasTexas 9/14/2019 3:00 25.8 19.2 67.01 0 0 0.6 8 1019.3 43.9 16
DallasTexas 9/14/2019 4:00 25.2 19.4 70.25 0 0 2.6 65 1019 27.2 16
DallasTexas 9/14/2019 5:00 24.7 19.4 72.24 0 0 5.4 81 1018.9 15 16
DallasTexas 9/14/2019 6:00 24.6 19.5 73.51 0 0 5.2 82 1019.3 13.5 16
DallasTexas 9/14/2019 7:00 24.4 19.3 73.42 0 0 6.6 77 1019.6 19.2 16
DallasTexas 9/14/2019 8:00 25.2 19.4 70.33 0 0 6.8 92 1020.1 18.5 16
DallasTexas 9/14/2019 9:00 27.6 19.3 60.59 0 0 8.3 108 1020.4 23.9 16
DallasTexas 9/14/2019 10:00 30.3 19.1 51.14 0 0 10.5 121 1020.5 24.7 16
DallasTexas 9/14/2019 11:00 32 18.4 44.65 0 0 10.2 111 1020.6 24.7 16
DallasTexas 9/14/2019 12:00 33.8 17.9 38.92 0 0 9.6 118 1020.1 24 16
DallasTexas 9/14/2019 13:00 34.9 16.7 33.86 0 0 11.3 80 1019.3 27.4 16
DallasTexas 9/14/2019 14:00 35.8 15.3 29.6 0 0 16.7 117 1018.3 24 16
DallasTexas 9/14/2019 15:00 36.2 15.4 29.16 0 0 13 104 1017.5 27.4 16
DallasTexas 9/14/2019 16:00 36.3 15.1 28.33 0 0 11.2 92 1016.7 25.8 16
DallasTexas 9/14/2019 17:00 35.9 15 28.85 0 0 11.7 96 1016.3 17.1 16
DallasTexas 9/14/2019 18:00 35.7 14.8 28.74 0 0 12.1 88 1016.2 15.9 15.8
DallasTexas 9/14/2019 19:00 34.5 15.6 32.33 0 0 10.9 93 1016.3 16.1 16
DallasTexas 9/14/2019 20:00 32.6 16.8 38.72 0 0 10.1 83 1016.6 15.1 16
DallasTexas 9/14/2019 21:00 31.4 17.7 43.99 0 0 8.2 79 1017.1 17.1 16
DallasTexas 9/14/2019 22:00 30.6 17.9 46.55 0 0 7.3 78 1017.5 24.1 16
DallasTexas 9/14/2019 23:00 30.1 17.8 47.72 0 0 6.1 76 1017.7 15.4 16
DallasTexas 9/15/2019 0:00 29.3 17.9 50.35 0 0 7.3 88 1017.6 21.1 16
DallasTexas 9/15/2019 1:00 28.6 18.2 53.14 0 0 6.7 84 1017.5 13.4 16
DallasTexas 9/15/2019 2:00 28 18.6 56.49 0 0 6.8 88 1017.6 15.4 16
DallasTexas 9/15/2019 3:00 27.5 18.6 58.49 0 0 6.4 92 1017.5 11.8 16
DallasTexas 9/15/2019 4:00 26.5 18.6 61.93 0 0 5.1 90 1017.4 0 15.8
DallasTexas 9/15/2019 5:00 25.7 18.6 64.95 0 0 6 76 1017.3 0 16
DallasTexas 9/15/2019 6:00 25.2 18.7 67.28 0 0 6.1 87 1017.2 0 16
DallasTexas 9/15/2019 7:00 24.5 18.6 69.96 0 0 4.8 63 1017.7 13.7 16
DallasTexas 9/15/2019 8:00 24.6 18.8 70.31 0 0 4.1 100 1017.9 13.5 16
DallasTexas 9/15/2019 9:00 27.2 19 60.89 0 0 4.8 116 1017.8 13.9 16
DallasTexas 9/15/2019 10:00 29.7 18.8 52.04 0 0 0.5 0 1017.9 13.9 16
DallasTexas 9/15/2019 11:00 32.3 18.4 43.61 0 0 2.9 42 1018.2 13.5 16
DallasTexas 9/15/2019 12:00 34 17.6 37.81 0 0 10.7 103 1017.9 14.3 16
DallasTexas 9/15/2019 13:00 35.1 17.6 35.55 0 0 9.2 119 1017.2 16.2 16
DallasTexas 9/15/2019 14:00 35.6 16.4 31.99 0 0 13.5 98 1016.5 17.5 16
DallasTexas 9/15/2019 15:00 35.9 16.5 31.7 0 0 12.1 93 1015.7 15.2 16
DallasTexas 9/15/2019 16:00 36 16.8 32.3 0 0 16.3 100 1014.9 26.9 16
DallasTexas 9/15/2019 17:00 36 17 32.55 0 0 12 75 1014.6 30.1 16
DallasTexas 9/15/2019 18:00 35.2 16.6 33 0 0 15.4 99 1014.5 17.5 16
DallasTexas 9/15/2019 19:00 33.9 17.3 37.16 0 0 12.7 103 1014.7 14.4 16
DallasTexas 9/15/2019 20:00 32.5 17.8 41.57 0 0 10.6 85 1014.7 16.4 16
DallasTexas 9/15/2019 21:00 31.4 18.3 45.72 0 0 6.7 85 1015.1 1.8 16
DallasTexas 9/15/2019 22:00 30.6 18.3 47.9 0 0 5.4 77 1015.4 0 16
DallasTexas 9/15/2019 23:00 29.4 18.7 52.59 0 0 4.5 82 1015.7 0 16
DallasTexas 9/16/2019 0:00 28.5 19 56.45 0 0 4.2 82 1015.9 0 16
DallasTexas 9/16/2019 1:00 27.7 19.5 61.15 0 0 3.2 65 1016 0 16
DallasTexas 9/16/2019 2:00 27.3 19.1 60.83 0 0 4.2 71 1016 0 16
DallasTexas 9/16/2019 3:00 27 19.4 63.12 0 0 5.8 83 1016 0 16
DallasTexas 9/16/2019 4:00 25.7 19.2 67.35 0 0 3.6 54 1015.9 0 16
DallasTexas 9/16/2019 5:00 25.5 18.9 66.88 0 0 2.7 54 1015.8 0 16
DallasTexas 9/16/2019 6:00 25.5 19 67.44 0 0 3.9 74 1015.9 0 15.8
DallasTexas 9/16/2019 7:00 25.3 19.2 68.85 0 0 0.7 352 1016.2 0 16
DallasTexas 9/16/2019 8:00 25.9 19.6 68.42 0 0 6.1 72 1016.6 13.7 16
DallasTexas 9/16/2019 9:00 27.9 19.9 61.75 0 0 5.4 89 1016.8 13.5 16
DallasTexas 9/16/2019 10:00 29.8 19.9 55.35 0 0 6.1 89 1017 13.5 16
DallasTexas 9/16/2019 11:00 32 20 49.02 0 0 4.1 72 1017.1 14.2 15.5
DallasTexas 9/16/2019 12:00 33.4 18.9 42.47 0 0 9.8 86 1016.7 21 16
DallasTexas 9/16/2019 13:00 34.3 18.3 38.84 0 0 16 98 1016 58.8 16
DallasTexas 9/16/2019 14:00 34.9 18 36.91 0 0 15.9 97 1015.3 43 16
DallasTexas 9/16/2019 15:00 34.6 17.6 36.48 0 0 16.5 99 1014.4 34.1 16
DallasTexas 9/16/2019 16:00 35.4 17.6 35.02 0 0 18.7 103 1013.6 49.4 16
DallasTexas 9/16/2019 17:00 34.7 17.6 36.43 0 0 18.2 111 1013.2 38.8 16
DallasTexas 9/16/2019 18:00 33.9 17.6 37.93 0 0 15.3 96 1013 40.7 16
DallasTexas 9/16/2019 19:00 33.2 17.5 39.14 0 0 13.9 109 1013.1 17 16
DallasTexas 9/16/2019 20:00 32.1 17.6 41.96 0 0 8.2 93 1013.2 14 16
DallasTexas 9/16/2019 21:00 30.8 18.1 46.85 0 0 7 84 1013.4 1.8 16
DallasTexas 9/16/2019 22:00 29.5 18.3 50.86 0 0 6.9 81 1013.7 0 16
DallasTexas 9/16/2019 23:00 28.4 18.5 55.1 0 0 3.3 68 1013.7 0 16
DallasTexas 9/17/2019 0:00 27.7 18.6 57.65 0 0 5.3 87 1013.6 0 16
DallasTexas 9/17/2019 1:00 27.7 18.3 56.69 0 0 13.9 156 1013.7 0 16
DallasTexas 9/17/2019 2:00 26.5 18.9 63.02 0 0 8.5 141 1013.6 0 16
DallasTexas 9/17/2019 3:00 26.2 18.8 63.74 0 0 7.8 138 1013.9 13.9 16
DallasTexas 9/17/2019 4:00 25.2 19.1 68.92 0 0 7.3 126 1014 17.8 16
DallasTexas 9/17/2019 5:00 24.9 19.2 70.81 0 0 9.2 124 1013.9 39.1 16
DallasTexas 9/17/2019 6:00 24.2 19.5 75.28 0 0 5.9 94 1014.2 0 16
DallasTexas 9/17/2019 7:00 23.6 19.6 78.29 0 0 2.2 47 1014.5 0 16
DallasTexas 9/17/2019 8:00 24.2 20.3 78.54 0 0 4.4 64 1015 13.7 16
DallasTexas 9/17/2019 9:00 26 20.7 72.25 0 0 10.3 106 1015 13.9 16
DallasTexas 9/17/2019 10:00 27.9 20.7 65.16 0 0 10.6 106 1015.1 13.5 16
DallasTexas 9/17/2019 11:00 29.3 20.6 59.33 0 0 11.9 97 1015.4 14.7 16
DallasTexas 9/17/2019 12:00 31.2 19.9 50.96 0 0 14.7 116 1014.9 20.2 16
DallasTexas 9/17/2019 13:00 32.1 19.3 46.84 0 0 14.9 112 1014.2 30.7 16
DallasTexas 9/17/2019 14:00 33.1 19 43.51 0 0 17.4 125 1013.3 41.6 16
DallasTexas 9/17/2019 15:00 33.5 19 42.55 0 0 18.1 111 1012.5 45 16
DallasTexas 9/17/2019 16:00 33.9 19 41.56 0 0 17.8 112 1011.9 39.1 16
DallasTexas 9/17/2019 17:00 33.2 18.9 42.78 0 0 16.2 106 1011.6 46 16
DallasTexas 9/17/2019 18:00 32.7 18.9 44 0 0 21.6 132 1011.4 53.6 16
DallasTexas 9/17/2019 19:00 31.4 19.8 50.45 0 0 19.5 137 1011.5 43.9 16
DallasTexas 9/17/2019 20:00 29.7 20 55.9 0 0 15.4 150 1011.9 28.3 16
DallasTexas 9/17/2019 21:00 29.1 20.3 59.32 0 0 12.1 138 1012.4 21.9 16
DallasTexas 9/17/2019 22:00 28.7 20.2 60.17 0 0 11.5 138 1013 36.4 16
DallasTexas 9/17/2019 23:00 28 20.1 62.25 0 0 9.4 127 1012.9 13.5 16
DallasTexas 9/18/2019 0:00 27 20.1 65.91 0 0 6 146 1012.6 13.5 16
DallasTexas 9/18/2019 1:00 26.4 20.3 69.33 0 0 6.1 137 1012.3 0 16
DallasTexas 9/18/2019 2:00 26.1 20.3 70.38 0 0 5.1 93 1012.2 0 16
DallasTexas 9/18/2019 3:00 25.5 20.4 73.14 0 0 5.5 97 1012.1 1.8 16
DallasTexas 9/18/2019 4:00 25 20.1 74.36 0 0 7.6 100 1011.7 3.4 16
DallasTexas 9/18/2019 5:00 24.4 20.6 79.33 0 0 5.5 96 1011.7 13.5 16
DallasTexas 9/18/2019 6:00 24 20.6 81.4 0 0 6.8 87 1012.1 14.3 16
DallasTexas 9/18/2019 7:00 23.8 20.6 82.6 0 0 6.5 86 1012.6 16 15.9
DallasTexas 9/18/2019 8:00 24.1 21 82.82 0 0 7.5 84 1013 21.8 15.8
DallasTexas 9/18/2019 9:00 25.4 21.2 77.54 0 0 11.7 105 1013.5 56.7 16
DallasTexas 9/18/2019 10:00 27.1 21.4 70.81 0 0 9.2 74 1013.4 44.8 16
DallasTexas 9/18/2019 11:00 28.5 21.4 65.45 0 0 10.9 86 1013.6 48.9 16
DallasTexas 9/18/2019 12:00 30 21.3 59.38 0 0 12.7 82 1013.4 75.4 16
DallasTexas 9/18/2019 13:00 30.9 21.2 56.45 0 0 10.3 84 1012.8 54.3 15.8
DallasTexas 9/18/2019 14:00 31.9 20.7 51.61 0 0 14.3 84 1011.9 44.5 16
DallasTexas 9/18/2019 15:00 33.1 21 49.15 0 0 13.7 72 1011 56.9 16
DallasTexas 9/18/2019 16:00 33.2 20.5 47.2 0 0 11.2 81 1010.6 37.9 16
DallasTexas 9/18/2019 17:00 33.2 20.1 46.18 0 0 14.1 66 1010.1 40.8 16
DallasTexas 9/18/2019 18:00 33.3 19.7 44.94 0.14 0 16.6 93 1010.1 29.1 15.4
DallasTexas 9/18/2019 19:00 30 21.1 58.78 0 0 18.8 90 1010.5 57.8 15.9
DallasTexas 9/18/2019 20:00 28.4 21.7 66.83 0 0 12.6 86 1010.7 29.4 16
DallasTexas 9/18/2019 21:00 27.7 21.6 69.59 0 0 14.1 89 1011.3 13.7 16
DallasTexas 9/18/2019 22:00 27.1 22 73.82 0 0 13.9 79 1011.7 13.5 16
DallasTexas 9/18/2019 23:00 26 22.1 78.98 0 0 8.9 93 1011.9 1.8 16
DallasTexas 9/19/2019 0:00 25.5 21.9 80.17 0 0 8.6 89 1011.9 14.7 16
DallasTexas 9/19/2019 1:00 25.2 21.8 81.24 0 0 9.1 89 1011.7 13.5 16
DallasTexas 9/19/2019 2:00 24.7 21.7 83.47 0 0 9.2 90 1011.7 17.4 16
DallasTexas 9/19/2019 3:00 24.3 21.5 84.32 0 0 11.4 88 1011.3 42.2 16
DallasTexas 9/19/2019 4:00 24.3 21.3 83.22 0 0 6.6 72 1010.9 89 16
DallasTexas 9/19/2019 5:00 24.4 21.3 82.78 0 0 9.3 62 1010.9 91.2 16
DallasTexas 9/19/2019 6:00 24.5 21.5 83.16 0 0 8.9 66 1011.2 86.8 16
DallasTexas 9/19/2019 7:00 24.6 21.3 81.99 0 0 10.7 52 1011.5 83 16
DallasTexas 9/19/2019 8:00 24.5 21.4 82.81 0 0 12.7 61 1011.7 83.3 15.5
DallasTexas 9/19/2019 9:00 24.5 22 86.23 0 0 12.4 61 1012 82 13.2
DallasTexas 9/19/2019 10:00 25 21.9 82.82 0 0 11.6 66 1012.3 69.8 13.9
DallasTexas 9/19/2019 11:00 25.3 22.2 83.07 0 0 12.4 64 1012.2 69.4 13.6
DallasTexas 9/19/2019 12:00 26 21.9 78.26 0.08 0 14.7 53 1012.3 81.2 15.7
DallasTexas 9/19/2019 13:00 26.1 21.8 77.38 0 0 15.4 67 1012.1 75.3 16
DallasTexas 9/19/2019 14:00 26.6 21.5 73.35 0 0 14.8 57 1011.4 85.4 15.7
DallasTexas 9/19/2019 15:00 25.4 21.9 81 0.01 0 11.8 68 1011.2 75.1 11.4
DallasTexas 9/19/2019 16:00 26.7 21.4 73.01 0.07 0 11.2 73 1010.8 69.4 15.6
DallasTexas 9/19/2019 17:00 26.9 21.1 70.58 0 0 15 72 1010.3 73.9 16
DallasTexas 9/19/2019 18:00 26.6 21.2 72.29 0 0 16.5 70 1009.9 65.8 16
DallasTexas 9/19/2019 19:00 25.8 21.1 75.55 0 0 18 89 1010.2 76.2 16
DallasTexas 9/19/2019 20:00 24.5 20.9 80.35 0 0 16.2 102 1010.1 75.2 16
DallasTexas 9/19/2019 21:00 24.3 20.9 81.4 0 0 13.7 111 1010.5 73.7 16
DallasTexas 9/19/2019 22:00 23.9 21 83.49 0 0 11.7 108 1011.5 85.8 16
DallasTexas 9/19/2019 23:00 23.9 21.3 85.31 0.01 0 8 104 1012 99.6 15.7
DallasTexas 9/20/2019 0:00 23.9 21.3 85.86 0.01 0 8.3 110 1012.1 97.4 15.8
DallasTexas 9/20/2019 1:00 24.1 21.8 86.83 0 0 8.5 125 1012.1 96.3 16
DallasTexas 9/20/2019 2:00 24.6 22.1 85.85 0 0 12 139 1012.1 83.2 15.9
DallasTexas 9/20/2019 3:00 24.4 22.1 87.18 0.01 0 13.6 150 1012.1 94.6 13.5
DallasTexas 9/20/2019 4:00 24.1 22.3 89.9 0.01 0 15.1 160 1011.7 85.7 11.5
DallasTexas 9/20/2019 5:00 23.8 22.1 90.27 0 0 13.5 157 1012.2 80.5 14
DallasTexas 9/20/2019 6:00 24.1 22.4 90.27 0.17 0 12 163 1012.3 99.5 11.9
DallasTexas 9/20/2019 7:00 24.5 23 91.11 1.2 0 11.3 164 1012.6 96.1 14
DallasTexas 9/20/2019 8:00 25.1 23.5 90.72 0.82 0 12.7 167 1012.9 82.7 15
DallasTexas 9/20/2019 9:00 25.7 23.6 88.14 0.1 0 16.1 172 1013.6 74 15.7
DallasTexas 9/20/2019 10:00 26.9 23.7 82.63 0.87 0 21.7 170 1013.8 70.6 15.8
DallasTexas 9/20/2019 11:00 28.9 23.4 72.35 0 0 20 180 1014.1 79 15.8
DallasTexas 9/20/2019 12:00 31.1 22.6 60.76 0 0 22.5 180 1013.9 68.5 16
DallasTexas 9/20/2019 13:00 32.7 21.9 53.16 0 0 26.2 173 1012.9 70.1 16
DallasTexas 9/20/2019 14:00 34.3 21 46.08 0 0 26.6 174 1012.1 57.1 16
DallasTexas 9/20/2019 15:00 34.7 19.8 41.65 0 0 24.8 172 1011.3 54.1 16
DallasTexas 9/20/2019 16:00 35.4 18.5 37.09 0 0 26.9 166 1010.8 41.9 16
DallasTexas 9/20/2019 17:00 35 18.4 37.55 0 0 27.6 161 1011.1 56 16
DallasTexas 9/20/2019 18:00 32.4 20.8 50.47 0 0 23.5 143 1011.5 31.4 16
DallasTexas 9/20/2019 19:00 30.6 20.8 56.04 0 0 28.7 138 1012.3 33.7 16
DallasTexas 9/20/2019 20:00 29 21.3 63.03 0 0 26.9 140 1013.3 43.8 16
DallasTexas 9/20/2019 21:00 28.6 21.6 65.83 0 0 23.3 145 1013.7 39.1 16
DallasTexas 9/20/2019 22:00 27.9 21.5 67.95 0 0 26.6 147 1014.6 29 16
DallasTexas 9/20/2019 23:00 27.3 21.2 69.36 0 0 27.3 154 1015.4 27.8 16
DallasTexas 9/21/2019 0:00 27 20.6 68.24 0 0 23.4 162 1015.6 25.8 16
DallasTexas 9/21/2019 1:00 26 20.8 73.15 0 0 23.8 160 1015.9 29 16
DallasTexas 9/21/2019 2:00 25.4 21.2 77.68 0 0 22.5 164 1015.6 48.1 16
DallasTexas 9/21/2019 3:00 25.3 21.7 80.42 0 0 18.8 166 1015.4 82 16
DallasTexas 9/21/2019 4:00 25.4 22.1 81.98 0 0 21.5 164 1015.3 82 16
DallasTexas 9/21/2019 5:00 25.3 22.2 83.17 0 0 18.1 165 1015.8 79.1 16
DallasTexas 9/21/2019 6:00 25.3 22.2 82.91 0 0 17 160 1016.4 70.3 16
DallasTexas 9/21/2019 7:00 24.9 22.2 85.06 0 0 15.9 155 1016.7 73.6 15.9
DallasTexas 9/21/2019 8:00 25 22.3 84.88 0 0 17.8 153 1017 65.5 15.8
DallasTexas 9/21/2019 9:00 25.7 22.3 81.68 0 0 18.8 163 1017.7 88.1 15.7
DallasTexas 9/21/2019 10:00 26.6 22.1 76.17 0 0 18.4 168 1017.9 91.1 15.8
DallasTexas 9/21/2019 11:00 28.4 21.8 67.19 0 0 21.2 166 1017.9 86.1 15.8
DallasTexas 9/21/2019 12:00 30.1 21.3 59.32 0 0 20.3 166 1017.6 70.4 16
DallasTexas 9/21/2019 13:00 31.7 21.1 53.28 0 0 20 165 1016.8 77.7 16
DallasTexas 9/21/2019 14:00 32.7 20.4 48.61 0 0 24.5 165 1015.9 78.6 16
DallasTexas 9/21/2019 15:00 33.4 19.6 44.41 0 0 25 162 1014.9 70.4 16
DallasTexas 9/21/2019 16:00 33.9 19.3 42.42 0 0 27.4 147 1013.9 50.4 16
DallasTexas 9/21/2019 17:00 33.9 18.9 41.2 0 0 25.7 149 1013.4 41.8 16
DallasTexas 9/21/2019 18:00 33.4 18.2 40.7 0 0 22 144 1013 32.6 16
DallasTexas 9/21/2019 19:00 31.9 19.2 47.01 0 0 25.2 137 1012.9 14.3 16
DallasTexas 9/21/2019 20:00 30.5 19.9 53.31 0 0 20.7 138 1013.3 13.7 16
DallasTexas 9/21/2019 21:00 29.9 20.1 55.77 0 0 22.4 140 1014 15.7 16
DallasTexas 9/21/2019 22:00 29.1 20 58.1 0 0 20.6 143 1014.4 13.7 16
DallasTexas 9/21/2019 23:00 28.3 20.4 62.33 0 0 20.3 145 1014.5 1.8 16
DallasTexas 9/22/2019 0:00 27.7 20.6 65.4 0 0 23 160 1014.7 11.8 16
DallasTexas 9/22/2019 1:00 27.2 20.7 67.62 0 0 20.4 163 1014.5 11.8 16
DallasTexas 9/22/2019 2:00 26.4 20.9 71.69 0 0 18.2 169 1014.6 19.1 16
DallasTexas 9/22/2019 3:00 26 20.9 73.58 0 0 18.7 171 1015 13.5 16
DallasTexas 9/22/2019 4:00 25.3 20.7 76.02 0 0 16.3 165 1015 19.8 16
DallasTexas 9/22/2019 5:00 24.8 20.8 78.57 0 0 19.6 168 1015.1 55.2 16
DallasTexas 9/22/2019 6:00 24.8 21.2 80.69 0 0 16.4 173 1015.2 50.2 16
DallasTexas 9/22/2019 7:00 24.4 21.3 82.93 0 0 17.2 166 1015.4 38.9 15.8
DallasTexas 9/22/2019 8:00 24.4 21.8 85.1 0 0 16.7 170 1015.7 34.1 16
DallasTexas 9/22/2019 9:00 25.9 21.8 78.26 0 0 22.1 174 1015.6 57.8 16
DallasTexas 9/22/2019 10:00 27.5 21.2 68.52 0 0 26.3 180 1015.6 78.2 16
DallasTexas 9/22/2019 11:00 29.2 20.5 59.28 0 0 26.8 190 1015.6 63.5 16
DallasTexas 9/22/2019 12:00 31.1 20 51.89 0 0 22.5 196 1015.3 68.6 16
DallasTexas 9/22/2019 13:00 31.3 20 51.19 0 0 19.3 196 1015 80.7 16
DallasTexas 9/22/2019 14:00 32.5 19.6 46.47 0 0 17.4 196 1014.1 70.4 16
DallasTexas 9/22/2019 15:00 33.1 19.4 44.5 0 0 17.8 177 1013.4 70 16
DallasTexas 9/22/2019 16:00 33.5 19 42.41 0 0 14.2 177 1012.7 61.4 16
DallasTexas 9/22/2019 17:00 34 18.8 40.66 0 0 18.3 163 1012.3 56.4 16
DallasTexas 9/22/2019 18:00 34 18.3 39.48 0 0 14.5 181 1012.1 23.1 16
DallasTexas 9/22/2019 19:00 33.2 18.1 40.7 0 0 15.4 160 1012.3 27.7 16
DallasTexas 9/22/2019 20:00 31.7 18.2 44.76 0 0 12.6 134 1012.6 18.9 16
DallasTexas 9/22/2019 21:00 30.4 18.7 49.64 0 0 13.4 140 1013.2 17.5 16
DallasTexas 9/22/2019 22:00 29.8 19.1 52.89 0 0 14.6 144 1013.8 17.8 16
DallasTexas 9/22/2019 23:00 29 19.8 57.65 0 0 21.7 157 1014.1 15 16
DallasTexas 9/23/2019 0:00 28.2 21.2 65.65 0 0 19.3 160 1014.3 14 16
DallasTexas 9/23/2019 1:00 27.7 22 71.15 0 0 18.5 164 1014.6 14.2 16
DallasTexas 9/23/2019 2:00 27.2 22.2 74.45 0 0 18.1 171 1014.6 14.7 16
DallasTexas 9/23/2019 3:00 26.6 22.2 77.16 0 0 16.7 173 1014.4 16.9 16
DallasTexas 9/23/2019 4:00 26.3 22.2 78.27 0 0 12.7 177 1014.5 32.8 16
DallasTexas 9/23/2019 5:00 26.1 22.3 79.74 0 0 12.4 171 1014.8 78.2 16
DallasTexas 9/23/2019 6:00 25.7 22.3 81.75 0 0 11 170 1015.2 38.5 16
DallasTexas 9/23/2019 7:00 25.3 22.3 83.78 0 0 12.6 26 1015.7 61.3 16
DallasTexas 9/23/2019 8:00 25.3 22.6 85.16 0 0 9.2 173 1016.4 71.8 16
DallasTexas 9/23/2019 9:00 26.4 22.7 80.17 0 0 9.1 208 1016.8 58.8 16
DallasTexas 9/23/2019 10:00 28.5 22.3 69.34 0 0 12.7 183 1016.9 40.1 16
DallasTexas 9/23/2019 11:00 30.4 21.9 60.34 0 0 10.9 191 1016.8 26 16
DallasTexas 9/23/2019 12:00 32 21.4 53.67 0 0 11.6 182 1016.5 19.6 16
DallasTexas 9/23/2019 13:00 33.8 21.4 48.51 0 0 10.2 317 1015.8 34.1 16
DallasTexas 9/23/2019 14:00 33.6 20.7 46.88 0 0 10.8 117 1014.7 64.2 16
DallasTexas 9/23/2019 15:00 31 21.1 55.62 6.55 0 15.8 80 1014.1 62.5 14.7
DallasTexas 9/23/2019 16:00 31.2 22.4 59.55 6.72 0 14 82 1013.3 53.8 16
DallasTexas 9/23/2019 17:00 33.9 20.8 46.49 0 0 12.1 121 1012.7 28.2 16
DallasTexas 9/23/2019 18:00 33.8 20.3 45.07 0 0 16.3 116 1012.3 30.4 16
DallasTexas 9/23/2019 19:00 32.7 19.6 46.07 0 0 17.7 122 1012.5 37.6 16
DallasTexas 9/23/2019 20:00 31.5 19.8 49.84 0 0 14.5 123 1012.7 21.2 16
DallasTexas 9/23/2019 21:00 30.3 20 53.98 0 0 12.9 127 1012.9 13.7 16
DallasTexas 9/23/2019 22:00 29.5 20.2 57.38 0 0 12.2 124 1013.3 13.5 16
DallasTexas 9/23/2019 23:00 29 20.6 60.75 0 0 15 132 1013.6 1.8 16
DallasTexas 9/24/2019 0:00 28 21.5 67.79 0 0 15.1 140 1013.7 1.8 16
DallasTexas 9/24/2019 1:00 27.2 21.7 71.8 0 0 12.8 149 1013.5 13.5 16
DallasTexas 9/24/2019 2:00 26.6 22 75.77 0 0 12.6 156 1013.5 13.5 16
DallasTexas 9/24/2019 3:00 26.1 22 78.33 0 0 13.4 162 1013.2 15 16
DallasTexas 9/24/2019 4:00 25.8 22.1 79.97 0 0 11.6 162 1012.9 24.7 16
DallasTexas 9/24/2019 5:00 25.3 22.3 83.49 0 0 12.1 164 1012.7 41.5 16
DallasTexas 9/24/2019 6:00 25.3 22.6 85.38 0 0 11.1 156 1013.1 29.7 16
DallasTexas 9/24/2019 7:00 25 22.8 87.65 0 0 10.1 166 1013.7 59 16
DallasTexas 9/24/2019 8:00 25.2 23 87.27 0 0 13.1 165 1013.7 75 15.8
DallasTexas 9/24/2019 9:00 26.2 23 82.32 0 0 14.5 178 1013.9 88.1 16
DallasTexas 9/24/2019 10:00 28.1 22.9 73.25 0 0 17.6 199 1014 72.8 16
DallasTexas 9/24/2019 11:00 29.7 22.1 63.8 0 0 13.2 196 1014 61 16
DallasTexas 9/24/2019 12:00 30.9 22.1 59.43 0 0 12.6 174 1013.3 61.1 16
DallasTexas 9/24/2019 13:00 32.3 21.6 53.42 0 0 15.7 190 1012.5 68 16
DallasTexas 9/24/2019 14:00 33.1 21.1 49.31 0 0 15.1 170 1011.2 76.9 16
DallasTexas 9/24/2019 15:00 34 20.4 45.11 0 0 16.2 166 1009.8 45.4 16
DallasTexas 9/24/2019 16:00 34.8 19.6 40.84 0 0 18.3 158 1009 45.5 16
DallasTexas 9/24/2019 17:00 34.4 18.3 38.67 0 0 15.6 166 1008.5 33.1 16
DallasTexas 9/24/2019 18:00 34.3 18.8 40.29 0 0 21 150 1008.4 45.7 16
DallasTexas 9/24/2019 19:00 33.3 19.4 44.07 0 0 22.2 139 1008.6 28.3 16
DallasTexas 9/24/2019 20:00 31.9 20.3 50.47 0 0 15.4 147 1008.6 22.4 16
DallasTexas 9/24/2019 21:00 30.8 20.3 53.81 0 0 17.8 161 1009.2 23.7 16
DallasTexas 9/24/2019 22:00 30.1 20.5 56.42 0 0 18.6 155 1009.6 24.7 16
DallasTexas 9/24/2019 23:00 29.7 19.9 55.92 0 0 18.3 160 1009.9 46.3 16
DallasTexas 9/25/2019 0:00 28.6 19.4 57.61 0 0 17.3 161 1009.9 27.2 16
DallasTexas 9/25/2019 1:00 27.8 19.4 60.17 0 0 19.3 170 1009.8 15 16
DallasTexas 9/25/2019 2:00 27.2 19.4 62.53 0 0 19.3 174 1009.7 13.5 16
DallasTexas 9/25/2019 3:00 26.6 19.8 66.24 0 0 19.6 179 1009.6 13.5 16
DallasTexas 9/25/2019 4:00 26.1 20.4 71.11 0 0 19 187 1009.3 11.8 16
DallasTexas 9/25/2019 5:00 25.7 20.6 73.23 0 0 14.1 184 1009.8 25.4 16
DallasTexas 9/25/2019 6:00 25.4 20.7 74.88 0 0 12.2 184 1010.2 82 16
DallasTexas 9/25/2019 7:00 25.3 20.9 76.39 0 0 15.2 191 1010.7 85.6 16
DallasTexas 9/25/2019 8:00 25.3 21 77.15 0 0 11.8 174 1010.8 53.6 16
DallasTexas 9/25/2019 9:00 25.9 21.2 75.32 0.12 0 13.7 176 1011.2 53.5 15.8
DallasTexas 9/25/2019 10:00 27.2 21.3 70.34 0.17 0 16.3 184 1011.3 52.5 16
DallasTexas 9/25/2019 11:00 29.5 21.5 62.21 0 0 16.4 181 1011.4 58.8 16
DallasTexas 9/25/2019 12:00 31.4 21.4 55.38 0 0 14.4 178 1011.2 53.4 16
DallasTexas 9/25/2019 13:00 33.5 20.9 47.82 0 0 10.9 186 1010.4 27.2 16
DallasTexas 9/25/2019 14:00 34.5 20.4 43.84 0 0 10 178 1009.3 30.3 16
DallasTexas 9/25/2019 15:00 35 19.7 40.94 0 0 11.6 168 1008.6 27.6 16
DallasTexas 9/25/2019 16:00 35.6 19 37.82 0 0 13.1 171 1008 41.6 16
DallasTexas 9/25/2019 17:00 35.4 18.6 37.41 0 0 13.4 138 1007.5 37.4 16
DallasTexas 9/25/2019 18:00 35.2 18.6 37.7 0 0 15.1 142 1007.3 24.8 16
DallasTexas 9/25/2019 19:00 34.3 18.2 38.51 0 0 15.5 153 1007.7 14.4 16
DallasTexas 9/25/2019 20:00 32.8 18.2 41.93 0 0 13.3 140 1008.3 14.7 16
DallasTexas 9/25/2019 21:00 31.4 18.5 46.41 0 0 15.3 141 1009.1 23.3 16
DallasTexas 9/25/2019 22:00 30.4 18.8 49.92 0 0 15 146 1009.8 11.8 16
DallasTexas 9/25/2019 23:00 29.6 18.8 52.15 0 0 16 158 1010.1 11.8 16
DallasTexas 9/26/2019 0:00 28.5 19.1 56.55 0 0 18.1 158 1010.1 13.5 16
DallasTexas 9/26/2019 1:00 27.8 19.1 59.25 0 0 18 168 1009.6 13.5 16
DallasTexas 9/26/2019 2:00 27.7 18.8 58.46 0 0 20.1 180 1009.5 1.8 16
DallasTexas 9/26/2019 3:00 27.2 19 60.7 0 0 17.5 183 1009.9 13.5 16
DallasTexas 9/26/2019 4:00 26.3 19.4 66.09 0 0 14.5 174 1010.3 43.9 16
DallasTexas 9/26/2019 5:00 25.7 20 70.66 0 0 9.8 156 1011.1 24.7 16
DallasTexas 9/26/2019 6:00 25.4 20.1 72.39 0 0 12.4 149 1011.3 13.8 16
DallasTexas 9/26/2019 7:00 24.7 20.6 78.11 0 0 11.2 168 1011.4 13.5 16
DallasTexas 9/26/2019 8:00 24.9 20.7 77.84 0 0 11.2 162 1011.8 16.5 16
DallasTexas 9/26/2019 9:00 25.9 20.9 74.23 0 0 11 129 1012.9 36 15.9
DallasTexas 9/26/2019 10:00 26.4 21.2 72.88 0.04 0 20.3 88 1014 60.2 16
DallasTexas 9/26/2019 11:00 28.4 21 64.34 0 0 18.5 102 1013.9 42.7 16
DallasTexas 9/26/2019 12:00 30.2 20.9 57.63 0 0 16.8 124 1013.4 26.7 16
DallasTexas 9/26/2019 13:00 31.9 20.7 51.56 0 0 17 143 1012.8 17.9 16
DallasTexas 9/26/2019 14:00 32.9 20 46.82 0 0 16.1 160 1011.5 19.1 16
DallasTexas 9/26/2019 15:00 33.9 19.8 43.59 0 0 14.6 144 1010.4 18.2 16
DallasTexas 9/26/2019 16:00 34.3 19.2 40.94 0 0 17 147 1009.6 19.1 16
DallasTexas 9/26/2019 17:00 34.3 19.1 40.67 0 0 14.3 147 1008.7 17.8 16
DallasTexas 9/26/2019 18:00 33.7 18.8 41.46 0 0 16.4 145 1008.3 15.2 16
DallasTexas 9/26/2019 19:00 32.8 18.1 41.78 0 0 13 140 1008.4 13.5 16
DallasTexas 9/26/2019 20:00 31.1 18.4 46.76 0 0 10.8 147 1008.8 13.5 16
DallasTexas 9/26/2019 21:00 30.4 18.5 49.09 0 0 11 153 1009.3 1.8 16
DallasTexas 9/26/2019 22:00 29.7 18.8 51.94 0 0 13.8 157 1009.6 0 16
DallasTexas 9/26/2019 23:00 29 18.9 54.44 0 0 13.7 161 1009.6 0 16
DallasTexas 9/27/2019 0:00 28.4 19.2 57.52 0 0 15.5 171 1009.4 0 16
DallasTexas 9/27/2019 1:00 27.7 18.6 57.76 0 0 15.5 165 1009.2 0 16
DallasTexas 9/27/2019 2:00 26.9 18.3 59.39 0 0 17.4 167 1009.2 0 16
DallasTexas 9/27/2019 3:00 25.9 18.3 62.71 0 0 17 165 1009.1 0 16
DallasTexas 9/27/2019 4:00 24.9 18.2 66.38 0 0 16.9 175 1009.2 0 16
DallasTexas 9/27/2019 5:00 24.6 18.6 69.32 0 0 16.2 176 1009.4 0 16
DallasTexas 9/27/2019 6:00 24 19.4 75.21 0 0 14.7 183 1010 0 16
DallasTexas 9/27/2019 7:00 23.4 19.7 80 0 0 14.9 177 1010 0.2 16
DallasTexas 9/27/2019 8:00 23.4 20.1 81.54 0 0 14.3 168 1010.1 7 16
DallasTexas 9/27/2019 9:00 24.8 20.7 78.16 0 0 17.7 180 1010.5 46 16
DallasTexas 9/27/2019 10:00 26.6 20.7 69.95 0 0 19.4 173 1010.8 24.3 16
DallasTexas 9/27/2019 11:00 28.5 20.4 61.41 0 0 19.7 187 1010.5 15.8 16
DallasTexas 9/27/2019 12:00 30.7 19.1 50.02 0 0 21.6 174 1010 14.4 16
DallasTexas 9/27/2019 13:00 32.3 18.5 43.98 0 0 22 190 1009.3 14.4 16
DallasTexas 9/27/2019 14:00 33.5 16.7 36.83 0 0 18.3 173 1008.2 14.4 16
DallasTexas 9/27/2019 15:00 34.5 16.2 33.69 0 0 21.8 172 1007 15.3 16
DallasTexas 9/27/2019 16:00 34.3 17.9 38.02 0 0 21.9 169 1006.4 28 16
DallasTexas 9/27/2019 17:00 34 18.6 40.2 0 0 22.8 166 1005.9 38.6 16
DallasTexas 9/27/2019 18:00 33.7 18.2 39.96 0 0 18.3 175 1005.8 41.6 16
DallasTexas 9/27/2019 19:00 33.2 18.2 41.01 0 0 21.8 163 1005.9 16.1 16
DallasTexas 9/27/2019 20:00 31.9 18.5 45.04 0 0 15.6 158 1006.4 23.9 16
DallasTexas 9/27/2019 21:00 30.1 21.2 58.91 0 0 25.7 152 1007.3 16.1 16
DallasTexas 9/27/2019 22:00 28.8 21.2 63.53 0 0 23 156 1007.9 1.8 16
DallasTexas 9/27/2019 23:00 28 21.5 67.65 0 0 24.4 162 1008.1 0 16
DallasTexas 9/28/2019 0:00 27.3 21.7 71.69 0 0 22.7 161 1008.1 0 16
DallasTexas 9/28/2019 1:00 26.6 21.8 74.66 0 0 23.3 168 1008.2 14.4 16
DallasTexas 9/28/2019 2:00 26.1 22.1 78.64 0 0 18.7 165 1008.4 14.3 16
DallasTexas 9/28/2019 3:00 25.6 22.2 81.34 0 0 20.3 169 1008.7 18.9 16
DallasTexas 9/28/2019 4:00 25.6 22.2 81.74 0 0 19 170 1008.8 65.7 16
DallasTexas 9/28/2019 5:00 25.7 22.2 81.15 0 0 18.6 171 1009 86.7 16
DallasTexas 9/28/2019 6:00 26.2 22.2 78.83 0 0 19.6 174 1009.8 82.6 16
DallasTexas 9/28/2019 7:00 26.1 22.2 79.36 0 0 13.1 173 1010.7 74.4 16
DallasTexas 9/28/2019 8:00 26.1 22.3 79.78 0 0 16.4 163 1011.6 76.1 16
DallasTexas 9/28/2019 9:00 27 22.8 77.62 0 0 17.4 159 1012.4 78.1 16
DallasTexas 9/28/2019 10:00 28.2 22.3 70.37 0 0 19.9 168 1013 88.2 16
DallasTexas 9/28/2019 11:00 29.5 21.9 63.58 0 0 17.7 174 1013.5 84 16
DallasTexas 9/28/2019 12:00 31.3 21.7 56.89 0 0 21.9 168 1013.4 63.8 16
DallasTexas 9/28/2019 13:00 32.6 20.9 50.11 0.2 0 22.3 166 1012.7 44.6 15.6
DallasTexas 9/28/2019 14:00 33.6 20.4 45.94 0.33 0 21.8 158 1011.8 58.5 15.7
DallasTexas 9/28/2019 15:00 33.9 19.9 43.86 0 0 24.3 151 1011.1 49.5 16
DallasTexas 9/28/2019 16:00 34.5 19.3 40.81 0.36 0 25.7 158 1010.5 47.1 16
DallasTexas 9/28/2019 17:00 34.1 19 41.02 0 0 27.3 140 1010.1 38.5 16
DallasTexas 9/28/2019 18:00 33.6 18.8 41.88 0 0 30.2 153 1010.2 19 16
DallasTexas 9/28/2019 19:00 32.6 17.9 41.53 0 0 22.3 148 1010.6 15.8 16
DallasTexas 9/28/2019 20:00 31.4 18.4 45.87 0 0 17.4 140 1010.6 13.5 16
DallasTexas 9/28/2019 21:00 30.6 18.4 48.28 0 0 19.6 138 1011 11.8 16
DallasTexas 9/28/2019 22:00 29.7 18.5 51.07 0 0 20.1 133 1012 11.8 16
DallasTexas 9/28/2019 23:00 28.6 20.2 60.49 0 0 20.6 140 1012.5 11.8 16
DallasTexas 9/29/2019 0:00 28 20.3 62.92 0 0 17.4 149 1013.1 23.3 16
DallasTexas 9/29/2019 1:00 27.6 20 63.18 0 0 17.9 157 1013.2 41.5 16
DallasTexas 9/29/2019 2:00 26.9 20.4 67.72 0 0 17.5 158 1013.5 24.7 16
DallasTexas 9/29/2019 3:00 26.3 20.7 71.53 0 0 17.6 152 1013.7 18.4 16
DallasTexas 9/29/2019 4:00 26 21.1 74.1 0 0 14.6 150 1013.8 67.5 16
DallasTexas 9/29/2019 5:00 25.9 21.7 77.78 0 0 15.3 149 1014.1 78.4 16
DallasTexas 9/29/2019 6:00 25.8 22.2 80.4 0 0 14.8 144 1014.6 64.5 16
DallasTexas 9/29/2019 7:00 25.7 22.3 81.75 0 0 17.8 140 1015.2 82.7 16
DallasTexas 9/29/2019 8:00 25.7 22.8 84.23 0 0 17.6 139 1015.5 78.5 16
DallasTexas 9/29/2019 9:00 26.8 22.9 79.46 0 0 20.7 151 1015.8 78.5 16
DallasTexas 9/29/2019 10:00 27.9 22.6 73.13 0 0 22.6 158 1016.1 72.6 16
DallasTexas 9/29/2019 11:00 29.4 22.3 65.52 0 0 22.5 160 1016.2 82.1 16
DallasTexas 9/29/2019 12:00 31.1 21.8 57.76 0 0 20.8 170 1015.9 83.4 16
DallasTexas 9/29/2019 13:00 32.6 21.1 51 0 0 21.9 174 1015.3 70.5 16
DallasTexas 9/29/2019 14:00 33.8 20.7 46.33 0 0 24.2 165 1014.1 62.8 16
DallasTexas 9/29/2019 15:00 34 20.4 45.02 0 0 19.5 164 1013.2 62.5 16
DallasTexas 9/29/2019 16:00 34.7 19.9 41.93 0 0 24.9 150 1012.7 65.8 16
DallasTexas 9/29/2019 17:00 34.2 19.6 42.46 0 0 26.5 141 1012.4 52.3 16
DallasTexas 9/29/2019 18:00 33.8 18.3 39.94 0 0 24.1 144 1012.4 35.9 16
DallasTexas 9/29/2019 19:00 32.8 18.2 41.94 0 0 21 132 1012.5 13.5 16
DallasTexas 9/29/2019 20:00 31.3 17.9 44.78 0 0 19.7 133 1013 14.2 16
DallasTexas 9/29/2019 21:00 30.5 17.7 46.5 0 0 18.2 136 1013.6 13.5 16
DallasTexas 9/29/2019 22:00 29.2 19.2 54.93 0 0 23 137 1014.4 13.5 16
DallasTexas 9/29/2019 23:00 28.3 19.4 58.49 0 0 20.6 139 1014.8 1.8 16
DallasTexas 9/30/2019 0:00 27.9 19.3 59.68 0 0 21.2 152 1015 0 16
DallasTexas 9/30/2019 1:00 27.1 19.4 62.73 0 0 20.9 166 1015.3 11.8 16
DallasTexas 9/30/2019 2:00 26.5 20 67.39 0 0 17.7 168 1015.5 11.8 16
DallasTexas 9/30/2019 3:00 25.7 20.5 72.94 0 0 15.1 167 1015.3 0 16
DallasTexas 9/30/2019 4:00 25.1 20.6 76.27 0 0 14.8 160 1015.1 11.8 16
DallasTexas 9/30/2019 5:00 24.5 20.6 78.96 0 0 14.2 160 1015.4 14.8 16
DallasTexas 9/30/2019 6:00 24 21.1 84.32 0 0 14.5 172 1015.4 72.1 16
DallasTexas 9/30/2019 7:00 24.5 21.3 82.26 0 0 13.1 173 1015.9 92.1 15.9
DallasTexas 9/30/2019 8:00 25 21.5 80.94 0 0 12.6 166 1016 75.9 15.7
DallasTexas 9/30/2019 9:00 25.7 22 79.99 0 0 14.8 164 1016.1 83.5 14.5
DallasTexas 9/30/2019 10:00 27.1 22.1 74.39 0 0 22.7 165 1016.3 83.8 15.1
DallasTexas 9/30/2019 11:00 28.9 22.1 66.86 0 0 20.5 174 1016.4 77.6 16
DallasTexas 9/30/2019 12:00 30.8 21.8 58.72 0 0 22.5 173 1016 80.8 16
DallasTexas 9/30/2019 13:00 31.7 21.6 55.3 0 0 21.7 173 1015.7 81.3 16
DallasTexas 9/30/2019 14:00 31.8 21.7 55.25 0 0 21 164 1014.8 82.1 16
DallasTexas 9/30/2019 15:00 33 21.6 51.19 0 0 18.9 160 1013.9 60.8 16
DallasTexas 9/30/2019 16:00 33.5 21.6 49.59 0 0 15.8 157 1013.2 63.3 16
DallasTexas 9/30/2019 17:00 33.5 21.4 49.23 0 0 15.9 151 1012.6 56 16
DallasTexas 9/30/2019 18:00 33.3 21.5 50.13 0 0 16.7 125 1012.2 58.7 16
DallasTexas 9/30/2019 19:00 32.5 21.5 52.51 0 0 16.8 123 1012.2 26.8 16
DallasTexas 9/30/2019 20:00 31.2 21.3 55.79 0 0 13.4 115 1012.1 24.3 16
DallasTexas 9/30/2019 21:00 30.8 20.9 55.64 0 0 18.4 128 1012.4 25.5 16
DallasTexas 9/30/2019 22:00 29.9 21.2 59.36 0 0 18.4 132 1013.2 26 16
DallasTexas 9/30/2019 23:00 28.8 21.1 62.91 0 0 20.4 135 1013.4 24 16
DallasTexas 10/1/2019 0:00 28.1 20.7 63.98 0 0 18.1 142 1013.4 16.2 16
DallasTexas 10/1/2019 1:00 27.7 20.9 66.31 0 0 18 155 1013.6 16.4 16
DallasTexas 10/1/2019 2:00 27.2 21.2 69.51 0 0 15.9 164 1013.9 17 16
DallasTexas 10/1/2019 3:00 26.6 21.2 72.35 0 0 18.4 166 1014.2 11.8 16
DallasTexas 10/1/2019 4:00 26 21.6 76.82 0 0 18.7 166 1014.2 11.8 16
DallasTexas 10/1/2019 5:00 25.4 21.7 79.78 0 0 17.2 168 1014.3 13.1 16
DallasTexas 10/1/2019 6:00 25.1 22.1 83.81 0 0 18.1 169 1014.7 75.2 16
DallasTexas 10/1/2019 7:00 24.8 22.2 85.25 0 0 15.8 157 1015 83.5 15.8
DallasTexas 10/1/2019 8:00 24.9 22.2 85.33 0 0 15.4 166 1015.2 89.5 15.6
DallasTexas 10/1/2019 9:00 25.6 21.8 79.62 0 0 17.7 171 1015.5 95.7 16
DallasTexas 10/1/2019 10:00 27 21.5 71.9 0 0 20 177 1015.7 75.9 16
DallasTexas 10/1/2019 11:00 29.1 20.6 60.27 0 0 23.5 163 1015.8 64.7 16
DallasTexas 10/1/2019 12:00 30.9 19.5 50.8 0 0 24.3 175 1015.5 26.6 16
DallasTexas 10/1/2019 13:00 32.1 19 45.91 0 0 23.2 169 1014.6 34.9 16
DallasTexas 10/1/2019 14:00 33.4 18.9 42.34 0 0 23.2 168 1013.4 59.1 16
DallasTexas 10/1/2019 15:00 33.3 18.9 42.54 0 0 23.7 168 1012.2 50.6 16
DallasTexas 10/1/2019 16:00 34.2 18 38.38 0 0 27.2 163 1011.5 44.7 16
DallasTexas 10/1/2019 17:00 34.1 17.1 36.47 0 0 23.7 159 1011 48.6 16
DallasTexas 10/1/2019 18:00 33.5 16.7 36.74 0 0 23 156 1011.1 38.4 16
DallasTexas 10/1/2019 19:00 32.7 17.3 39.91 0 0 16.9 155 1011.2 31.8 16
DallasTexas 10/1/2019 20:00 31.4 18.3 45.59 0 0 15.4 141 1011.5 25.4 16
DallasTexas 10/1/2019 21:00 30.6 18.7 49.15 0 0 14.2 136 1012 49.4 16
DallasTexas 10/1/2019 22:00 29.6 18.8 52.32 0 0 17.5 147 1012.4 27.2 16
DallasTexas 10/1/2019 23:00 28.9 18.9 54.78 0 0 18.6 151 1012.8 16.1 16
DallasTexas 10/2/2019 0:00 28.2 19.1 57.61 0 0 17.1 154 1012.9 13.5 16
DallasTexas 10/2/2019 1:00 27.3 19.5 62.62 0 0 18 160 1013.2 0 16
DallasTexas 10/2/2019 2:00 26.9 20.1 66.35 0 0 16.8 174 1013.4 11.8 16
DallasTexas 10/2/2019 3:00 26.1 20.6 71.96 0 0 16.1 170 1013.8 0 16
DallasTexas 10/2/2019 4:00 25.7 21 75.47 0 0 15 172 1013.6 0 16
DallasTexas 10/2/2019 5:00 25 21 78.65 0 0 14.3 173 1013.7 0 16
DallasTexas 10/2/2019 6:00 24.5 21.1 81.34 0 0 12.1 173 1014.3 13.5 16
DallasTexas 10/2/2019 7:00 23.8 21.1 85.06 0 0 12.7 246 1014.7 13.5 15.9
DallasTexas 10/2/2019 8:00 23.8 21.4 86.51 0 0 13 249 1015 27.7 15.6
DallasTexas 10/2/2019 9:00 25.3 21.8 81.01 0 0 15.1 167 1015.4 26.7 16
DallasTexas 10/2/2019 10:00 27.4 21.3 69.51 0 0 16.5 185 1015.5 26.6 16
DallasTexas 10/2/2019 11:00 29.2 20.8 60.59 0 0 19.1 189 1015.5 24.7 16
DallasTexas 10/2/2019 12:00 31.1 20 51.8 0 0 14.5 185 1015.3 16.9 16
DallasTexas 10/2/2019 13:00 32.7 18.5 42.94 0 0 15.3 203 1014.4 15 16
DallasTexas 10/2/2019 14:00 33.8 17.6 38.32 0 0 20.2 180 1013.7 15.9 16
DallasTexas 10/2/2019 15:00 34.2 17.2 36.52 0 0 20.2 170 1012.7 25 16
DallasTexas 10/2/2019 16:00 35 17.3 35.13 0 0 21.9 173 1012.1 31.4 16
DallasTexas 10/2/2019 17:00 35 16.5 33.33 0 0 19.9 174 1011.6 19.8 16
DallasTexas 10/2/2019 18:00 34.6 15.9 32.97 0 0 16.8 168 1011.3 15.1 16
DallasTexas 10/2/2019 19:00 33.2 16.3 36.41 0 0 16.1 162 1011.6 27.3 16
DallasTexas 10/2/2019 20:00 32 17.1 41.03 0 0 11.9 150 1012.1 42.7 16
DallasTexas 10/2/2019 21:00 30.9 17.8 45.56 0 0 12.8 146 1012.9 40 16
DallasTexas 10/2/2019 22:00 30 18.4 49.75 0 0 11.2 147 1013.6 16.6 16
DallasTexas 10/2/2019 23:00 29.2 18.7 53.33 0 0 14.4 157 1013.9 13.9 16
DallasTexas 10/3/2019 0:00 28.3 18.9 56.71 0 0 15.5 158 1014 0 16
DallasTexas 10/3/2019 1:00 27.6 19.2 60.44 0 0 15.2 161 1013.9 0 16
DallasTexas 10/3/2019 2:00 27.1 19.4 63 0 0 15.8 163 1014 0 16
DallasTexas 10/3/2019 3:00 26.4 19.8 67.04 0 0 13.4 173 1014.4 0 16
DallasTexas 10/3/2019 4:00 25.8 19.8 69.28 0 0 9.9 179 1014.7 0 16
DallasTexas 10/3/2019 5:00 25.3 19.7 71.01 0 0 7.6 212 1015.2 0 16
DallasTexas 10/3/2019 6:00 24.6 19.3 72.67 0 0 9.4 17 1015.5 0 16
DallasTexas 10/3/2019 7:00 24.3 19.4 74.36 0 0 3.3 298 1016.2 0 15.7
DallasTexas 10/3/2019 8:00 24.3 20.1 77.34 0 0 4.7 77 1016.7 0 15.7
DallasTexas 10/3/2019 9:00 26 20.6 72.1 0 0 7.2 227 1017.3 0 16
DallasTexas 10/3/2019 10:00 28.2 20.2 61.81 0 0 10.2 233 1017.8 0 16
DallasTexas 10/3/2019 11:00 30.2 19 50.99 0 0 9.3 249 1017.9 0 16
DallasTexas 10/3/2019 12:00 31.7 19.4 48.17 0 0 10 115 1017.8 13.9 16
DallasTexas 10/3/2019 13:00 33.1 18.7 42.65 0 0 10.9 262 1017.3 34.4 16
DallasTexas 10/3/2019 14:00 33.6 18 39.75 0 0 15.8 76 1016.5 45.5 16
DallasTexas 10/3/2019 15:00 34.2 17.8 37.79 0 0 10.8 52 1015.6 43.3 16
DallasTexas 10/3/2019 16:00 34.5 18 37.79 0 0 10.3 81 1015.1 46.4 16
DallasTexas 10/3/2019 17:00 33.9 17.4 37.57 0 0 9 122 1014.6 34.3 16
DallasTexas 10/3/2019 18:00 33.8 17.4 37.64 0 0 5 62 1014.6 34.5 16
DallasTexas 10/3/2019 19:00 32.4 18.1 42.82 0 0 10.9 95 1015.3 36.4 16
DallasTexas 10/3/2019 20:00 31.1 18.8 48.01 0 0 8.2 80 1015.5 20.8 16
DallasTexas 10/3/2019 21:00 30.1 19.5 53 0 0 12.9 83 1016.7 26.5 16
DallasTexas 10/3/2019 22:00 28.8 20.4 60.61 0 0 16.8 86 1017.7 36.9 15.9
DallasTexas 10/3/2019 23:00 28 20.3 63.3 0 0 10.2 83 1017.7 36.8 15.8
DallasTexas 10/4/2019 0:00 27.2 20.2 65.47 0 0 10 89 1017.9 22.8 16
DallasTexas 10/4/2019 1:00 26.8 20.5 68.2 0 0 8.9 81 1017.8 30.6 16
DallasTexas 10/4/2019 2:00 26 20.5 71.84 0 0 6.5 91 1017.7 28.5 16
DallasTexas 10/4/2019 3:00 25.6 20.5 73.4 0 0 0.7 23 1017.9 29.3 16
DallasTexas 10/4/2019 4:00 25.1 20.5 75.68 0 0 2.9 44 1017.7 60.1 16
DallasTexas 10/4/2019 5:00 24.9 20.4 75.78 0 0 5.1 50 1018.1 48.3 16
DallasTexas 10/4/2019 6:00 24.8 20.5 76.94 0 0 4.6 63 1018.4 49.6 16
DallasTexas 10/4/2019 7:00 23.8 20.2 80.65 0 0 6.5 75 1018.7 28.9 15.9
DallasTexas 10/4/2019 8:00 24.2 20.3 78.65 0 0 7.8 56 1019 46.8 16
DallasTexas 10/4/2019 9:00 25.2 20.6 75.63 0 0 11.1 47 1019.7 49.2 16
DallasTexas 10/4/2019 10:00 25.4 19.9 71.58 0 0 11.7 53 1019.9 38.5 16
DallasTexas 10/4/2019 11:00 27.2 20 64.75 0 0 8.5 70 1019.7 39.5 16
DallasTexas 10/4/2019 12:00 28.9 19.7 57.57 0 0 6.4 51 1019.1 45.4 16
DallasTexas 10/4/2019 13:00 29.9 19.2 52.73 0 0 4.8 36 1018.4 46.4 16
DallasTexas 10/4/2019 14:00 30.6 18.9 49.8 0 0 4.7 24 1017.5 27.7 16
DallasTexas 10/4/2019 15:00 31.4 19 47.61 0 0 7.8 77 1016.5 31.1 16
DallasTexas 10/4/2019 16:00 31.9 18.8 45.8 0 0 9.6 60 1016 47 15.9
DallasTexas 10/4/2019 17:00 32.4 18.8 44.33 0 0 9.6 51 1015.6 33.6 16
DallasTexas 10/4/2019 18:00 31.6 19 47.02 0 0 12.2 63 1015.2 21.2 15.7
DallasTexas 10/4/2019 19:00 29.6 19.4 54.24 0 0 17.3 79 1015.6 36.6 16
DallasTexas 10/4/2019 20:00 27.4 19.5 62 0 0 6.4 75 1015.8 25.8 16
DallasTexas 10/4/2019 21:00 27.8 20.4 64.16 0 0 8.6 78 1016.3 18.3 16
DallasTexas 10/4/2019 22:00 27.2 21 69.07 0 0 11.9 86 1016.8 13.5 16
DallasTexas 10/4/2019 23:00 26.4 21 72.48 0 0 12.4 92 1016.7 13.5 16
DallasTexas 10/5/2019 0:00 25.8 20.8 74.12 0 0 11.7 99 1016.3 1.7 16
DallasTexas 10/5/2019 1:00 24.9 20.7 77.19 0 0 12.1 109 1016.3 11.8 16
DallasTexas 10/5/2019 2:00 24.3 20.3 78.43 0 0 11.3 120 1016 11.8 16
DallasTexas 10/5/2019 3:00 23.7 20.6 82.44 0 0 10.8 121 1015.8 11.8 16
DallasTexas 10/5/2019 4:00 23.2 20.2 83.09 0 0 11.4 108 1015.5 0 15.9
DallasTexas 10/5/2019 5:00 22.7 20 84.53 0 0 10.9 105 1015.4 0 16
DallasTexas 10/5/2019 6:00 22.2 19.6 85.16 0 0 10 105 1015.7 11.8 16
DallasTexas 10/5/2019 7:00 21.9 19.1 83.98 0 0 10.2 114 1016 14.3 15.9
DallasTexas 10/5/2019 8:00 21.6 19.1 85.81 0 0 8.5 115 1016 15.4 15.4
DallasTexas 10/5/2019 9:00 23.3 19.1 77.13 0 0 12.9 137 1016.3 13.5 16
DallasTexas 10/5/2019 10:00 25.1 19.4 71.07 0 0 10.8 171 1016.3 13.5 16
DallasTexas 10/5/2019 11:00 27.3 20.1 64.69 0 0 8.4 161 1016.2 0 16
DallasTexas 10/5/2019 12:00 29.9 19.8 54.8 0 0 6.7 270 1015.8 12.5 16
DallasTexas 10/5/2019 13:00 31.5 18.9 47.33 0 0 11.4 221 1014.8 15.1 16
DallasTexas 10/5/2019 14:00 33.1 17.9 40.57 0 0 8.2 240 1013.6 21.3 16
DallasTexas 10/5/2019 15:00 33.8 16.7 36.11 0 0 10 230 1012.5 28.8 16
DallasTexas 10/5/2019 16:00 33.9 15.6 33.4 0 0 11.4 333 1011.8 33.3 16
DallasTexas 10/5/2019 17:00 33.8 15.1 32.66 0 0 4.2 325 1011.5 37.3 16
DallasTexas 10/5/2019 18:00 33.6 15.2 33.1 0 0 10.6 178 1010.9 31.4 16
DallasTexas 10/5/2019 19:00 32.1 15.9 37.65 0 0 10.9 142 1010.9 13.5 16
DallasTexas 10/5/2019 20:00 30.4 16.5 43.21 0 0 9.3 120 1011.3 0 16
DallasTexas 10/5/2019 21:00 29.3 17.6 49.43 0 0 11.1 122 1012 0 16
DallasTexas 10/5/2019 22:00 28.9 17.4 49.7 0 0 12.3 135 1012.2 0 16
DallasTexas 10/5/2019 23:00 28 18.1 54.93 0 0 14.3 135 1012.5 13.5 16
DallasTexas 10/6/2019 0:00 27.3 18.6 59.17 0 0 13.1 148 1012.8 15 16
DallasTexas 10/6/2019 1:00 26.7 18.8 61.93 0 0 16.9 162 1012.2 14.3 16
DallasTexas 10/6/2019 2:00 26.3 19 64.18 0 0 16.5 154 1012.2 14.2 16
DallasTexas 10/6/2019 3:00 25.7 19.1 67.22 0 0 15.6 161 1012.2 1.8 16
DallasTexas 10/6/2019 4:00 25.4 19.2 68.79 0 0 12.7 157 1012.2 1.8 16
DallasTexas 10/6/2019 5:00 24.8 19.3 71.63 0 0 9.5 150 1012.7 13.5 16
DallasTexas 10/6/2019 6:00 23.9 19.3 75.3 0 0 7.7 133 1013.2 13.5 16
DallasTexas 10/6/2019 7:00 23.5 19.2 76.63 0 0 7.8 22 1013.6 13.5 16
DallasTexas 10/6/2019 8:00 23.8 19.2 75.32 0 0 9.8 101 1014 13.5 15.9
DallasTexas 10/6/2019 9:00 25.7 19 66.2 0 0 12 173 1014.3 13.7 15.8
DallasTexas 10/6/2019 10:00 28.4 18.6 55.23 0 0 11.7 191 1014.7 22.8 16
DallasTexas 10/6/2019 11:00 31.6 17.7 43.52 0 0 18.9 190 1014.8 43 16
DallasTexas 10/6/2019 12:00 32.9 17.3 39.51 0 0 17.7 193 1014.5 54.3 16
DallasTexas 10/6/2019 13:00 33.9 16.8 36.23 0 0 17.9 180 1013.7 20.3 16
DallasTexas 10/6/2019 14:00 34.9 16 32.36 0 0 16.1 186 1013 29.6 16
DallasTexas 10/6/2019 15:00 35.6 15.7 30.79 0 0 14.3 191 1012 25.2 16
DallasTexas 10/6/2019 16:00 35.4 15.3 30.21 0 0 10.9 181 1011.2 21.5 16
DallasTexas 10/6/2019 17:00 34.4 15.3 31.91 0 0 12.7 171 1010.7 32.4 16
DallasTexas 10/6/2019 18:00 33.6 15.5 33.86 0 0 12.7 27 1010.9 33.7 15.9
DallasTexas 10/6/2019 19:00 32.5 16.7 38.72 0.01 0 10.8 122 1011.9 64.7 16
DallasTexas 10/6/2019 20:00 29.7 18.5 50.81 0.01 0 17 340 1013.3 83.6 16
DallasTexas 10/6/2019 21:00 26.8 19.5 64.32 0 0 32.1 6 1015.1 74.7 16
DallasTexas 10/6/2019 22:00 23 17.6 71.68 0 0 25.8 12 1017 91.6 16
DallasTexas 10/6/2019 23:00 20.6 16.2 75.89 0 0 24.4 1 1018.1 94.8 16
DallasTexas 10/7/2019 0:00 19.3 15.1 76.82 0 0 26.7 351 1018.3 99 16
DallasTexas 10/7/2019 1:00 18.9 14.4 74.92 0 0 25.8 349 1018.5 97.7 16
DallasTexas 10/7/2019 2:00 18.4 12.6 69.01 0 0 21.2 359 1018.9 93.4 16
DallasTexas 10/7/2019 3:00 18 11.8 67.06 0 0 18.9 351 1019 92.3 15.5
DallasTexas 10/7/2019 4:00 17.1 12 71.84 0 0 17.9 353 1019.1 60.8 15.6
DallasTexas 10/7/2019 5:00 17.1 10.6 65.69 0 0 22.9 345 1019.6 80.3 15.6
DallasTexas 10/7/2019 6:00 16.7 10 64.71 0 0 20.2 358 1020.2 84.4 16
DallasTexas 10/7/2019 7:00 16.2 10.1 67.37 0 0 21.9 360 1020.8 43.5 16
DallasTexas 10/7/2019 8:00 16 10.1 68.25 0 0 23.4 8 1021.3 32.7 16
DallasTexas 10/7/2019 9:00 16.9 10.5 66.01 0 0 24.9 11 1022.1 26.5 16
DallasTexas 10/7/2019 10:00 18.6 11.1 62 0 0 27 19 1022.6 24.3 16
DallasTexas 10/7/2019 11:00 20.3 11.2 56.06 0 0 24.4 38 1022.9 23.6 16
DallasTexas 10/7/2019 12:00 21.8 11.3 51.21 0 0 19.9 34 1022.9 19.5 16
DallasTexas 10/7/2019 13:00 23.5 11.4 46.53 0 0 22.1 29 1022.1 14.5 16
DallasTexas 10/7/2019 14:00 24.8 11.2 42.51 0 0 21.3 18 1020.8 1.8 16
DallasTexas 10/7/2019 15:00 25.9 10.4 37.83 0 0 18.9 25 1020.1 0 16
DallasTexas 10/7/2019 16:00 26.4 9.2 33.93 0 0 15.5 25 1019.7 0 16
DallasTexas 10/7/2019 17:00 26.4 8.7 32.71 0 0 17.3 37 1019.3 0 15.6
DallasTexas 10/7/2019 18:00 25.8 8 32.3 0 0 17.2 11 1019.1 0 16
DallasTexas 10/7/2019 19:00 24 7.9 35.64 0 0 12.1 27 1019.4 0 15.6
DallasTexas 10/7/2019 20:00 22.4 8.1 39.95 0 0 10.7 33 1019.8 0 15.6
DallasTexas 10/7/2019 21:00 21.3 8.2 42.99 0 0 9 38 1020.1 0 15.8
DallasTexas 10/7/2019 22:00 20.4 8.3 45.78 0 0 7.4 43 1020.2 0 16
DallasTexas 10/7/2019 23:00 19.4 8.8 50.46 0 0 7.2 45 1020.5 0 16
DallasTexas 10/8/2019 0:00 18.5 9.4 55.18 0 0 7 58 1020.6 0 16
DallasTexas 10/8/2019 1:00 17.3 9.7 60.95 0 0 6.7 47 1020.1 0 15.8
DallasTexas 10/8/2019 2:00 16.6 9.7 63.97 0 0 5.7 56 1019.8 0 16
DallasTexas 10/8/2019 3:00 16.4 10.2 66.88 0 0 5.4 65 1019.7 0 16
DallasTexas 10/8/2019 4:00 15.1 10.3 73.31 0 0 3.8 66 1019.6 0 16
DallasTexas 10/8/2019 5:00 14.7 10.6 76.46 0 0 1.7 43 1020 0 16
DallasTexas 10/8/2019 6:00 13.7 10.6 81.22 0 0 1.9 43 1020 0 16
DallasTexas 10/8/2019 7:00 13.5 10.8 83.73 0 0 1.5 37 1020.2 0 15.8
DallasTexas 10/8/2019 8:00 14 11.2 83.17 0 0 4.4 84 1020.1 0 15.9
DallasTexas 10/8/2019 9:00 17 11.1 68.45 0 0 7.7 91 1020.6 1.8 16
DallasTexas 10/8/2019 10:00 19.6 9.6 52.4 0 0 10 116 1020.7 0 15.9
DallasTexas 10/8/2019 11:00 21.3 7.8 41.84 0 0 12 108 1020.6 0 16
DallasTexas 10/8/2019 12:00 22.4 8 39.42 0 0 11.4 100 1020 0 16
DallasTexas 10/8/2019 13:00 23.5 7.3 35.32 0 0 7.2 71 1019 0 16
DallasTexas 10/8/2019 14:00 24.8 6.9 31.84 0 0 12.3 81 1017.7 0 16
DallasTexas 10/8/2019 15:00 25.7 6.7 29.73 0 0 10.1 100 1016.5 0 16
DallasTexas 10/8/2019 16:00 26.3 6.6 28.6 0 0 8.1 108 1015.9 0 16
DallasTexas 10/8/2019 17:00 26.7 6.5 27.68 0 0 6.2 52 1015.2 0 16
DallasTexas 10/8/2019 18:00 26.2 6.3 28.15 0 0 13.1 101 1014.5 0 16
DallasTexas 10/8/2019 19:00 24.4 6.7 32.18 0 0 11.4 99 1014.4 11.8 16
DallasTexas 10/8/2019 20:00 22.3 7.6 38.8 0 0 11.4 107 1014.5 13.5 16
DallasTexas 10/8/2019 21:00 20.8 8.6 45.75 0 0 9.2 114 1014.8 12.1 16
DallasTexas 10/8/2019 22:00 19.8 8.9 49.56 0 0 8.4 118 1014.9 11.8 16
DallasTexas 10/8/2019 23:00 19.3 8.8 50.47 0 0 10.9 109 1015.3 11.8 16
DallasTexas 10/9/2019 0:00 18.4 9.5 56.2 0 0 9.9 115 1015.1 23.3 16
DallasTexas 10/9/2019 1:00 18 10.7 62.24 0 0 12.1 122 1014.6 43.9 16
DallasTexas 10/9/2019 2:00 17.7 11.5 66.82 0 0 10.7 123 1014.1 27.8 16
DallasTexas 10/9/2019 3:00 17.2 11.8 70.6 0 0 11.9 126 1013.9 19.6 16
DallasTexas 10/9/2019 4:00 16.9 12.2 73.98 0 0 13.3 128 1013.5 27.6 16
DallasTexas 10/9/2019 5:00 17.2 12.1 72.14 0 0 11.9 141 1013.5 44.7 16
DallasTexas 10/9/2019 6:00 17.1 12.3 73.49 0 0 11.9 128 1013.6 36.8 16
DallasTexas 10/9/2019 7:00 17.1 13 76.88 0 0 7.8 143 1014.1 75.3 16
DallasTexas 10/9/2019 8:00 17.2 13.5 78.63 0 0 10.8 131 1014 41.4 16
DallasTexas 10/9/2019 9:00 18.7 15.1 79.87 0 0 16.2 160 1013.9 64.9 15.8
DallasTexas 10/9/2019 10:00 20.9 16.6 76.48 0 0 20.9 163 1014.1 71.4 15.9
DallasTexas 10/9/2019 11:00 23 17.4 70.76 0 0 20.8 164 1014 78.5 15.1
DallasTexas 10/9/2019 12:00 24.9 18.3 66.74 0 0 21.2 171 1013.5 83.3 16
DallasTexas 10/9/2019 13:00 27.6 18.4 57.28 0 0 22.2 170 1012.2 37.4 16
DallasTexas 10/9/2019 14:00 29.4 18.3 51.33 0 0 22.4 180 1010.5 41.6 16
DallasTexas 10/9/2019 15:00 30.3 18.1 48.19 0 0 26.8 160 1009.1 63.7 16
DallasTexas 10/9/2019 16:00 31 17.7 44.99 0 0 26.6 165 1008.4 64.3 16
DallasTexas 10/9/2019 17:00 31 17.3 43.72 0 0 26.7 163 1007.7 45.3 16
DallasTexas 10/9/2019 18:00 30.9 17.1 43.59 0 0 29.1 161 1007.2 29.9 16
DallasTexas 10/9/2019 19:00 29.6 17.1 46.91 0 0 21.6 144 1007.5 15 16
DallasTexas 10/9/2019 20:00 28.5 17.1 50.27 0 0 20.3 141 1007.8 11.8 16
DallasTexas 10/9/2019 21:00 27.7 17.2 52.85 0 0 19.6 142 1008.1 0 16
DallasTexas 10/9/2019 22:00 27 17.2 55.1 0 0 20.1 142 1008.6 0 16
DallasTexas 10/9/2019 23:00 26.3 17.5 58.72 0 0 19.9 145 1009 1.8 16
DallasTexas 10/10/2019 0:00 25.7 18.4 64.22 0 0 23.1 146 1008.9 1.8 16
DallasTexas 10/10/2019 1:00 25.3 19.3 69.3 0 0 23.4 164 1008.7 14.8 16
DallasTexas 10/10/2019 2:00 25 20 73.64 0 0 23.7 161 1008.8 33.6 16
DallasTexas 10/10/2019 3:00 25.1 20.6 75.94 0 0 23 169 1008.8 61.1 16
DallasTexas 10/10/2019 4:00 25.3 20.7 75.41 0 0 24.9 168 1008.6 88.3 16
DallasTexas 10/10/2019 5:00 25.5 20.7 74.53 0 0 23 168 1008.8 85.8 16
DallasTexas 10/10/2019 6:00 25.5 20.7 74.82 0 0 24.2 169 1009.1 88.9 16
DallasTexas 10/10/2019 7:00 25.5 20.9 76.01 0 0 21.8 164 1009.5 70.2 15.9
DallasTexas 10/10/2019 8:00 25.5 21.1 76.68 0.02 0 22.6 160 1009.9 78.3 15.9
DallasTexas 10/10/2019 9:00 25.5 21.1 76.3 0.1 0 18.6 155 1010.5 86.1 16
DallasTexas 10/10/2019 10:00 26 21.3 75.14 0.03 0 21.9 166 1010.8 81.4 13.4
DallasTexas 10/10/2019 11:00 26.5 21.2 72.92 0 0 23.2 167 1010.7 67.4 16
DallasTexas 10/10/2019 12:00 28.1 21 65.25 0 0 24.4 179 1010.2 56.9 16
DallasTexas 10/10/2019 13:00 30.1 20.7 57.34 0 0 26.1 181 1009.3 55.6 16
DallasTexas 10/10/2019 14:00 30.9 20 52.3 0 0 29.4 188 1008.1 76.4 16
DallasTexas 10/10/2019 15:00 31.7 19.7 49.22 0 0 22.1 193 1007.1 76.3 16
DallasTexas 10/10/2019 16:00 32.3 19.1 45.68 0 0 26.2 184 1006.5 57.8 16
DallasTexas 10/10/2019 17:00 32.6 18.7 43.81 0 0 20.8 199 1006.3 76.3 16
DallasTexas 10/10/2019 18:00 32.7 18.4 42.73 0 0 18.5 194 1006.1 78.2 16
DallasTexas 10/10/2019 19:00 31.9 18.4 44.88 0 0 16.1 171 1005.7 50 16
DallasTexas 10/10/2019 20:00 31.2 18.4 46.69 0 0 12.4 162 1005.9 41.8 16
DallasTexas 10/10/2019 21:00 26.6 18.5 60.89 0.17 0 25.6 46 1007.2 60 14.6
DallasTexas 10/10/2019 22:00 20.4 17.9 85.98 7.2 0 36.8 344 1010 71.4 10.1
DallasTexas 10/10/2019 23:00 16.8 14.9 88.58 9.28 0 24.5 358 1012 80.6 7.3
DallasTexas 10/11/2019 0:00 15.9 13.6 86.58 4.33 0 26.3 358 1013 82.7 15.2
DallasTexas 10/11/2019 1:00 14.2 11.1 81.6 4.47 0 28.7 353 1013.5 58.4 15.8
DallasTexas 10/11/2019 2:00 13.1 8.9 75.7 0.01 0 30.7 350 1015.4 99.3 16
DallasTexas 10/11/2019 3:00 11.9 7.3 73.49 0 0 31 355 1016.1 99.6 16
DallasTexas 10/11/2019 4:00 10.3 6.6 77.64 0 0 31.3 354 1017.5 95.4 12.4
DallasTexas 10/11/2019 5:00 8.9 6.6 85.74 0.12 0 30.1 349 1018.8 71.8 14.2
DallasTexas 10/11/2019 6:00 8.8 5.6 80.35 0.69 0 28.1 344 1019.2 93.5 13.8
DallasTexas 10/11/2019 7:00 7.8 4.8 81.41 0.37 0 30.2 341 1021 80.4 14.1
DallasTexas 10/11/2019 8:00 6.9 4.8 86.62 2.56 0 27.8 344 1022.7 77.6 13.2
DallasTexas 10/11/2019 9:00 6.9 4 81.56 1.22 0 28.5 343 1023.4 73.6 12.4
DallasTexas 10/11/2019 10:00 7.4 4.5 81.84 0.94 0 22.3 346 1024.9 73.2 15.9
DallasTexas 10/11/2019 11:00 8.1 3.8 74.28 0.02 0 24.2 344 1026 91.9 16
DallasTexas 10/11/2019 12:00 9.5 2.4 61 0 0 27.9 350 1025.4 80.4 16
DallasTexas 10/11/2019 13:00 11.5 1 48.41 0 0 28.4 349 1025.3 62.1 16
DallasTexas 10/11/2019 14:00 14.7 -0.2 36.03 0 0 29.9 352 1024.2 15.6 16
DallasTexas 10/11/2019 15:00 16.1 -1.7 29.61 0 0 34.6 348 1024 15.2 16
DallasTexas 10/11/2019 16:00 17.1 -2 27.03 0 0 27.5 360 1023.3 15.2 16
DallasTexas 10/11/2019 17:00 16.8 -3.3 25.16 0 0 30 1 1023.5 14.4 16
DallasTexas 10/11/2019 18:00 16.4 -3.5 25.51 0 0 24.2 358 1023.6 14.4 16
DallasTexas 10/11/2019 19:00 14.9 -3.3 28.36 0 0 19.8 356 1023.6 14.4 16
DallasTexas 10/11/2019 20:00 13.7 -3.2 31 0 0 17.5 352 1024.2 17.2 16
DallasTexas 10/11/2019 21:00 12.8 -2.7 34.15 0 0 15.4 351 1024.7 12.1 16
DallasTexas 10/11/2019 22:00 12.2 -3.1 34.47 0 0 16.3 357 1025.4 0.7 16
DallasTexas 10/11/2019 23:00 11.1 -3.1 36.7 0 0 18.6 356 1025.7 14.3 16
DallasTexas 10/12/2019 0:00 10.1 -2.8 40.29 0 0 13.7 355 1025.8 13.5 16
DallasTexas 10/12/2019 1:00 8.9 -1.8 47.22 0 0 8.7 7 1025.6 2.5 16
DallasTexas 10/12/2019 2:00 8.1 -1.2 51.93 0 0 6.3 21 1025.6 0 16
DallasTexas 10/12/2019 3:00 7.5 -1 54.87 0 0 4.7 21 1025.7 0 16
DallasTexas 10/12/2019 4:00 6.3 -0.2 63.3 0 0 2.9 12 1025.6 0 16
DallasTexas 10/12/2019 5:00 5.7 0.5 69.09 0 0 1.6 5 1025.5 0 16
DallasTexas 10/12/2019 6:00 5.2 0.3 70.75 0 0 0.3 360 1025.6 0 16
DallasTexas 10/12/2019 7:00 5 0.5 72.77 0 0 2.4 353 1026 11.8 16
DallasTexas 10/12/2019 8:00 5 0.4 71.98 0 0 5.5 355 1025.9 13.5 16
DallasTexas 10/12/2019 9:00 8.6 0.9 58.49 0 0 4.1 349 1025.6 13.5 16
DallasTexas 10/12/2019 10:00 12.1 -2.9 35.1 0 0 7.2 51 1025.7 13.5 15.8
DallasTexas 10/12/2019 11:00 13.8 -5.5 25.81 0 0 7 60 1025.5 13.5 15.5
DallasTexas 10/12/2019 12:00 14.7 -6.1 23.3 0 0 6.1 44 1024.8 13.5 16
DallasTexas 10/12/2019 13:00 16.5 -6 20.88 0 0 8.7 36 1023.6 13.9 16
DallasTexas 10/12/2019 14:00 17.3 -6 19.91 0 0 6.5 27 1022.1 13.5 16
DallasTexas 10/12/2019 15:00 17.9 -5.5 19.88 0 0 8.4 48 1020.8 13.5 15.8
DallasTexas 10/12/2019 16:00 18.5 -5.8 18.7 0 0 4.7 48 1020 13.5 16
DallasTexas 10/12/2019 17:00 18.6 -5.1 19.58 0 0 8.4 90 1019.1 13.5 15.9
DallasTexas 10/12/2019 18:00 18.4 -4.7 20.55 0 0 3.5 76 1018.6 13.5 16
DallasTexas 10/12/2019 19:00 16.9 -2.2 27.01 0 0 2.9 57 1018 13.5 16
DallasTexas 10/12/2019 20:00 15.4 -0.8 33.08 0 0 6.4 120 1017.9 11.8 16
DallasTexas 10/12/2019 21:00 13.6 1.7 44.58 0 0 4.9 115 1017.8 12.5 16
DallasTexas 10/12/2019 22:00 13 2.2 47.84 0 0 5.1 117 1017.2 13.5 16
DallasTexas 10/12/2019 23:00 12.6 2.5 50.01 0 0 5.9 116 1017.1 25 16
DallasTexas 10/13/2019 0:00 12.4 2.4 50.77 0 0 4.8 4 1016.9 26.1 15.9
DallasTexas 10/13/2019 1:00 12.8 3.3 52.33 0 0 4.4 102 1016.8 72.5 16
DallasTexas 10/13/2019 2:00 12.8 3.7 53.84 0 0 3.8 56 1016.5 62.9 16
DallasTexas 10/13/2019 3:00 13.2 3.8 52.79 0 0 5.2 97 1016.6 71.4 16
DallasTexas 10/13/2019 4:00 13.7 4.7 54.68 0 0 6 105 1016.6 95.1 16
DallasTexas 10/13/2019 5:00 14.2 4.5 52.31 0 0 5.8 123 1016.9 100 15.6
DallasTexas 10/13/2019 6:00 14.5 4.4 50.68 0 0 7.9 159 1016.7 100 15.9
DallasTexas 10/13/2019 7:00 14.6 5.2 53.19 0 0 7.4 161 1016.9 100 16
DallasTexas 10/13/2019 8:00 14.8 5.8 54.84 0 0 8.3 165 1017 99.3 16
DallasTexas 10/13/2019 9:00 15.2 6.6 56.65 0 0 9.7 163 1017.4 94.5 16
DallasTexas 10/13/2019 10:00 16.6 6.8 52.22 0 0 11.4 165 1017.4 90.8 16
DallasTexas 10/13/2019 11:00 19 5.5 41.26 0 0 10.9 176 1017.2 41.4 16
DallasTexas 10/13/2019 12:00 21.1 4.4 33.59 0 0 10.5 191 1016.8 15.5 16
DallasTexas 10/13/2019 13:00 22.6 4.1 29.93 0 0 12 175 1015.9 15.7 16
DallasTexas 10/13/2019 14:00 23.7 4.8 29.31 0 0 9.7 148 1014.9 13.5 16
DallasTexas 10/13/2019 15:00 24.3 5.2 29.04 0 0 11.7 156 1013.9 13.5 16
DallasTexas 10/13/2019 16:00 24.7 5.9 29.84 0 0 17.9 139 1013.4 13.5 16
DallasTexas 10/13/2019 17:00 24.5 6.1 30.61 0 0 17 166 1013.2 13.5 16
DallasTexas 10/13/2019 18:00 23.6 6.8 34.01 0 0 16.8 161 1013.4 14.4 16
DallasTexas 10/13/2019 19:00 22 8.2 41.13 0 0 12.8 150 1013.6 18.1 16
DallasTexas 10/13/2019 20:00 20.4 8.7 46.87 0 0 13.9 139 1014.2 18.3 16
DallasTexas 10/13/2019 21:00 19.2 9 51.34 0 0 7.8 141 1014.7 14.2 16
DallasTexas 10/13/2019 22:00 18 9.5 57.55 0 0 8.8 123 1014.9 43.9 16
DallasTexas 10/13/2019 23:00 17.6 10.1 61.21 0 0 10.2 125 1015 43.9 16
DallasTexas 10/14/2019 0:00 17.4 9.7 60.4 0 0 10.8 126 1015.2 42 16
DallasTexas 10/14/2019 1:00 16.9 10.5 66.15 0 0 10.8 128 1015 43.9 16
DallasTexas 10/14/2019 2:00 16.3 11 70.63 0 0 11 107 1014.7 43.9 16
DallasTexas 10/14/2019 3:00 15.8 11.4 74.84 0 0 10.9 117 1014.9 43.9 16
DallasTexas 10/14/2019 4:00 16 11.7 75.25 0 0 9.5 109 1014.6 44.6 16
DallasTexas 10/14/2019 5:00 15.9 11.9 77.34 0 0 9.2 108 1014.4 46.3 16
DallasTexas 10/14/2019 6:00 16 12 76.81 0 0 10.9 120 1014.7 30.2 16
DallasTexas 10/14/2019 7:00 16.2 12.5 78.53 0 0 9.7 116 1015.1 39.4 16
DallasTexas 10/14/2019 8:00 16.5 12.6 77.74 0 0 6.7 93 1015 40.6 16
DallasTexas 10/14/2019 9:00 17.3 13.1 76.77 0 0 9.6 104 1015.7 38 16
DallasTexas 10/14/2019 10:00 18.5 13.7 73.41 0 0 12.6 140 1015.9 38.9 16
DallasTexas 10/14/2019 11:00 19.9 14.5 71.08 0 0 12.9 136 1015.8 37.2 16
DallasTexas 10/14/2019 12:00 21.1 15.8 71.62 0 0 13.1 127 1015.2 62.6 16
DallasTexas 10/14/2019 13:00 22.5 16.8 70.01 0 0 12.8 154 1014.9 50.6 16
DallasTexas 10/14/2019 14:00 23.4 17.2 68.49 0 0 14.5 154 1014.1 74 16
DallasTexas 10/14/2019 15:00 23.4 17.7 70.75 0 0 13.9 145 1013.3 77.5 15.9
DallasTexas 10/14/2019 16:00 22.9 18.5 75.94 0.01 0 13.4 141 1013.3 47.7 15.8
DallasTexas 10/14/2019 17:00 21.9 18.8 82.6 0.27 0 17.3 128 1012.5 68.5 13.1
DallasTexas 10/14/2019 18:00 21.2 18.7 85.6 0 0 15.2 134 1012.8 84.7 14.4
DallasTexas 10/14/2019 19:00 20.6 18.4 87.13 0.04 0 14.8 133 1012.9 76 14.1
DallasTexas 10/14/2019 20:00 20 18.5 90.66 0.06 0 14.9 119 1013.1 81.7 13.9
DallasTexas 10/14/2019 21:00 20.1 18.8 92.34 0.2 0 14.8 128 1013.3 95.4 12.3
DallasTexas 10/14/2019 22:00 20.1 19.2 94.4 0.18 0 15.5 134 1013.5 97.3 9.8
DallasTexas 10/14/2019 23:00 20.4 19.5 94.46 0.02 0 12.1 138 1013.4 87.5 5.1
DallasTexas 10/15/2019 0:00 20.7 20.1 95.91 0 0 10.3 130 1013.4 87.6 5.1
DallasTexas 10/15/2019 1:00 21 20.2 95.11 0 0 11.7 127 1012.7 87.6 4.6
DallasTexas 10/15/2019 2:00 21.3 20.7 96.05 0 0 11.4 133 1012.5 100 4
DallasTexas 10/15/2019 3:00 21.5 20.9 96.38 0 0 12.1 143 1012 99.2 3.1
DallasTexas 10/15/2019 4:00 22 21.2 95.6 0 0 11.3 165 1011.5 100 5.5
DallasTexas 10/15/2019 5:00 22.3 21.2 93.8 0 0 11.5 164 1011.3 87 9.5
DallasTexas 10/15/2019 6:00 22.5 21.3 92.97 0 0 11.1 23 1011.4 76.8 11.7
DallasTexas 10/15/2019 7:00 22.8 21.6 93.05 0 0 11.4 182 1011.4 81.9 12.6
DallasTexas 10/15/2019 8:00 22.8 21.6 92.78 0 0 11.8 185 1011.4 63.8 14.1
DallasTexas 10/15/2019 9:00 23.7 21.9 89.34 0.01 0 11 186 1011.6 65.2 14.4
DallasTexas 10/15/2019 10:00 24.5 21.9 85.88 0.07 0 12.7 201 1012.1 61.8 15.9
DallasTexas 10/15/2019 11:00 25 21.8 82.74 0.05 0 16.3 212 1012.1 71.6 15
DallasTexas 10/15/2019 12:00 24.8 22.2 85.38 0.32 0 15.4 206 1011.7 47.2 15.7
DallasTexas 10/15/2019 13:00 26.4 21.8 76.06 0.03 0 19.2 213 1011.4 57.7 16
DallasTexas 10/15/2019 14:00 26.2 22.3 79.04 0 0 16.3 202 1010.3 22.8 16
DallasTexas 10/15/2019 15:00 26.7 22 75.47 0 0 17.6 222 1009.4 28.8 16
DallasTexas 10/15/2019 16:00 28.3 21.6 66.87 0 0 16.4 231 1008.8 29.9 16
DallasTexas 10/15/2019 17:00 28.5 21.1 64.02 0 0 15.5 216 1008.4 19.9 16
DallasTexas 10/15/2019 18:00 27.8 21.1 66.75 0 0 11.5 207 1008.1 30.2 16
DallasTexas 10/15/2019 19:00 26.9 21.2 70.7 0 0 8.9 214 1008.5 18.1 16
DallasTexas 10/15/2019 20:00 26.1 21.2 74.47 0 0 7.2 229 1009.3 31.3 16
DallasTexas 10/15/2019 21:00 25.5 21.5 78.59 0.05 0 6.3 258 1010 32.7 16
DallasTexas 10/15/2019 22:00 24.9 20.1 74.51 0.07 0 14.4 34 1011.3 42.8 16
DallasTexas 10/15/2019 23:00 23.5 18.9 75.27 0 0 25.9 15 1013.4 73.1 16
DallasTexas 10/16/2019 0:00 21 15.6 71.42 0 0 30.3 12 1015.3 94.6 16
DallasTexas 10/16/2019 1:00 19.6 8.6 48.75 0 0 29.1 17 1016.5 97.5 16
DallasTexas 10/16/2019 2:00 19 6.7 44.79 0 0 25.1 13 1016.9 83.8 16
DallasTexas 10/16/2019 3:00 18.3 6 44.73 0 0 30.2 15 1017.2 54 16
DallasTexas 10/16/2019 4:00 17 5.2 45.59 0 0 25.9 9 1017.4 48.5 16
DallasTexas 10/16/2019 5:00 16.3 3.8 43.34 0 0 21.3 9 1017.9 22.3 16
DallasTexas 10/16/2019 6:00 15.2 2.6 42.72 0 0 20.3 10 1019.1 42 16
DallasTexas 10/16/2019 7:00 14 2.5 45.63 0 0 16.5 8 1019.8 43.1 16
DallasTexas 10/16/2019 8:00 13.5 2.1 45.94 0 0 16.6 1 1020.4 42.8 16
DallasTexas 10/16/2019 9:00 13.6 2.3 46.41 0 0 21.1 11 1021.2 28.6 16
DallasTexas 10/16/2019 10:00 14.3 1.9 43.06 0 0 20.1 12 1022.4 27.8 16
DallasTexas 10/16/2019 11:00 15.1 2.3 41.87 0 0 14.9 22 1022.9 29.4 16
DallasTexas 10/16/2019 12:00 16.5 2.5 38.83 0 0 19.7 11 1022.5 29.4 16
DallasTexas 10/16/2019 13:00 18.4 2.4 34.24 0 0 17.9 10 1022 31.4 16
DallasTexas 10/16/2019 14:00 19.3 2.4 32.46 0 0 17.7 360 1021.2 32.1 16
DallasTexas 10/16/2019 15:00 20.2 2.6 31.15 0 0 15.5 360 1020.9 28.6 16
DallasTexas 10/16/2019 16:00 20.5 2.4 30.11 0 0 14.8 6 1020.1 34.2 16
DallasTexas 10/16/2019 17:00 19.6 3 33.3 0 0 16.8 343 1019.8 35.1 16
DallasTexas 10/16/2019 18:00 18.6 3.3 36.2 0 0 13.6 341 1019.4 34.2 16
DallasTexas 10/16/2019 19:00 17.3 3.8 40.65 0 0 11.5 349 1019.3 33.5 15.9
DallasTexas 10/16/2019 20:00 16.3 3.9 43.63 0 0 9.2 360 1019.2 32.9 16
DallasTexas 10/16/2019 21:00 14.9 5 51.31 0 0 6.1 16 1019 32.9 16
DallasTexas 10/16/2019 22:00 13.9 5.4 56.59 0 0 0.2 3 1018.9 35.4 15.6
DallasTexas 10/16/2019 23:00 13.5 5.8 59.73 0 0 0.1 360 1019 31.5 15.8
DallasTexas 10/17/2019 0:00 11.9 6.4 69.12 0 0 2.5 57 1019.5 43.9 16
DallasTexas 10/17/2019 1:00 11 6.2 72.3 0 0 2.4 43 1019 43.9 16
DallasTexas 10/17/2019 2:00 10.8 6.3 73.85 0 0 3.6 77 1018.9 43.9 16
DallasTexas 10/17/2019 3:00 10.2 6.2 76.26 0 0 2.5 56 1018.7 42 15.8
DallasTexas 10/17/2019 4:00 10.2 6.3 76.64 0 0 0.5 341 1018.7 42 13.1
DallasTexas 10/17/2019 5:00 9.6 6.3 79.51 0 0 0.5 355 1018.2 42 16
DallasTexas 10/17/2019 6:00 9.3 6.1 80.11 0 0 0 0 1018 42.8 16
DallasTexas 10/17/2019 7:00 10 6.3 78.15 0 0 0 0 1018.1 42.8 16
DallasTexas 10/17/2019 8:00 9.4 6.3 80.69 0 0 0.1 3 1018.2 42 16
DallasTexas 10/17/2019 9:00 11.3 7.5 77.54 0 0 0.1 2 1018.5 42 15
DallasTexas 10/17/2019 10:00 14 7.6 65.34 0 0 8.7 106 1018.4 42 15.8
DallasTexas 10/17/2019 11:00 15.9 6.7 54.49 0 0 11.9 140 1018.2 42 16
DallasTexas 10/17/2019 12:00 17.4 6.3 48.07 0 0 11.2 164 1018 43.9 16
DallasTexas 10/17/2019 13:00 18.7 6.2 44.1 0 0 8.5 155 1017.3 29.7 16
DallasTexas 10/17/2019 14:00 20.3 5.7 38.42 0 0 8.4 131 1015.7 29.7 16
DallasTexas 10/17/2019 15:00 20.9 5.7 37.2 0 0 8.7 114 1014.7 29.7 16
DallasTexas 10/17/2019 16:00 21.2 5.8 36.57 0 0 8.4 118 1014.1 29.7 16
DallasTexas 10/17/2019 17:00 20.7 6.4 39.45 0 0 12.6 140 1014 29.5 16
DallasTexas 10/17/2019 18:00 20.4 6.6 40.6 0 0 14.6 137 1013.7 29.7 16
DallasTexas 10/17/2019 19:00 18.7 7.9 49.44 0 0 11.4 149 1013.8 21.5 16
DallasTexas 10/17/2019 20:00 16.4 8.2 58.4 0 0 7.4 140 1013.9 19.1 16
DallasTexas 10/17/2019 21:00 15 8.5 65.02 0 0 5.8 119 1014 13.5 16
DallasTexas 10/17/2019 22:00 13.9 8.6 70.28 0 0 4.8 76 1013.8 11.8 16
DallasTexas 10/17/2019 23:00 13.5 8.6 72.46 0 0 6.4 116 1013.4 11.8 16
DallasTexas 10/18/2019 0:00 12.9 8.1 72.99 0 0 7.7 122 1012.8 13.5 16
DallasTexas 10/18/2019 1:00 13.1 8.2 71.79 0 0 8.7 112 1012.5 13.5 16
DallasTexas 10/18/2019 2:00 12.2 8.3 77.02 0 0 8.9 122 1012.4 13.5 16
DallasTexas 10/18/2019 3:00 11.5 8.1 79.68 0 0 7.2 111 1012.4 13.5 16
DallasTexas 10/18/2019 4:00 11.4 8 79.83 0 0 7.7 142 1012.7 24.7 16
DallasTexas 10/18/2019 5:00 10.7 8.1 84 0 0 4.1 94 1012.5 13.5 15.9
DallasTexas 10/18/2019 6:00 10.4 8 84.86 0 0 5.6 103 1012.3 11.8 16
DallasTexas 10/18/2019 7:00 9.9 7.8 86.67 0 0 8.2 73 1012.2 1.8 15.9
DallasTexas 10/18/2019 8:00 10.2 8.1 86.72 0 0 8.5 113 1012.5 1.8 15.6
DallasTexas 10/18/2019 9:00 12.3 9.2 81.53 0 0 9.3 114 1012.5 0 16
DallasTexas 10/18/2019 10:00 14.8 9.5 70.55 0 0 12.5 143 1012.6 11.8 16
DallasTexas 10/18/2019 11:00 17 9.4 60.91 0 0 13 140 1012.4 0 16
DallasTexas 10/18/2019 12:00 19.2 8.3 49.14 0 0 13.2 148 1011.5 0 16
DallasTexas 10/18/2019 13:00 21.2 6.1 37.59 0 0 15.2 145 1010.6 0 16
DallasTexas 10/18/2019 14:00 22.6 5.9 33.88 0 0 16.4 124 1009 0 16
DallasTexas 10/18/2019 15:00 23.9 3.7 26.79 0 0 16.5 151 1007.7 0 16
DallasTexas 10/18/2019 16:00 24.6 4.1 26.55 0 0 17 138 1006.8 0 16
DallasTexas 10/18/2019 17:00 24.8 4.2 26.38 0 0 20.6 135 1006.3 0 16
DallasTexas 10/18/2019 18:00 24.2 3.4 25.82 0 0 17.3 133 1006.3 0 16
DallasTexas 10/18/2019 19:00 22.1 4.9 32.66 0 0 12 116 1006.4 13.5 16
DallasTexas 10/18/2019 20:00 20.4 5.6 38.03 0 0 15.2 125 1006.2 13.9 16
DallasTexas 10/18/2019 21:00 19.6 6.1 41.28 0 0 15.7 127 1006.5 13.9 16
DallasTexas 10/18/2019 22:00 18.8 6.3 43.99 0 0 13.8 137 1006.5 13.5 16
DallasTexas 10/18/2019 23:00 18.1 7.1 48.41 0 0 17.7 135 1006.4 13.5 16
DallasTexas 10/19/2019 0:00 17.4 8.1 54.21 0 0 15 146 1006.4 1.8 16
DallasTexas 10/19/2019 1:00 17 8.8 58.36 0 0 14 149 1006 1.8 16
DallasTexas 10/19/2019 2:00 16.9 9.9 63.4 0 0 13.4 116 1006.2 29.6 16
DallasTexas 10/19/2019 3:00 16.2 10.3 68.09 0.02 0 9.3 140 1006.4 32.5 16
DallasTexas 10/19/2019 4:00 16.3 12.2 76.43 0.55 0 20.6 124 1004.5 60 15.1
DallasTexas 10/19/2019 5:00 16.2 13 81.8 0 0 14 165 1004.9 28.2 16
DallasTexas 10/19/2019 6:00 16.5 13.4 82.09 0 0 14.9 174 1005 13.5 16
DallasTexas 10/19/2019 7:00 16.6 14 84.3 0 0 13.7 170 1005.4 18.1 16
DallasTexas 10/19/2019 8:00 16.9 14.4 85.22 0 0 12.8 170 1005.5 13.9 15.9
DallasTexas 10/19/2019 9:00 18.4 15.2 81.95 0 0 16.1 175 1005.8 0.2 16
DallasTexas 10/19/2019 10:00 21.7 16.2 71.19 0 0 13.1 197 1006.3 12.9 16
DallasTexas 10/19/2019 11:00 23.8 15.2 58.76 0 0 13.6 261 1006.7 0.8 16
DallasTexas 10/19/2019 12:00 25.8 13.9 47.94 0 0 14.5 299 1006.7 0.8 16
DallasTexas 10/19/2019 13:00 27.3 11.9 38.48 0 0 16.4 285 1006.3 0 16
DallasTexas 10/19/2019 14:00 28.4 11.4 34.88 0 0 12.8 287 1005.5 0 16
DallasTexas 10/19/2019 15:00 28.8 11.1 33.36 0 0 14.1 290 1005.3 0 16
DallasTexas 10/19/2019 16:00 29 11.7 34.13 0 0 15.8 302 1005.3 13.1 15.2
DallasTexas 10/19/2019 17:00 28.6 12.6 37.23 0 0 17.9 328 1005.4 12.1 15.5
DallasTexas 10/19/2019 18:00 27.6 12.9 40.32 0 0 15.3 348 1005.8 0 16
DallasTexas 10/19/2019 19:00 25 12.6 45.91 0 0 12.3 350 1006.5 0 16
DallasTexas 10/19/2019 20:00 22.8 12.6 52.59 0 0 7.2 353 1007.1 0 16
DallasTexas 10/19/2019 21:00 21.4 12.7 57.58 0 0 4 344 1007.6 0 16
DallasTexas 10/19/2019 22:00 20.5 12.4 59.72 0 0 5.9 349 1008.1 0 14.5
DallasTexas 10/19/2019 23:00 19.2 12.6 65.52 0 0 3.4 343 1008.5 0 15.5
DallasTexas 10/20/2019 0:00 18.3 12.6 69.4 0 0 6.5 337 1008.6 0 14.8
DallasTexas 10/20/2019 1:00 17.4 12.7 73.85 0 0 8.3 347 1008.5 0 16
DallasTexas 10/20/2019 2:00 16.5 12.2 75.44 0 0 8.1 344 1008.2 0 16
DallasTexas 10/20/2019 3:00 15.4 12.2 81.01 0 0 3.4 339 1008 0 14
DallasTexas 10/20/2019 4:00 14.6 11.8 83.58 0 0 0.9 352 1008.1 0 15.3
DallasTexas 10/20/2019 5:00 14.1 11.5 84.35 0 0 0 1 1008.4 0 13.4
DallasTexas 10/20/2019 6:00 13.5 11.7 88.95 0 0 0.1 359 1009 0 15.9
DallasTexas 10/20/2019 7:00 13.2 11.6 90.2 0 0 3.8 113 1009 0 15.8
DallasTexas 10/20/2019 8:00 12.8 11.3 90.48 0 0 0.4 340 1009.1 0 14.3
DallasTexas 10/20/2019 9:00 16.5 13.5 82.41 0 0 1.4 60 1009.3 0 15.8
DallasTexas 10/20/2019 10:00 20.4 15.2 72.34 0 0 6.9 157 1009.5 0 15.9
DallasTexas 10/20/2019 11:00 23.2 15.6 62 0 0 14.5 144 1008.9 0 16
DallasTexas 10/20/2019 12:00 25.3 15.1 53.05 0 0 14.6 148 1008.3 0 16
DallasTexas 10/20/2019 13:00 27.5 14.8 45.75 0 0 18.1 151 1007 0 16
DallasTexas 10/20/2019 14:00 29.3 15.7 43.89 0 0 18.7 180 1005.5 15.2 16
DallasTexas 10/20/2019 15:00 30.8 17.6 45.06 0 0 27.3 168 1004.1 27.1 16
DallasTexas 10/20/2019 16:00 30.7 19 49.87 0 0 30.7 172 1003.5 57.7 16
DallasTexas 10/20/2019 17:00 29.1 20 57.99 0 0 28.2 175 1003.2 38.3 16
DallasTexas 10/20/2019 18:00 28.7 19.9 59 0 0 21.9 180 1003.1 61.4 16
DallasTexas 10/20/2019 19:00 28.2 20 61.04 0 0 15.1 158 1002.3 23.8 16
DallasTexas 10/20/2019 20:00 27.8 20 62.9 0 0 15.8 146 1002.1 30.2 16
DallasTexas 10/20/2019 21:00 26.9 20.3 67.38 0.21 0 26.4 103 1000.2 27 15.1
DallasTexas 10/20/2019 22:00 21.8 18.3 80.7 4.65 0 24.4 124 1001.8 44.7 15
DallasTexas 10/20/2019 23:00 21.8 18.6 82.12 1.06 0 14.2 148 1001 41.1 15.9
DallasTexas 10/21/2019 0:00 25.5 21.4 77.7 0 0 34.3 183 999.1 53.4 16
DallasTexas 10/21/2019 1:00 21.7 18.1 80.07 0.59 0 28 284 1002.1 73.1 15.1
DallasTexas 10/21/2019 2:00 17.9 15.6 86.59 17.17 0 16.1 257 1004.5 47.5 13.5
DallasTexas 10/21/2019 3:00 18.7 14.7 77.56 0.75 0 19.4 335 1006 56.2 16
DallasTexas 10/21/2019 4:00 17.5 11.8 69.24 0.89 0 11.8 328 1006.6 39 16
DallasTexas 10/21/2019 5:00 16.6 10.4 67.06 0 0 12.5 304 1008 30.2 16
DallasTexas 10/21/2019 6:00 16 6.8 54.34 0 0 17.4 338 1008.7 28.6 16
DallasTexas 10/21/2019 7:00 14.9 5.7 54.23 1.26 0 16.3 325 1009.7 28.1 16
DallasTexas 10/21/2019 8:00 13.5 4.8 55.63 0 0 14.9 328 1010.6 13.5 16
DallasTexas 10/21/2019 9:00 15.5 5.4 50.96 0 0 18.9 321 1011.4 13.5 16
DallasTexas 10/21/2019 10:00 17.4 3.3 38.92 0 0 23.1 335 1012.4 13.5 16
DallasTexas 10/21/2019 11:00 18.8 1.9 32.3 0 0 23.5 343 1013 13.5 15.8
DallasTexas 10/21/2019 12:00 19.8 1.9 30.29 0 0 18.2 329 1013.1 13.5 16
DallasTexas 10/21/2019 13:00 20.7 1.9 28.8 0 0 19.5 325 1013.3 13.9 16
DallasTexas 10/21/2019 14:00 21.3 1.8 27.49 0 0 17.5 343 1012.7 13.9 16
DallasTexas 10/21/2019 15:00 21.9 1.6 26.08 0 0 13.3 320 1012.4 0 16
DallasTexas 10/21/2019 16:00 22.5 1.3 24.73 0 0 12.5 322 1011.9 0 16
DallasTexas 10/21/2019 17:00 22.6 0.3 22.75 0 0 9 338 1012.3 0 16
DallasTexas 10/21/2019 18:00 22 0.9 24.79 0 0 9.4 330 1012.7 0 16
DallasTexas 10/21/2019 19:00 19.2 2 31.78 0 0 7.7 342 1013.4 0 16
DallasTexas 10/21/2019 20:00 17.6 3.5 39.14 0 0 3.1 337 1015 0 16
DallasTexas 10/21/2019 21:00 15.6 4.4 47.3 0 0 4.5 352 1016.2 0 15.5
DallasTexas 10/21/2019 22:00 13.9 5.8 58.07 0 0 0.6 0 1017 0 15.5
DallasTexas 10/21/2019 23:00 12.9 5.9 62.69 0 0 1.3 62 1017.6 0 16
DallasTexas 10/22/2019 0:00 11.5 5.9 68.65 0 0 2 281 1018 0 15.4
DallasTexas 10/22/2019 1:00 11.5 5.6 67.07 0 0 2.6 301 1018.1 12.2 15.4
DallasTexas 10/22/2019 2:00 11.3 5.8 68.91 0 0 3.7 295 1018.1 0 15.5
DallasTexas 10/22/2019 3:00 11 5.4 68.41 0 0 2.1 317 1018.8 0 15.5
DallasTexas 10/22/2019 4:00 9.8 5.8 76.27 0 0 0.6 352 1019.1 0 15.9
DallasTexas 10/22/2019 5:00 9.9 5.6 74.36 0 0 4.5 341 1019.5 0 16
DallasTexas 10/22/2019 6:00 10.5 4.9 68.16 0 0 8.4 299 1020.9 0 16
DallasTexas 10/22/2019 7:00 10.3 4.7 68.64 0 0 1.4 357 1022 0 15.9
DallasTexas 10/22/2019 8:00 10.1 4.3 67.01 0 0 3 339 1022.5 0 16
DallasTexas 10/22/2019 9:00 12.9 5.4 60.73 0 0 4.7 337 1023.5 1.8 15.9
DallasTexas 10/22/2019 10:00 15.5 2.7 42.04 0 0 5.3 6 1024.4 13.5 15.8
DallasTexas 10/22/2019 11:00 18.6 -0.5 27.56 0 0 8.6 39 1024.5 0 15.8
DallasTexas 10/22/2019 12:00 20 -2 22.68 0 0 6.4 53 1024.5 0 15.9
DallasTexas 10/22/2019 13:00 21.2 -2.8 19.76 0 0 1.9 8 1024.1 0 15.8
DallasTexas 10/22/2019 14:00 22 -2.4 19.5 0 0 3.8 336 1022.7 11.8 14.6
DallasTexas 10/22/2019 15:00 22.9 -2.5 18.29 0 0 6 321 1021.6 0 15.9
DallasTexas 10/22/2019 16:00 23 -3.5 16.81 0 0 3 16 1020.9 0 16
DallasTexas 10/22/2019 17:00 23 -3.3 17.18 0 0 0.2 5 1020.3 0 16
DallasTexas 10/22/2019 18:00 22.3 -2.5 18.95 0 0 5.8 314 1019.9 0 16
DallasTexas 10/22/2019 19:00 19.6 0.6 27.99 0 0 5.4 92 1019.8 0 16
DallasTexas 10/22/2019 20:00 16.7 3.4 40.99 0 0 5.1 109 1019.7 0 16
DallasTexas 10/22/2019 21:00 15.4 3.1 43.72 0 0 7.5 119 1019.4 0 16
DallasTexas 10/22/2019 22:00 15 3.1 44.92 0 0 8.3 114 1019.1 0 16
DallasTexas 10/22/2019 23:00 14.1 3.1 47.44 0 0 8.1 119 1018.9 0 16
DallasTexas 10/23/2019 0:00 13.8 3 48.11 0 0 9.5 111 1018.5 3.3 15.3
DallasTexas 10/23/2019 1:00 13.8 2.7 47.22 0 0 11.2 132 1018.4 3.3 15.4
DallasTexas 10/23/2019 2:00 14 3 47.48 0 0 13.7 134 1018.3 0 15.7
DallasTexas 10/23/2019 3:00 13.5 3.6 51.22 0 0 9.1 145 1018.3 0 15.8
DallasTexas 10/23/2019 4:00 13.4 3.6 51.69 0 0 14.6 161 1017.9 0 15.8
DallasTexas 10/23/2019 5:00 13 3.8 53.57 0 0 16 158 1017.7 0 15.5
DallasTexas 10/23/2019 6:00 12.7 4.3 56.48 0 0 13.8 162 1017.9 0 15.6
DallasTexas 10/23/2019 7:00 13.1 4.3 55.25 0 0 15.8 177 1017.7 0 15.8
DallasTexas 10/23/2019 8:00 12.5 4.9 59.54 0 0 15.6 160 1017.9 0 15.8
DallasTexas 10/23/2019 9:00 14.7 5.4 53.59 0 0 13.2 175 1018.4 0 15.9
DallasTexas 10/23/2019 10:00 17.7 5.6 44.92 0 0 21.7 166 1018.6 0 16
DallasTexas 10/23/2019 11:00 20.6 8.2 44.63 0 0 23.8 164 1018.2 0 16
DallasTexas 10/23/2019 12:00 22.9 9.8 43.52 0 0 28 179 1017.5 13.5 16
DallasTexas 10/23/2019 13:00 24.5 11 42.5 0 0 25.7 174 1016.4 13.5 16
DallasTexas 10/23/2019 14:00 26.1 9.9 36.07 0 0 30.6 177 1014.9 13.5 16
DallasTexas 10/23/2019 15:00 26.5 9.2 33.58 0 0 33.7 182 1013.5 0 16
DallasTexas 10/23/2019 16:00 27 10.5 35.74 0 0 29.4 178 1012.8 13.5 16
DallasTexas 10/23/2019 17:00 26.9 10.6 36.06 0 0 28.1 177 1012.6 14.4 16
DallasTexas 10/23/2019 18:00 26.1 10.4 37.31 0 0 21.8 172 1012.4 14.4 16
DallasTexas 10/23/2019 19:00 24.5 10.3 40.78 0 0 17.6 147 1012.9 14.8 16
DallasTexas 10/23/2019 20:00 23 10.6 45.73 0 0 20.2 141 1013.5 13.5 16
DallasTexas 10/23/2019 21:00 21.8 10.3 47.94 0 0 20.6 138 1014 1.8 16
DallasTexas 10/23/2019 22:00 20.7 10.8 52.94 0 0 21.1 138 1014.6 15.1 16
DallasTexas 10/23/2019 23:00 19.8 11.1 57.33 0 0 20.7 144 1015 13.9 16
DallasTexas 10/24/2019 0:00 19.5 11.4 59.48 0 0 23.9 157 1014.9 13.5 16
DallasTexas 10/24/2019 1:00 18.7 12 64.95 0 0 23.3 160 1014.8 0 16
DallasTexas 10/24/2019 2:00 18.1 12.3 68.85 0 0 20.7 157 1014.7 1.8 16
DallasTexas 10/24/2019 3:00 17.5 12.6 72.98 0 0 19.3 161 1014.8 1.8 16
DallasTexas 10/24/2019 4:00 17.3 12.8 74.91 0 0 17.8 162 1014.5 1.8 16
DallasTexas 10/24/2019 5:00 16.8 12.8 77.45 0 0 17.3 160 1014.5 3.1 16
DallasTexas 10/24/2019 6:00 16.8 13.2 79.2 0 0 17.1 159 1015 61.1 16
DallasTexas 10/24/2019 7:00 16.6 13.2 80.11 0 0 16.3 154 1015.4 36.8 16
DallasTexas 10/24/2019 8:00 16.5 13.4 82.04 0 0 15.1 146 1015.7 77.2 15.8
DallasTexas 10/24/2019 9:00 17.4 13.9 79.99 0 0 19.2 154 1016 73.3 15.9
DallasTexas 10/24/2019 10:00 18.7 14.1 74.85 0 0 26.3 161 1016.1 71.7 15.9
DallasTexas 10/24/2019 11:00 20.6 14.9 69.74 0 0 21.8 159 1015.7 68.1 16
DallasTexas 10/24/2019 12:00 22.3 15.4 64.96 0 0 26.3 158 1015.2 53.2 16
DallasTexas 10/24/2019 13:00 23.5 15.7 61.69 0 0 23.9 169 1014.6 55.2 16
DallasTexas 10/24/2019 14:00 24 16 60.77 0 0 20.8 123 1013.5 72.4 16
DallasTexas 10/24/2019 15:00 23 16.7 67.54 0.23 0 14 32 1012.6 71.1 14.7
DallasTexas 10/24/2019 16:00 18.8 15.8 82.98 3.24 0 20.3 31 1012.4 74.8 12.3
DallasTexas 10/24/2019 17:00 16 14.9 93.07 6.06 0 14.6 338 1013.9 68.6 4
DallasTexas 10/24/2019 18:00 15.2 14 92.7 5.89 0 12.2 360 1014.8 86.4 10.7
DallasTexas 10/24/2019 19:00 14.7 13.7 93.43 1.26 0 9.9 351 1015.1 94 15.5
DallasTexas 10/24/2019 20:00 14.3 13.2 92.98 1.2 0 14.2 355 1015.3 60.8 10.8
DallasTexas 10/24/2019 21:00 13.8 12.8 93.86 3.1 0 19.8 323 1016.3 52.6 10.5
DallasTexas 10/24/2019 22:00 12.2 11.2 94.02 2.33 0 15.1 337 1017.4 59.9 9.2
DallasTexas 10/24/2019 23:00 11.3 10 91.81 3 0 24.5 316 1018 47.6 9.1
DallasTexas 10/25/2019 0:00 10.5 9.4 92.95 3.82 0 24.5 322 1017.9 70.5 10.1
DallasTexas 10/25/2019 1:00 10.2 9.1 92.97 3.67 0 24.1 320 1018.3 70.6 6.9
DallasTexas 10/25/2019 2:00 9.8 8.8 93.77 2.73 0 25.7 311 1018.1 94.4 10.3
DallasTexas 10/25/2019 3:00 9.2 8.3 94.59 2.86 0 22.9 296 1018.4 90.8 7.7
DallasTexas 10/25/2019 4:00 8.6 7.4 91.96 0.69 0 27.7 305 1018.4 98.4 12.9
DallasTexas 10/25/2019 5:00 8 6.8 91.75 0.04 0 31.8 310 1018 99.7 9.2
DallasTexas 10/25/2019 6:00 7.8 6.5 91.84 0.34 0 28 307 1018.3 89.9 6.5
DallasTexas 10/25/2019 7:00 7.1 6.3 94.55 0.57 0 26.9 305 1018.4 76.6 3.7
DallasTexas 10/25/2019 8:00 7.8 6.6 92.03 0.39 0 27.7 310 1018.6 96.8 4.8
DallasTexas 10/25/2019 9:00 7.8 7 94.18 0.19 0 27.1 319 1019.3 99.6 5.8
DallasTexas 10/25/2019 10:00 8.3 7.1 91.87 0.02 0 26.2 314 1019.6 98 7.7
DallasTexas 10/25/2019 11:00 8.5 7.3 92.17 0.02 0 27.7 311 1019.7 95.7 9.3
DallasTexas 10/25/2019 12:00 8.5 7.7 94.51 0.24 0 27.5 315 1019.6 97 3.4
DallasTexas 10/25/2019 13:00 8.8 7.8 93.2 0.18 0 26 316 1019.1 95.8 3.7
DallasTexas 10/25/2019 14:00 9.1 8.3 94.58 0.11 0 26 316 1018 96.6 4.9
DallasTexas 10/25/2019 15:00 9.4 8.3 93.23 0.01 0 23.7 312 1017.3 97.2 6
DallasTexas 10/25/2019 16:00 9.5 8.3 92.43 0.01 0 22.2 309 1017.2 97.2 5.9
DallasTexas 10/25/2019 17:00 9.5 8.3 92.33 0.01 0 24.9 309 1017.3 96.4 4
DallasTexas 10/25/2019 18:00 9.5 8.3 92.54 0.01 0 24.5 309 1017.3 96.9 4.8
DallasTexas 10/25/2019 19:00 9 8 93.52 0.1 0 23.3 308 1017.4 95.4 12.3
DallasTexas 10/25/2019 20:00 9.1 8.2 94.44 0 0 23.5 308 1017.8 69.3 7.7
DallasTexas 10/25/2019 21:00 9 8.2 94.91 0 0 24.1 313 1017.7 96.8 7.9
DallasTexas 10/25/2019 22:00 9 8.1 94.58 0 0 23.1 317 1017.5 79.1 13.2
DallasTexas 10/25/2019 23:00 9.3 7.9 91.03 0 0 20.2 325 1016.9 97 16
DallasTexas 10/26/2019 0:00 9.3 7.7 89.91 0 0 21 319 1016.1 74 16
DallasTexas 10/26/2019 1:00 8.9 7.4 89.76 0 0 22.9 305 1015.3 97.8 15.7
DallasTexas 10/26/2019 2:00 8.9 7.3 89.61 0 0 23 310 1014.6 99.2 16
DallasTexas 10/26/2019 3:00 8.9 7.3 89.53 0 0 20.4 308 1014 99.2 16
DallasTexas 10/26/2019 4:00 8.9 7.2 89.18 0 0 22.5 304 1013.4 100 16
DallasTexas 10/26/2019 5:00 8.9 7.2 89.05 0 0 20.2 296 1012.9 100 11
DallasTexas 10/26/2019 6:00 8.9 7.6 91.7 0 0 17.8 296 1012.7 97.3 9.6
DallasTexas 10/26/2019 7:00 9 7.6 91.41 0 0 23 302 1012.6 93.5 14.3
DallasTexas 10/26/2019 8:00 9 7.2 88.42 0 0 24.9 308 1012.3 61.5 15.7
DallasTexas 10/26/2019 9:00 9.9 7.6 85.54 0 0 26.9 321 1012 48.3 16
DallasTexas 10/26/2019 10:00 11.3 8.4 82.28 0 0 24.9 312 1012.2 78.6 16
DallasTexas 10/26/2019 11:00 12.5 8.3 75.73 0 0 22.8 297 1012.4 78.8 16
DallasTexas 10/26/2019 12:00 15.1 8.3 64.14 0 0 22 299 1012.1 20.7 16
DallasTexas 10/26/2019 13:00 16.8 8.4 57.69 0 0 21.2 323 1011.6 17.5 16
DallasTexas 10/26/2019 14:00 18.5 8.7 52.57 0 0 18 322 1010.5 15.3 16
DallasTexas 10/26/2019 15:00 19.1 8.4 50.11 0 0 15.6 296 1009.9 14.4 16
DallasTexas 10/26/2019 16:00 19.5 8.3 48.36 0 0 12.5 292 1009.9 13.5 16
DallasTexas 10/26/2019 17:00 19.9 8 46.31 0 0 12.2 283 1009.8 1.8 16
DallasTexas 10/26/2019 18:00 19.4 7.6 46.53 0 0 9.5 255 1009.6 12.1 15
DallasTexas 10/26/2019 19:00 17.6 8.3 54.58 0 0 1 325 1009.7 0 16
DallasTexas 10/26/2019 20:00 14.7 9.1 69.16 0 0 4.9 89 1010.1 0 16
DallasTexas 10/26/2019 21:00 13.7 9.3 74.3 0 0 5.7 16 1010.3 0 16
DallasTexas 10/26/2019 22:00 12.6 8.9 78.33 0 0 5.3 11 1010.7 0 16
DallasTexas 10/26/2019 23:00 12.4 8.8 78.68 0 0 6.3 127 1010.9 0 16
DallasTexas 10/27/2019 0:00 11.5 8.2 80.22 0 0 8.2 125 1010.8 0 16
DallasTexas 10/27/2019 1:00 11.3 7.9 80.02 0 0 7.7 32 1010.7 0 16
DallasTexas 10/27/2019 2:00 12.1 7.7 74.61 0 0 9.9 28 1010.7 0 16
DallasTexas 10/27/2019 3:00 11.7 7.6 75.56 0 0 11 112 1010.7 0 16
DallasTexas 10/27/2019 4:00 11.4 7.1 74.97 0 0 12 27 1010.7 0 15.9
DallasTexas 10/27/2019 5:00 10.9 6.9 76.52 0 0 10.6 158 1010.8 0 16
DallasTexas 10/27/2019 6:00 10.1 6.5 78.4 0 0 9.2 112 1011.3 0 16
DallasTexas 10/27/2019 7:00 9.6 6.4 80.62 0 0 8.3 139 1011.8 0 16
DallasTexas 10/27/2019 8:00 9.5 6.3 80.18 0 0 10.9 106 1012.9 0 15.8
DallasTexas 10/27/2019 9:00 11.5 6.4 71.12 0 0 15.6 133 1013.6 0 16
DallasTexas 10/27/2019 10:00 14.5 5.8 56.05 0 0 18.9 171 1014.2 0 16
DallasTexas 10/27/2019 11:00 18.1 4.5 40.65 0 0 19.3 181 1014.1 0 16
DallasTexas 10/27/2019 12:00 20.7 4.2 33.87 0 0 21.2 168 1013.9 0 16
DallasTexas 10/27/2019 13:00 22.4 3.5 28.93 0 0 20.6 169 1013.4 0 16
DallasTexas 10/27/2019 14:00 23.2 2.6 25.94 0 0 23.1 176 1012.7 11.8 16
DallasTexas 10/27/2019 15:00 23.7 2.7 25.25 0 0 23.4 173 1012 0 16
DallasTexas 10/27/2019 16:00 24.1 3.9 26.85 0 0 22.4 166 1011.8 0 16
DallasTexas 10/27/2019 17:00 24 4.5 28.25 0 0 22.7 163 1011.8 0 16
DallasTexas 10/27/2019 18:00 23.2 5 30.9 0 0 19 153 1011.7 0 16
DallasTexas 10/27/2019 19:00 20.4 6.3 39.82 0 0 11.1 161 1012.2 0 16
DallasTexas 10/27/2019 20:00 18.3 7.2 48.27 0 0 7.2 118 1012.8 0 16
DallasTexas 10/27/2019 21:00 16.8 7.6 54.58 0 0 9.6 125 1013.2 0 16
DallasTexas 10/27/2019 22:00 16 8.2 59.62 0 0 9 130 1013.6 0 16
DallasTexas 10/27/2019 23:00 15.3 8.8 65.35 0 0 9.2 136 1013.7 0 16
DallasTexas 10/28/2019 0:00 15.9 9.9 67.69 0 0 10.4 134 1013.6 0 16
DallasTexas 10/28/2019 1:00 14.9 10.5 74.88 0 0 8.1 134 1013.8 0 16
DallasTexas 10/28/2019 2:00 14.7 11.3 80.09 0 0 10.9 136 1014.1 0 16
DallasTexas 10/28/2019 3:00 14.1 11.3 82.99 0 0 9.5 114 1014.5 0 16
DallasTexas 10/28/2019 4:00 13.1 11 87.02 0 0 5.6 141 1014.5 0 15.9
DallasTexas 10/28/2019 5:00 12.6 10.9 89.77 0 0 7.3 126 1014.7 0 15.3
DallasTexas 10/28/2019 6:00 12 11 93.23 0 0 7.6 129 1014.9 27 13.2
DallasTexas 10/28/2019 7:00 13.1 11.8 91.97 0 0 8.3 304 1015.2 82.4 13
DallasTexas 10/28/2019 8:00 12.7 11.3 91.56 0 0 5.9 313 1015.5 64.4 10.8
DallasTexas 10/28/2019 9:00 13.3 12.2 93.5 0 0 7.8 322 1015.7 83.7 6.1
DallasTexas 10/28/2019 10:00 14 12.7 92.02 0 0 6.9 348 1016.1 98.4 5.3
DallasTexas 10/28/2019 11:00 14.9 12.9 88.18 0 0 5.2 68 1016.2 99.6 6.3
DallasTexas 10/28/2019 12:00 15.8 13.9 88.78 0 0 7.7 240 1016.2 99.6 10.2
DallasTexas 10/28/2019 13:00 16.7 14.3 86.04 0 0 10.1 126 1015.3 96.9 10.9
DallasTexas 10/28/2019 14:00 17.5 14.8 84.43 0 0 10.4 176 1014.3 96.5 15.3
DallasTexas 10/28/2019 15:00 17.6 14.6 82.38 0.01 0 9.2 109 1013.7 96.5 14
DallasTexas 10/28/2019 16:00 16.6 14.4 86.65 0.09 0 6.6 333 1013.5 98.8 7.4
DallasTexas 10/28/2019 17:00 14.7 13.1 90.17 0.17 0 15.5 332 1014.3 88 6.9
DallasTexas 10/28/2019 18:00 13.9 12.2 89.93 0.09 0 14.7 318 1014.5 84.8 12
DallasTexas 10/28/2019 19:00 13 11.7 91.38 0.19 0 13.8 327 1015.3 98 5.3
DallasTexas 10/28/2019 20:00 12.1 10.9 92.64 0.27 0 17.7 329 1016.5 55.6 10
DallasTexas 10/28/2019 21:00 11.8 10.5 91.41 0.03 0 15.8 334 1016.9 56.2 14
DallasTexas 10/28/2019 22:00 11.4 10.1 91.65 0 0 17.4 334 1017.5 63.5 14.8
DallasTexas 10/28/2019 23:00 10.8 9.9 94.47 0 0 17.9 345 1018.2 96.2 6.1
DallasTexas 10/29/2019 0:00 10.3 9.2 92.78 0.11 0 16.2 346 1018.4 75.7 5.2
DallasTexas 10/29/2019 1:00 10 9 93.81 0.19 0 16.6 345 1018.5 72.2 5.7
DallasTexas 10/29/2019 2:00 9.7 8.5 92.38 0.19 0 15.4 353 1018.4 95.1 8.1
DallasTexas 10/29/2019 3:00 9.6 8.4 92.22 0.1 0 15.7 358 1018.2 92.1 6.6
DallasTexas 10/29/2019 4:00 8.7 7.5 92.46 0.16 0 19.5 343 1018.7 91.9 6.4
DallasTexas 10/29/2019 5:00 7.8 6.8 93.01 0.01 0 18.8 356 1018.6 97.7 6.8
DallasTexas 10/29/2019 6:00 7.6 6.6 93.36 0 0 17 348 1019 97.7 5.7
DallasTexas 10/29/2019 7:00 7.5 6.4 92.93 0.17 0 13.2 1 1018.6 97.7 5.8
DallasTexas 10/29/2019 8:00 7.4 6.3 93.01 0 0 13.9 16 1018.1 97.2 5.5
DallasTexas 10/29/2019 9:00 7.4 6.4 92.94 0 0 16.2 11 1018.3 97.7 4.3
DallasTexas 10/29/2019 10:00 7.5 6.4 92.94 0.02 0 12.6 6 1018.8 97.7 3.4
DallasTexas 10/29/2019 11:00 7.6 6.4 92.66 0 0 14.6 359 1018.7 99.6 3.2
DallasTexas 10/29/2019 12:00 7.9 6.8 93.08 0 0 12.7 12 1018.3 97.7 5
DallasTexas 10/29/2019 13:00 8.4 7.3 92.47 0 0 14.4 2 1017.5 97.7 7.8
DallasTexas 10/29/2019 14:00 8.5 7.4 92.92 0 0 10.2 359 1016.6 97.8 8.9
DallasTexas 10/29/2019 15:00 8.5 7.4 92.95 0.13 0 15.4 346 1015.7 97.5 9.6
DallasTexas 10/29/2019 16:00 8.5 7.4 92.93 0.26 0 13.4 357 1015.2 94.5 12.3
DallasTexas 10/29/2019 17:00 8.8 7.4 90.81 0.2 0 15.2 339 1015.2 95.1 14.8
DallasTexas 10/29/2019 18:00 8.2 7.1 92.39 0.14 0 19.9 348 1015.3 97.8 11.7
DallasTexas 10/29/2019 19:00 7.9 6.9 93.01 0.51 0 14.5 354 1015.4 93.7 10.4
DallasTexas 10/29/2019 20:00 7.7 6.8 94 1.87 0 16.7 330 1015.9 80.4 7.6
DallasTexas 10/29/2019 21:00 7.4 6.4 93.81 3.26 0 15.1 348 1015.6 79.6 10.7
DallasTexas 10/29/2019 22:00 7 6.3 94.69 8.73 0 13.8 328 1016 89.6 5.8
DallasTexas 10/29/2019 23:00 7 6.2 94.77 1.88 0 17 340 1016.4 91.5 11.6
DallasTexas 10/30/2019 0:00 6.9 5.9 93.4 0.6 0 19.3 335 1016 93 15.3
DallasTexas 10/30/2019 1:00 6.9 6.2 95.45 0.38 0 16.7 339 1015.7 97.2 15.5
DallasTexas 10/30/2019 2:00 7 6.2 94.63 0.14 0 18.3 330 1015.9 97.2 6
DallasTexas 10/30/2019 3:00 7.1 6.1 93.04 0.52 0 16.6 337 1015.5 99.5 6.3
DallasTexas 10/30/2019 4:00 6.8 6 94.74 0.17 0 20.1 332 1015.3 97.2 8.9
DallasTexas 10/30/2019 5:00 6.4 5.7 95.6 0.4 0 17.1 334 1015.3 95.8 7.9
DallasTexas 10/30/2019 6:00 6.5 5.7 95.17 3.82 0 14.8 342 1015.5 92.3 11.8
DallasTexas 10/30/2019 7:00 6.7 5.7 93.37 0.93 0 15.9 330 1015.8 96 13.1
DallasTexas 10/30/2019 8:00 6.6 5.9 95.51 0.73 0 16.4 328 1016.1 98.6 8.4
DallasTexas 10/30/2019 9:00 6.6 5.5 92.96 0.79 0 17.9 337 1016.6 95.5 5.8
DallasTexas 10/30/2019 10:00 6.3 5.2 92.3 0.69 0 24.3 309 1018.2 98.1 12.1
DallasTexas 10/30/2019 11:00 6.2 4.9 91.74 0 0 30.4 328 1018.3 99.1 15.7
DallasTexas 10/30/2019 12:00 6.3 4.6 88.52 0 0 26.9 323 1018.6 99 15.9
DallasTexas 10/30/2019 13:00 6.3 4 85.16 0 0 30.8 329 1018.9 99.6 16
DallasTexas 10/30/2019 14:00 6.4 4.2 85.94 0 0 22.8 331 1018.5 99.6 15.9
DallasTexas 10/30/2019 15:00 6.6 3.8 81.98 0.01 0 28.3 325 1018.6 100 15.9
DallasTexas 10/30/2019 16:00 6.6 3.5 80.84 0.01 0 29.7 335 1018.7 97.3 15.9
DallasTexas 10/30/2019 17:00 6.2 3 79.93 0.16 0 29.7 323 1019.9 97.3 15.9
DallasTexas 10/30/2019 18:00 5.7 2.6 80.49 0.02 0 32.1 325 1021 95.7 15.8
DallasTexas 10/30/2019 19:00 5.4 2.1 79.02 0.12 0 35.6 328 1022.2 97.3 16
DallasTexas 10/30/2019 20:00 4.5 1.4 80.19 0 0 35.4 322 1023.6 95.8 16
DallasTexas 10/30/2019 21:00 4 -0.1 74.5 0 0 34.3 334 1024.7 97.3 16
DallasTexas 10/30/2019 22:00 3.9 -1 70.55 0.02 0 37.1 329 1025.6 96.9 16
DallasTexas 10/30/2019 23:00 3.9 -1.6 67.35 0 0 33.6 330 1026.5 100 16
DallasTexas 10/31/2019 0:00 3.7 -2.2 65.26 0 0 31.7 341 1027 97.2 16
DallasTexas 10/31/2019 1:00 3.2 -2.6 65.96 0 0 29.5 332 1027.6 77.9 16
DallasTexas 10/31/2019 2:00 2.2 -2.8 69.52 0 0 30.4 328 1028.1 57.3 16
DallasTexas 10/31/2019 3:00 1.5 -3.1 71.36 0 0 28.7 331 1028.3 75.6 16
DallasTexas 10/31/2019 4:00 0.7 -3.3 74.72 0 0 26.1 330 1028.8 52 16
DallasTexas 10/31/2019 5:00 0.2 -3.9 74.25 0 0 23.6 330 1029.1 13.5 16
DallasTexas 10/31/2019 6:00 -0.3 -4.5 73.78 0 0 21.3 329 1029.7 14.2 16
DallasTexas 10/31/2019 7:00 -0.5 -4.7 72.82 0 0 21.7 331 1030.3 14.7 16
DallasTexas 10/31/2019 8:00 -0.9 -4.8 75.13 0 0 19.8 322 1031.1 14.2 16
DallasTexas 10/31/2019 9:00 0.6 -4.8 67.45 0 0 19.2 323 1031.7 14.4 16
DallasTexas 10/31/2019 10:00 2 -5.2 58.95 0 0 20.6 321 1032.3 13.5 16
DallasTexas 10/31/2019 11:00 3.2 -5.2 54.16 0 0 20.6 318 1032.4 13.5 16
DallasTexas 10/31/2019 12:00 4.9 -5.3 47.78 0 0 14.5 312 1032.3 13.5 16
DallasTexas 10/31/2019 13:00 6.3 -5.3 43.32 0 0 13.8 324 1031.5 7.9 16
DallasTexas 10/31/2019 14:00 8.1 -5.5 37.59 0 0 13 320 1030.3 13.5 16
DallasTexas 10/31/2019 15:00 8.8 -6 34.56 0 0 12.6 337 1029.8 13.5 16
DallasTexas 10/31/2019 16:00 10 -6.7 30.22 0 0 13.9 326 1029.1 13.9 16
DallasTexas 10/31/2019 17:00 10.3 -6.7 29.71 0 0 9.9 336 1028.6 13.5 16
DallasTexas 10/31/2019 18:00 9.9 -7.2 29.33 0 0 3.5 350 1028.7 13.5 16
DallasTexas 10/31/2019 19:00 7.1 -4.3 44.3 0 0 0.5 356 1028.6 13.5 16
DallasTexas 10/31/2019 20:00 5.3 -2.4 57.54 0 0 3.6 91 1028.9 0 15.7
DallasTexas 10/31/2019 21:00 3.9 -2 65.2 0 0 4.7 129 1029.2 0 15.9
DallasTexas 10/31/2019 22:00 3.5 -2.2 66.46 0 0 2.8 305 1029.3 0 16
DallasTexas 10/31/2019 23:00 2.8 -2.2 69.81 0 0 3.3 272 1029.1 0 16
DallasTexas 11/1/2019 0:00 2.8 -2.8 66.66 0 0 3.4 276 1028.7 0 16
DallasTexas 11/1/2019 1:00 1.8 -2.9 71.11 0 0 3.4 277 1028.5 0 16
DallasTexas 11/1/2019 2:00 1.7 -3.5 68.19 0 0 5.6 7 1028.2 0 16
DallasTexas 11/1/2019 3:00 1.4 -3.3 70.85 0 0 5.9 7 1028.3 0 16
DallasTexas 11/1/2019 4:00 1.1 -3.7 70.47 0 0 7.3 9 1028.2 0 16
DallasTexas 11/1/2019 5:00 0.9 -3.8 71.02 0 0 5.7 356 1027.6 0 16
DallasTexas 11/1/2019 6:00 0.6 -3.6 73.68 0 0 3.7 292 1027.8 0 16
DallasTexas 11/1/2019 7:00 1.1 -4.1 68.57 0 0 7.7 24 1027.8 0 16
DallasTexas 11/1/2019 8:00 1.1 -3.9 69.22 0 0 9.9 98 1027.7 11.8 16
DallasTexas 11/1/2019 9:00 3.3 -3.2 62.33 0 0 12.2 49 1028 12.6 15.9
DallasTexas 11/1/2019 10:00 6.4 -2.6 52.44 0 0 19 164 1028 12.6 16
DallasTexas 11/1/2019 11:00 9.3 -3 41.82 0 0 20.5 164 1027.9 14.4 16
DallasTexas 11/1/2019 12:00 11 -3.8 35.08 0 0 19 168 1027.4 14.4 16
DallasTexas 11/1/2019 13:00 12.6 -4.3 30.56 0 0 14.7 171 1026.2 14.4 16
DallasTexas 11/1/2019 14:00 14 -4.1 28.46 0 0 16.1 170 1024.6 13.5 16
DallasTexas 11/1/2019 15:00 15.2 -4.9 24.66 0 0 21.2 175 1023 13.5 16
DallasTexas 11/1/2019 16:00 15.7 -5.1 23.57 0 0 19.5 172 1022.5 13.5 16
DallasTexas 11/1/2019 17:00 15.6 -5.2 23.47 0 0 15.7 170 1022.3 13.5 16
DallasTexas 11/1/2019 18:00 14.7 -4.3 26.56 0 0 14.3 171 1022.1 13.5 16
DallasTexas 11/1/2019 19:00 12.6 -3.4 32.77 0 0 8.9 64 1023.4 13.5 16
DallasTexas 11/1/2019 20:00 10.2 -1.5 44.19 0 0 2.5 81 1024.4 13.5 16
DallasTexas 11/1/2019 21:00 8.8 -0.8 51.13 0 0 5.7 128 1024.6 11.8 16
DallasTexas 11/1/2019 22:00 7.6 -0.3 57.36 0 0 6.1 106 1025.1 0 16
DallasTexas 11/1/2019 23:00 7 -0.3 59.44 0 0 4.9 74 1025.9 0 16
DallasTexas 11/2/2019 0:00 5.9 0.2 66.52 0 0 0.2 5 1026.4 0 16
DallasTexas 11/2/2019 1:00 5.2 0.5 71.56 0 0 0.1 3 1026.6 0 16
DallasTexas 11/2/2019 2:00 4.3 0.4 75.83 0 0 0.6 357 1027 0 16
DallasTexas 11/2/2019 3:00 3.4 0.3 80.12 0 0 1.9 303 1027.5 0 16
DallasTexas 11/2/2019 4:00 3.6 0.1 78.11 0 0 2 319 1027.8 0 16
DallasTexas 11/2/2019 5:00 2.9 0.3 83.43 0 0 8.9 335 1028.4 0 15.7
DallasTexas 11/2/2019 6:00 4 1.3 82.56 0 0 6.6 322 1028.7 0 16
DallasTexas 11/2/2019 7:00 3.4 1.1 84.64 0 0 9.5 317 1028.9 0 16
DallasTexas 11/2/2019 8:00 3.4 0.3 80.11 0 0 10.8 317 1029.4 13.5 16
DallasTexas 11/2/2019 9:00 5.8 1.2 72.71 0 0 14.7 339 1030.3 13.7 16
DallasTexas 11/2/2019 10:00 8.7 1.4 60.04 0 0 14.9 360 1031 13.5 16
DallasTexas 11/2/2019 11:00 12.1 1 46.49 0 0 17.8 22 1031.2 13.5 16
DallasTexas 11/2/2019 12:00 14.6 0.6 38.5 0 0 18.6 11 1031 13.5 16
DallasTexas 11/2/2019 13:00 15.5 -0.2 34.27 0 0 16 39 1030.5 13.5 16
DallasTexas 11/2/2019 14:00 16.5 -0.9 30.63 0 0 13 39 1029.4 15 16
DallasTexas 11/2/2019 15:00 17.3 -1.3 28.23 0 0 10.6 23 1028.4 24.7 15.9
DallasTexas 11/2/2019 16:00 17.5 -2.1 26.26 0 0 12.3 6 1027.8 19.1 15.9
DallasTexas 11/2/2019 17:00 17.4 -2.6 25.49 0 0 7.8 21 1027.3 24.7 16
DallasTexas 11/2/2019 18:00 16.1 -1.9 29.24 0 0 7.5 13 1026.7 24.7 16
DallasTexas 11/2/2019 19:00 13.1 -0.4 39.41 0 0 1.7 356 1026.5 13.5 15.9
DallasTexas 11/2/2019 20:00 10.2 1.2 53.49 0 0 0.6 360 1026.7 14.9 15.8
DallasTexas 11/2/2019 21:00 8.5 1.8 62.56 0.02 0 0.2 5 1026.6 13.5 16
DallasTexas 11/2/2019 22:00 7.1 2 69.8 0 0 0.2 6 1026.5 1.8 16
DallasTexas 11/2/2019 23:00 6.4 1.9 73.29 0 0 0.2 6 1026.3 13.5 16
DallasTexas 11/3/2019 0:00 6.4 1.7 71.84 0 0 0 0 1026.1 13.5 15.8
DallasTexas 11/3/2019 1:00 5.1 1.5 77.62 0 0 0.1 4 1026 15 15.7
DallasTexas 11/3/2019 1:00 4.7 1.4 79.22 0 0 3.8 99 1025.4 24.7 15.7
DallasTexas 11/3/2019 2:00 5.1 1.2 76.1 0 0 4.9 82 1025.2 14.9 15.5
DallasTexas 11/3/2019 3:00 5.6 1.1 72.75 0 0 5.2 118 1025 16.4 15.4
DallasTexas 11/3/2019 4:00 5.4 0.6 71.41 0 0 6.4 110 1024.6 13.5 16
DallasTexas 11/3/2019 5:00 4.8 0.5 73.75 0 0 6.5 109 1024.5 13.5 16
DallasTexas 11/3/2019 6:00 4.7 0.6 74.52 0 0 6 119 1024.4 13.9 16
DallasTexas 11/3/2019 7:00 4.7 0.7 75.4 0 0 2.6 71 1024.3 28.5 16
DallasTexas 11/3/2019 8:00 7.6 2.5 70.38 0 0 3.9 79 1024.2 20.1 16
DallasTexas 11/3/2019 9:00 10.7 2.3 56.16 0 0 14.6 171 1024.1 33.5 16
DallasTexas 11/3/2019 10:00 13.4 2.5 47.47 0 0 16.2 167 1023.6 19.1 16
DallasTexas 11/3/2019 11:00 16.2 2.3 39.16 0 0 19 181 1022.8 19.1 16
DallasTexas 11/3/2019 12:00 17.8 2.2 35.25 0 0 19.2 181 1021.6 35.4 16
DallasTexas 11/3/2019 13:00 18.7 2.1 33.02 0 0 21.3 165 1019.9 33.5 16
DallasTexas 11/3/2019 14:00 19.2 2.3 32.35 0 0 19.4 162 1018.5 42 16
DallasTexas 11/3/2019 15:00 19.7 1.7 30.07 0 0 20.4 166 1017.4 35.4 16
DallasTexas 11/3/2019 16:00 19.3 1.1 29.77 0 0 24 172 1016.8 28.6 16
DallasTexas 11/3/2019 17:00 17.7 2.4 35.83 0 0 20.6 163 1016.7 27.8 16
DallasTexas 11/3/2019 18:00 16.1 3 41.43 0 0 14.8 151 1016.4 27.8 16
DallasTexas 11/3/2019 19:00 15.1 3.3 45.21 0 0 15.5 148 1016.4 29.7 16
DallasTexas 11/3/2019 20:00 14.3 3.6 48.74 0 0 15 154 1016.4 29.7 16
DallasTexas 11/3/2019 21:00 13.8 3.7 50.5 0 0 14.8 151 1016.5 29.7 16
DallasTexas 11/3/2019 22:00 12.5 4.3 57.55 0 0 11.1 135 1016.6 29.7 16
DallasTexas 11/3/2019 23:00 12.8 4.6 57.45 0 0 13.5 156 1016.5 43.9 16
DallasTexas 11/4/2019 0:00 12.7 5.2 60.37 0 0 12.3 162 1016.4 46.7 16
DallasTexas 11/4/2019 1:00 12.2 5.8 64.76 0 0 15.9 154 1016.1 44.6 16
DallasTexas 11/4/2019 2:00 11.7 6.3 69.56 0 0 17.1 156 1016.1 35.4 16
DallasTexas 11/4/2019 3:00 11.2 6.8 74.12 0 0 15.5 159 1015.7 35.4 16
DallasTexas 11/4/2019 4:00 10.9 7.2 77.94 0 0 13.5 164 1015.7 28.6 16
DallasTexas 11/4/2019 5:00 10.6 7.7 82.13 0 0 16.3 140 1015.6 28.6 16
DallasTexas 11/4/2019 6:00 10.1 7.7 85.26 0 0 14.3 160 1015.6 28.6 16
DallasTexas 11/4/2019 7:00 10.3 7.8 84.59 0 0 13.5 160 1016 27.8 15.9
DallasTexas 11/4/2019 8:00 11.1 8.5 84.31 0 0 15.4 159 1016.2 13.5 16
DallasTexas 11/4/2019 9:00 13.9 9.8 76.2 0 0 20.8 171 1016.2 13.5 16
DallasTexas 11/4/2019 10:00 16.8 11.2 69.59 0 0 19.6 174 1015.9 13.5 16
DallasTexas 11/4/2019 11:00 19.4 12.1 62.54 0 0 25.6 182 1015.4 13.5 16
DallasTexas 11/4/2019 12:00 22 12.5 55.03 0 0 25.9 184 1014.1 14.4 16
DallasTexas 11/4/2019 13:00 23.6 12.9 51.25 0 0 25.8 178 1013 14.4 16
DallasTexas 11/4/2019 14:00 24.2 13.1 49.88 0 0 23.7 180 1012.2 13.9 16
DallasTexas 11/4/2019 15:00 24.8 13.4 49.06 0 0 20.9 174 1012 13.5 16
DallasTexas 11/4/2019 16:00 24.7 13.3 49.03 0 0 18.2 177 1012 13.5 16
DallasTexas 11/4/2019 17:00 24.1 13.3 50.69 0 0 16.6 190 1012.5 13.5 16
DallasTexas 11/4/2019 18:00 21.9 13.3 57.79 0 0 9.4 158 1013.1 14.3 16
DallasTexas 11/4/2019 19:00 20.4 13.6 64.79 0 0 9.2 144 1013.5 1.8 16
DallasTexas 11/4/2019 20:00 19.3 13.6 69.24 0 0 8.1 121 1014.2 0 16
DallasTexas 11/4/2019 21:00 18.7 13.6 72.45 0.02 0 9.4 126 1014.8 0 16
DallasTexas 11/4/2019 22:00 17.9 14 78.03 0 0 12.2 121 1015.5 0 16
DallasTexas 11/4/2019 23:00 17.6 14.7 83.39 0 0 12 126 1016.3 0 15.9
DallasTexas 11/5/2019 0:00 16.2 14.6 90.3 0 0 7.9 102 1016.7 14.7 14.6
DallasTexas 11/5/2019 1:00 16.6 15.2 90.9 0 0 10 121 1016.6 96.3 12.8
DallasTexas 11/5/2019 2:00 17.4 15.9 91.34 0 0 10.7 124 1016.9 100 13.4
DallasTexas 11/5/2019 3:00 17.2 16.2 94.09 0 0 9.2 131 1017.2 100 6.5
DallasTexas 11/5/2019 4:00 17.3 16.5 95.24 0 0 8.8 132 1017.4 86.7 3.4
DallasTexas 11/5/2019 5:00 17.3 16.7 96.11 0 0 6.5 129 1018.1 83.5 2.1
DallasTexas 11/5/2019 6:00 17.4 16.8 96.14 0 0 3.3 70 1019 87.6 2.8
DallasTexas 11/5/2019 7:00 17.5 16.8 95.38 0.03 0 1 14 1019.9 100 1.9
DallasTexas 11/5/2019 8:00 17.8 17.2 96.14 0.18 0 3.5 43 1020.9 96.9 1.9
DallasTexas 11/5/2019 9:00 17.9 17.2 95.89 0.03 0 5 80 1021.4 94.6 2.5
DallasTexas 11/5/2019 10:00 18.2 17.1 93.75 0 0 6.7 77 1021.7 98.4 3.2
DallasTexas 11/5/2019 11:00 18.3 17.4 94.56 0 0 7 86 1021.9 97.6 4.5
DallasTexas 11/5/2019 12:00 18.3 17.2 93.18 0.05 0 9.3 66 1021.5 98.2 7.4
DallasTexas 11/5/2019 13:00 17.5 16.3 93.11 0.19 0 8.7 357 1020.6 98.2 3.3
DallasTexas 11/5/2019 14:00 17.5 16.3 92.78 0.2 0 9.7 336 1020.4 98.8 2.4
DallasTexas 11/5/2019 15:00 17.4 16.6 95.25 0.03 0 8.5 351 1020.7 99.8 2.1
DallasTexas 11/5/2019 16:00 17.4 16.6 95.31 0.21 0 6.4 337 1020.8 100 2.3
DallasTexas 11/5/2019 17:00 17 16.5 96.74 0.2 0 8.9 322 1020.9 96.7 3.6
DallasTexas 11/5/2019 18:00 16.6 15.6 93.8 0 0 9.6 319 1021.2 99.6 3.6
DallasTexas 11/5/2019 19:00 16.2 15.6 95.92 0 0 9.6 337 1021.5 85.3 4
DallasTexas 11/5/2019 20:00 16.1 15.5 96.15 0 0 5.9 332 1022 87.5 3.3
DallasTexas 11/5/2019 21:00 16.1 15.3 94.95 0 0 4.5 357 1022.3 86.2 4
DallasTexas 11/5/2019 22:00 16.1 15.8 97.91 0 0 0.4 11 1022.3 94.6 2.4
DallasTexas 11/5/2019 23:00 16.2 15.5 95.9 0.05 0 4 333 1022.1 81.5 3
DallasTexas 11/6/2019 0:00 16.3 15.8 96.83 0 0 1.4 14 1021.9 83.4 3.7
DallasTexas 11/6/2019 1:00 16.5 15.7 94.61 0 0 0.7 21 1021.7 77.8 4.8
DallasTexas 11/6/2019 2:00 17.4 16.6 95.43 0 0 4 359 1021.8 95.2 7.2
DallasTexas 11/6/2019 3:00 17.6 16.9 95.37 0 0 2.7 73 1021.6 78.3 6.3
DallasTexas 11/6/2019 4:00 18.1 17.2 94.04 0 0 7.8 131 1021.4 95.1 7.7
DallasTexas 11/6/2019 5:00 18.3 17.5 95.52 0 0 7.7 137 1021.6 98.6 7.7
DallasTexas 11/6/2019 6:00 18.7 17.8 94.17 0 0 11.9 150 1022 95.4 9
DallasTexas 11/6/2019 7:00 18.6 17.5 93.07 0 0 12.2 150 1022.3 94 7.7
DallasTexas 11/6/2019 8:00 18.6 17.2 91.22 0 0 13.9 152 1022.9 86.8 11.7
DallasTexas 11/6/2019 9:00 19.1 16.4 84.12 0 0 14.9 168 1023.4 77.7 14
DallasTexas 11/6/2019 10:00 20.3 15.5 73.91 0 0 16.7 164 1023.2 94.1 15.7
DallasTexas 11/6/2019 11:00 21.8 15.4 67.01 0 0 17.4 178 1022.5 87.7 16
DallasTexas 11/6/2019 12:00 22.8 15.4 63.06 0 0 17.9 169 1021.4 72 16
DallasTexas 11/6/2019 13:00 24 16 60.85 0 0 19.6 168 1020.1 71.2 16
DallasTexas 11/6/2019 14:00 24 15.7 59.83 0 0 15.5 165 1019.2 85.2 16
DallasTexas 11/6/2019 15:00 24.3 15.7 58.68 0 0 12.3 168 1018.8 66.3 16
DallasTexas 11/6/2019 16:00 24.5 15.5 57.18 0 0 13.1 166 1018.6 67.8 16
DallasTexas 11/6/2019 17:00 23.8 15.3 58.89 0 0 16.7 153 1018.1 55.4 16
DallasTexas 11/6/2019 18:00 23.1 15.2 61.44 0 0 13.3 148 1018 50.6 16
DallasTexas 11/6/2019 19:00 22.5 15.7 65.54 0 0 7.7 148 1018.4 43.6 16
DallasTexas 11/6/2019 20:00 21.8 15.7 68.53 0 0 10.3 131 1018.3 57.7 16
DallasTexas 11/6/2019 21:00 21.3 15.9 71.5 0 0 14.9 135 1018.1 40.6 16
DallasTexas 11/6/2019 22:00 21 15.7 71.41 0 0 14.5 148 1018.1 37.7 16
DallasTexas 11/6/2019 23:00 20.8 15.6 72.02 0 0 17.2 163 1017.9 41.1 16
DallasTexas 11/7/2019 0:00 20.5 15.5 73.08 0.04 0 16.8 172 1017.5 40.8 16
DallasTexas 11/7/2019 1:00 20.4 14.8 70.15 0 0 16.8 180 1017.7 76.1 16
DallasTexas 11/7/2019 2:00 20.2 14.3 68.75 0 0 9 205 1017.9 64.7 16
DallasTexas 11/7/2019 3:00 19.8 14.2 69.83 0.03 0 13.6 260 1017.9 83.1 15.8
DallasTexas 11/7/2019 4:00 18.2 16.2 88.32 4.5 0 9.1 237 1019.5 64.3 4.9
DallasTexas 11/7/2019 5:00 17.6 16.7 94.73 3.49 0 9.1 169 1018.7 85.6 11.6
DallasTexas 11/7/2019 6:00 17.6 16.5 93.55 0.41 0 3.5 268 1019.3 77.2 10.8
DallasTexas 11/7/2019 7:00 17.6 16.5 93.7 1.08 0 8.6 280 1019.8 66.6 5.7
DallasTexas 11/7/2019 8:00 13.6 12.5 93.21 2.36 0 26.5 358 1021.8 91.8 9.3
DallasTexas 11/7/2019 9:00 11 9.6 91.28 0.98 0 29.8 336 1024.1 99 11
DallasTexas 11/7/2019 10:00 9.7 8.4 91.78 1.14 0 25.4 340 1025 93.3 12.5
DallasTexas 11/7/2019 11:00 9 7.4 89.86 0.27 0 24.6 343 1026 86.3 11.8
DallasTexas 11/7/2019 12:00 8.3 7 91.08 0.32 0 24.1 347 1026.2 95.5 4.9
DallasTexas 11/7/2019 13:00 7.9 6.5 90.66 0.02 0 28.7 353 1025.1 99.6 15.9
DallasTexas 11/7/2019 14:00 7.3 5.3 87.24 0.01 0 26.3 345 1025.5 97.2 15.9
DallasTexas 11/7/2019 15:00 6.5 4.3 86.1 0 0 26.1 351 1026.5 82.8 15.6
DallasTexas 11/7/2019 16:00 6 4 87.47 0 0 27.5 340 1027.1 97.3 14.7
DallasTexas 11/7/2019 17:00 5.7 3.5 85.36 0 0 26.7 353 1027.6 97.3 14
DallasTexas 11/7/2019 18:00 6.2 3.5 82.87 0 0 20.6 2 1027.7 97.2 15.9
DallasTexas 11/7/2019 19:00 6.3 3.5 82.61 0 0 19.9 351 1028.5 97.3 15.4
DallasTexas 11/7/2019 20:00 6.7 3.9 82.19 0 0 19.5 352 1029.3 97.3 15.3
DallasTexas 11/7/2019 21:00 6.7 3.5 80.21 0 0 20 6 1029.3 100 15.8
DallasTexas 11/7/2019 22:00 6.5 3.5 81.38 0 0 23.4 1 1029.8 100 15.9
DallasTexas 11/7/2019 23:00 6.3 3.5 82.01 0 0 17.3 7 1030 100 14.9
DallasTexas 11/8/2019 0:00 6.3 3.5 82.07 0 0 15.9 358 1030.2 100 13.7
DallasTexas 11/8/2019 1:00 6.1 3.4 82.99 0 0 16.4 358 1029.8 98.1 12.5
DallasTexas 11/8/2019 2:00 6.2 2.7 78.46 0 0 14.7 360 1029.6 99.2 15.9
DallasTexas 11/8/2019 3:00 5.9 2.4 78.16 0 0 16.9 7 1029.5 100 15.9
DallasTexas 11/8/2019 4:00 5.8 2.5 79.47 0 0 13.1 5 1029.7 100 15.9
DallasTexas 11/8/2019 5:00 5.5 3 83.96 0 0 15.1 12 1029.5 100 15.1
DallasTexas 11/8/2019 6:00 5.6 3 83.27 0 0 8.6 349 1030.3 98.3 15.1
DallasTexas 11/8/2019 7:00 5.6 3.2 84.2 0 0 13.2 353 1030.6 99.2 13.9
DallasTexas 11/8/2019 8:00 5.7 3.1 83.52 0 0 13.9 360 1030.9 95.6 14
DallasTexas 11/8/2019 9:00 6.3 2.7 77.56 0 0 15.1 8 1031.1 75.2 15
DallasTexas 11/8/2019 10:00 7.2 2.4 71.6 0 0 15.9 15 1031.2 62.4 15.9
DallasTexas 11/8/2019 11:00 8.3 2.2 65.7 0 0 14.8 31 1031 27.2 15.9
DallasTexas 11/8/2019 12:00 9.9 1.6 56.45 0 0 11.2 6 1030.1 31 16
DallasTexas 11/8/2019 13:00 11.1 1.5 51.52 0 0 10.1 4 1028.7 29.9 16
DallasTexas 11/8/2019 14:00 11.8 1.5 49.07 0 0 7.1 18 1027.6 27.8 15.9
DallasTexas 11/8/2019 15:00 12.6 1.5 46.87 0 0 11.3 355 1027.4 27.8 16
DallasTexas 11/8/2019 16:00 13.1 1.2 44.52 0 0 5.7 322 1026.8 29.7 16
DallasTexas 11/8/2019 17:00 12.1 1.2 47.11 0 0 4.5 66 1026.6 27.3 16
DallasTexas 11/8/2019 18:00 10.4 2 55.92 0 0 4.5 68 1026.7 19.1 16
DallasTexas 11/8/2019 19:00 8.9 2.4 63.71 0 0 4.6 61 1027.2 13.5 16
DallasTexas 11/8/2019 20:00 8.4 2.5 66.25 0 0 0.5 6 1027.4 13.7 14.4
DallasTexas 11/8/2019 21:00 7.1 3 75.4 0 0 1.4 326 1027.4 13.5 13.3
DallasTexas 11/8/2019 22:00 6.4 3 78.7 0 0 0.5 348 1027.6 13.5 15.5
DallasTexas 11/8/2019 23:00 6.3 2.7 77.99 0 0 5.5 73 1027.3 13.5 15.9
DallasTexas 11/9/2019 0:00 6.1 2.2 76.19 0 0 6.5 89 1026.8 13.5 15.9
DallasTexas 11/9/2019 1:00 6 1.8 74.42 0 0 6.4 87 1026.3 11.8 15.7
DallasTexas 11/9/2019 2:00 5.7 1.6 74.85 0 0 5.1 101 1025.9 0 15.9
DallasTexas 11/9/2019 3:00 5.1 1.3 76.93 0 0 2.7 287 1025.7 0 15.8
DallasTexas 11/9/2019 4:00 4.8 1.3 77.9 0 0 2.6 279 1025.4 0 15.8
DallasTexas 11/9/2019 5:00 4.3 1.4 81.06 0 0 3.1 282 1025.4 17.5 15.5
DallasTexas 11/9/2019 6:00 4.7 0.8 76.18 0 0 4.9 20 1025.3 27.4 14.8
DallasTexas 11/9/2019 7:00 4.5 1.1 78.73 0 0 3.7 293 1025.9 36.2 16
DallasTexas 11/9/2019 8:00 6.4 1.9 73 0 0 8.1 15 1025.7 36.1 16
DallasTexas 11/9/2019 9:00 8.8 2.4 64.01 0 0 10.1 180 1025.9 16.3 16
DallasTexas 11/9/2019 10:00 11.6 3 55.7 0 0 8.2 226 1025.9 14.3 16
DallasTexas 11/9/2019 11:00 13.9 4.2 51.93 0 0 10.1 227 1025.2 1.8 16
DallasTexas 11/9/2019 12:00 15.9 5.3 49.65 0 0 10.4 235 1024.2 0 15.9
DallasTexas 11/9/2019 13:00 17.4 6.7 49.33 0 0 11 205 1022.6 0 15.9
DallasTexas 11/9/2019 14:00 18.5 7.6 48.9 0 0 7.6 188 1021.6 0 15.9
DallasTexas 11/9/2019 15:00 19.5 8.3 48.17 0 0 12.3 188 1020.8 0 16
DallasTexas 11/9/2019 16:00 19.7 8.5 48.29 0 0 10 192 1020.5 0 16
DallasTexas 11/9/2019 17:00 18.7 8.6 51.76 0 0 9.9 177 1020.1 0 16
DallasTexas 11/9/2019 18:00 16.6 8.5 58.75 0 0 8.1 167 1019.9 13.9 16
DallasTexas 11/9/2019 19:00 15.1 8.6 65 0 0 9.4 150 1020.2 11.8 16
DallasTexas 11/9/2019 20:00 14.4 7.9 64.9 0 0 11.4 161 1020.2 0 16
DallasTexas 11/9/2019 21:00 13.7 7.3 65.48 0.02 0 12.6 178 1020.1 0 16
DallasTexas 11/9/2019 22:00 13.3 7.7 68.94 0 0 12.1 181 1020.1 13.5 16
DallasTexas 11/9/2019 23:00 12.7 7.7 71.56 0 0 9.8 237 1020 13.5 16
DallasTexas 11/10/2019 0:00 12 7.7 74.68 0 0 11.3 42 1020 21.5 16
DallasTexas 11/10/2019 1:00 11.4 7.5 76.88 0 0 7.6 47 1019.8 38.3 16
DallasTexas 11/10/2019 2:00 10.6 7.3 80.07 0 0 8.6 141 1019.4 21.5 16
DallasTexas 11/10/2019 3:00 10.5 7.2 79.79 0 0 10.4 24 1018.8 38.3 16
DallasTexas 11/10/2019 4:00 10.6 7.1 79.35 0 0 10.3 168 1018.7 39.5 16
DallasTexas 11/10/2019 5:00 10.3 7.1 80.93 0 0 9.8 168 1018.6 38.3 16
DallasTexas 11/10/2019 6:00 9.2 7.1 86.7 0 0 8.4 17 1018.8 23.2 15.9
DallasTexas 11/10/2019 7:00 9.2 7.2 86.98 0 0 7.9 348 1018.9 38.3 15.7
DallasTexas 11/10/2019 8:00 10.9 7.9 81.62 0 0 9.6 3 1019.4 24.1 16
DallasTexas 11/10/2019 9:00 13.5 8.9 73.7 0 0 13.5 174 1019.2 34.6 16
DallasTexas 11/10/2019 10:00 16.8 9.7 62.87 0 0 13.4 184 1018.9 34.7 16
DallasTexas 11/10/2019 11:00 19.2 10.5 57.17 0 0 13.6 188 1018.1 24.9 16
DallasTexas 11/10/2019 12:00 21.6 10.5 49.07 0 0 16.9 186 1016.9 24.3 16
DallasTexas 11/10/2019 13:00 22.7 10.4 45.72 0 0 20.6 164 1015.4 24.1 16
DallasTexas 11/10/2019 14:00 22.9 10 43.99 0 0 24.7 170 1014.3 24.1 16
DallasTexas 11/10/2019 15:00 22.9 9.8 43.2 0 0 24.8 165 1013.7 24.1 16
DallasTexas 11/10/2019 16:00 22.3 9.4 43.69 0 0 21 166 1013.5 29.7 16
DallasTexas 11/10/2019 17:00 21.2 8.7 44.68 0 0 18.6 163 1013.3 30.7 16
DallasTexas 11/10/2019 18:00 20.2 8.3 46.46 0 0 19.5 158 1013.2 25.6 16
DallasTexas 11/10/2019 19:00 19 8 48.74 0 0 15.6 158 1013.2 27.8 16
DallasTexas 11/10/2019 20:00 18.3 8.1 51.56 0 0 19.5 163 1013.1 42 16
DallasTexas 11/10/2019 21:00 18 8.9 55.19 0 0 21.1 163 1012.8 29.7 16
DallasTexas 11/10/2019 22:00 17.7 9.9 60.37 0 0 21.5 171 1012.6 38.1 16
DallasTexas 11/10/2019 23:00 17.5 11.1 66.41 0 0 20.4 168 1012.1 49.1 16
DallasTexas 11/11/2019 0:00 17.3 11.7 69.99 0 0 21.2 178 1012.1 50.9 16
DallasTexas 11/11/2019 1:00 17.1 12.2 73.12 0 0 17.1 179 1011.7 32.8 16
DallasTexas 11/11/2019 2:00 16.7 12.8 77.71 0 0 14.3 174 1011.5 48.3 16
DallasTexas 11/11/2019 3:00 16.5 12.9 79.3 0 0 14.7 170 1011.4 53.9 16
DallasTexas 11/11/2019 4:00 16.7 13.4 80.9 0 0 14.2 170 1011.3 65.7 16
DallasTexas 11/11/2019 5:00 17.1 13.8 81.11 0 0 14.4 173 1011.3 81.4 16
DallasTexas 11/11/2019 6:00 17.5 13.9 79.79 0 0 14.2 172 1011.5 98.7 16
DallasTexas 11/11/2019 7:00 17.7 14.3 80.56 0 0 12.6 176 1012.2 97.4 16
DallasTexas 11/11/2019 8:00 17.8 14.4 80.67 0 0 9.2 180 1013.4 94.5 16
DallasTexas 11/11/2019 9:00 18.6 14.9 79.52 0 0 10.2 202 1013.9 91.6 16
DallasTexas 11/11/2019 10:00 18.8 15 78.46 0 0 13.7 238 1014.8 85.5 16
DallasTexas 11/11/2019 11:00 10.9 9 88.54 0.02 0 44.5 324 1017.8 92.6 4.9
DallasTexas 11/11/2019 12:00 6.6 4.8 88.37 0.05 0 40.5 336 1020.6 99.1 5.6
DallasTexas 11/11/2019 13:00 5.2 3.5 88.37 0.11 0 40.2 338 1022.3 80.4 7.5
DallasTexas 11/11/2019 14:00 3.8 1.5 85.06 0 0 41.8 338 1023.7 96.4 12.9
DallasTexas 11/11/2019 15:00 2.8 -0.5 78.83 0 0 37.7 345 1024.8 98.6 15.6
DallasTexas 11/11/2019 16:00 2.5 -0.9 78.45 0 0 38 341 1026 98.2 16
DallasTexas 11/11/2019 17:00 1.5 -2.2 76.31 0 0 40 351 1027.3 99.6 16
DallasTexas 11/11/2019 18:00 0.9 -3.4 72.49 0 0 33 347 1029.1 100 16
DallasTexas 11/11/2019 19:00 0.9 -4.8 65.94 0 0 37.6 346 1030.6 86.9 16
DallasTexas 11/11/2019 20:00 0.4 -5.7 63.81 0 0 41 350 1031.8 85.1 16
DallasTexas 11/11/2019 21:00 -0.2 -6.4 62.68 0 0 39.6 348 1032.8 75.4 16
DallasTexas 11/11/2019 22:00 -0.3 -6.9 60.95 0 0 31.7 355 1033.8 78.4 16
DallasTexas 11/11/2019 23:00 -0.8 -7.8 59.09 0 0 34.7 347 1034.8 71.6 16
DallasTexas 11/12/2019 0:00 -1.3 -8.8 56.74 0 0 32.7 360 1035.2 35.8 16
DallasTexas 11/12/2019 1:00 -1.8 -9.5 55.88 0 0 30.8 354 1035.3 35.1 16
DallasTexas 11/12/2019 2:00 -2.4 -9.6 57.76 0 0 31 355 1035.8 28.1 16
DallasTexas 11/12/2019 3:00 -3.4 -10.1 59.74 0 0 30 355 1036.2 26.3 16
DallasTexas 11/12/2019 4:00 -4 -10.5 60.66 0 0 29 353 1036.5 23.3 16
DallasTexas 11/12/2019 5:00 -4.6 -10.7 62.03 0 0 27.4 349 1037.1 23.3 16
DallasTexas 11/12/2019 6:00 -5.1 -11 63.06 0 0 23.4 353 1037.6 43.9 16
DallasTexas 11/12/2019 7:00 -5.2 -11.3 62.26 0 0 25.2 344 1038 43.9 16
DallasTexas 11/12/2019 8:00 -4.5 -11.5 57.79 0 0 24 350 1038.1 24.7 16
DallasTexas 11/12/2019 9:00 -3.4 -11.9 51.51 0 0 26.2 355 1038.4 24.7 16
DallasTexas 11/12/2019 10:00 -1.9 -12.1 45.66 0 0 22.6 347 1038.7 45 16
DallasTexas 11/12/2019 11:00 -0.4 -11.8 41.99 0 0 20.7 345 1038.3 43.9 16
DallasTexas 11/12/2019 12:00 0.4 -12 39.01 0 0 22 357 1037.1 24.7 16
DallasTexas 11/12/2019 13:00 1.8 -11.6 36.33 0 0 16.7 358 1035.5 24.7 16
DallasTexas 11/12/2019 14:00 2.8 -11.6 33.99 0 0 17.5 351 1034.7 43.9 16
DallasTexas 11/12/2019 15:00 3.4 -11.6 32.25 0 0 14.4 340 1033.8 43.9 16
DallasTexas 11/12/2019 16:00 3.1 -11.5 33.35 0 0 11.5 346 1032.8 43.9 16
DallasTexas 11/12/2019 17:00 2.3 -11.1 36.22 0 0 10.9 341 1032.4 43.9 16
DallasTexas 11/12/2019 18:00 1.2 -10.4 41.61 0 0 5.9 347 1032.2 43.9 16
DallasTexas 11/12/2019 19:00 1.1 -9.4 45.57 0 0 4.4 343 1031.7 44.6 16
DallasTexas 11/12/2019 20:00 0.3 -8.5 51.56 0 0 5.4 13 1031.7 43.9 16
DallasTexas 11/12/2019 21:00 -0.5 -8.5 54.73 0 0 3.6 30 1031 43.9 16
DallasTexas 11/12/2019 22:00 -1.4 -7.9 61.35 0 0 2.5 40 1031.2 43.9 16
DallasTexas 11/12/2019 23:00 -1.7 -7.5 64.77 0 0 4.3 89 1030.4 43.9 16
DallasTexas 11/13/2019 0:00 -2.1 -7.7 65.75 0 0 5.2 86 1029.4 27.2 16
DallasTexas 11/13/2019 1:00 -2.2 -8.2 63.26 0 0 4.6 16 1028.9 15 16
DallasTexas 11/13/2019 2:00 -3.4 -7.9 71.29 0 0 2.5 73 1028.5 23.3 16
DallasTexas 11/13/2019 3:00 -3.3 -8.4 67.61 0 0 5.9 5 1027.7 27.2 16
DallasTexas 11/13/2019 4:00 -2.9 -9.2 61.89 0 0 7.2 27 1027.6 27.2 16
DallasTexas 11/13/2019 5:00 -3.2 -9 64.08 0 0 8.5 154 1027.3 17.4 16
DallasTexas 11/13/2019 6:00 -3.7 -8.6 69.18 0 0 6.5 123 1026.9 27.2 16
DallasTexas 11/13/2019 7:00 -3.3 -8.8 65.62 0 0 9.7 106 1026.4 43.9 16
DallasTexas 11/13/2019 8:00 -1.9 -8 63.07 0 0 14.7 160 1026 43.9 16
DallasTexas 11/13/2019 9:00 0 -7.6 56.73 0 0 17.8 160 1025.8 43.9 16
DallasTexas 11/13/2019 10:00 1.9 -7.8 48.62 0 0 20.9 154 1025.3 43.9 16
DallasTexas 11/13/2019 11:00 3.5 -7.6 44.05 0 0 18.6 164 1024.7 29.7 16
DallasTexas 11/13/2019 12:00 4.6 -7.7 40.44 0 0 17.8 163 1023.6 29.7 16
DallasTexas 11/13/2019 13:00 6.4 -7.6 36.05 0 0 15.8 158 1021.8 29.7 16
DallasTexas 11/13/2019 14:00 7.1 -7.7 33.95 0 0 17.8 162 1020.7 27.8 16
DallasTexas 11/13/2019 15:00 10.2 -7.4 28.15 0 0 15.8 171 1019.8 28.6 16
DallasTexas 11/13/2019 16:00 7.6 -6.9 34.99 0 0 16.2 163 1019.8 39.2 16
DallasTexas 11/13/2019 17:00 7.4 -7.7 33.39 0 0 18.1 169 1019.6 46.9 16
DallasTexas 11/13/2019 18:00 6.7 -6.6 38.17 0 0 16.2 169 1019.9 89.4 16
DallasTexas 11/13/2019 19:00 5.8 -5.7 43.36 0 0 18.5 174 1020 71.9 16
DallasTexas 11/13/2019 20:00 5.3 -3.9 51.47 0 0 13.6 161 1020.3 75.6 16
DallasTexas 11/13/2019 21:00 4.8 -2.6 58.51 0 0 14.3 153 1020.9 100 16
DallasTexas 11/13/2019 22:00 4.8 -2.4 59.67 0 0 16.7 153 1021.3 100 16
DallasTexas 11/13/2019 23:00 4.8 -1.9 61.85 0 0 15.3 152 1021 95.6 16
DallasTexas 11/14/2019 0:00 4.7 -1.5 64.41 0 0 11.1 182 1021.4 96.6 16
DallasTexas 11/14/2019 1:00 4.7 -1.4 64.37 0 0 8.7 103 1021.7 99.5 16
DallasTexas 11/14/2019 2:00 4.8 -1.4 64.49 0 0 9.4 144 1022 98.3 16
DallasTexas 11/14/2019 3:00 4.8 -1.3 64.75 0 0 8.6 152 1022 96.4 16
DallasTexas 11/14/2019 4:00 4.9 -1.2 64.72 0 0 6.1 157 1022.4 96.4 16
DallasTexas 11/14/2019 5:00 5 -1.1 64.79 0 0 3.4 119 1023 93.8 16
DallasTexas 11/14/2019 6:00 5.3 -0.8 64.78 0 0 0.8 5 1023.5 94.5 16
DallasTexas 11/14/2019 7:00 5.4 -0.7 64.75 0 0 1.3 15 1024.3 91.6 16
DallasTexas 11/14/2019 8:00 5.8 -0.6 63.3 0 0 3.6 20 1025.2 58.8 16
DallasTexas 11/14/2019 9:00 6.8 -0.7 58.57 0 0 5.6 350 1026.2 51.8 16
DallasTexas 11/14/2019 10:00 8.4 -0.8 52.55 0 0 11.7 357 1027.2 54 16
DallasTexas 11/14/2019 11:00 9.6 -1.2 46.59 0 0 17.4 1 1027.3 22.3 16
DallasTexas 11/14/2019 12:00 10.8 -1.8 41.29 0 0 18.6 357 1026.9 15.6 16
DallasTexas 11/14/2019 13:00 11.7 -2.7 36.41 0 0 17.9 28 1026.3 13.5 16
DallasTexas 11/14/2019 14:00 13.2 -2.9 32.41 0 0 14.9 8 1025.4 13.5 16
DallasTexas 11/14/2019 15:00 14.1 -2.6 31.45 0 0 15.6 2 1025.5 0 16
DallasTexas 11/14/2019 16:00 14.2 -1.9 32.94 0 0 15.8 353 1025.8 0 16
DallasTexas 11/14/2019 17:00 13.3 -1 37.33 0 0 13.1 359 1026.2 0 15.6
DallasTexas 11/14/2019 18:00 11.2 -0.3 44.83 0 0 12.4 354 1026.9 0 16
DallasTexas 11/14/2019 19:00 10.1 -0.1 49.25 0 0 10.5 358 1027.6 0 16
DallasTexas 11/14/2019 20:00 9 0 53.42 0 0 8.5 5 1027.9 0 16
DallasTexas 11/14/2019 21:00 8 0.1 57.41 0 0 7 360 1028.4 0 16
DallasTexas 11/14/2019 22:00 7.2 0.1 60.47 0 0 8.3 11 1028.8 0 16
DallasTexas 11/14/2019 23:00 6.8 0 61.96 0 0 7.3 7 1029.1 0 16
DallasTexas 11/15/2019 0:00 5.8 0 66.24 0 0 3.6 360 1029.3 0 16
DallasTexas 11/15/2019 1:00 4.4 -0.2 71.97 0 0 8.4 336 1029.7 0 16
DallasTexas 11/15/2019 2:00 3.8 -0.3 74.61 0 0 6.6 360 1029.5 0 15.9
DallasTexas 11/15/2019 3:00 3.4 -0.3 76.74 0 0 7.1 341 1029.7 0 15.5
DallasTexas 11/15/2019 4:00 2.6 -0.2 81.92 0 0 7.5 346 1029.9 0 16
DallasTexas 11/15/2019 5:00 2.4 -0.5 80.84 0 0 7 347 1029.8 0 16
DallasTexas 11/15/2019 6:00 2.2 -0.6 81.9 0 0 3.7 338 1030 0 16
DallasTexas 11/15/2019 7:00 2 -0.6 82.43 0 0 3.6 343 1029.9 0 15.8
DallasTexas 11/15/2019 8:00 4.1 0.9 80.14 0 0 2.7 346 1030.5 0 14.7
DallasTexas 11/15/2019 9:00 7.6 1.2 63.87 0 0 3.5 359 1030.6 0 15.9
DallasTexas 11/15/2019 10:00 10.4 0.3 49.53 0 0 4.3 33 1030.4 0 15.1
DallasTexas 11/15/2019 11:00 12.8 -1.9 36.07 0 0 7.3 28 1030.2 0 16
DallasTexas 11/15/2019 12:00 13.9 -1.9 33.63 0 0 6.3 38 1029.3 0 16
DallasTexas 11/15/2019 13:00 14.9 -2.2 30.89 0 0 4.2 355 1028 0 15.5
DallasTexas 11/15/2019 14:00 15.6 -2.5 28.86 0 0 7.2 349 1027.1 0 16
DallasTexas 11/15/2019 15:00 15.9 -2.2 28.71 0 0 3.9 8 1026.3 0 16
DallasTexas 11/15/2019 16:00 16 -2.3 28.5 0 0 1.1 6 1025.9 0 16
DallasTexas 11/15/2019 17:00 15.2 -2 30.74 0 0 1.7 11 1025.7 0 15.5
DallasTexas 11/15/2019 18:00 11.7 -1 41.12 0 0 4.8 333 1025.8 1.8 15.8
DallasTexas 11/15/2019 19:00 10.4 -0.9 45.53 0 0 1.9 47 1025.7 0 16
DallasTexas 11/15/2019 20:00 8.1 -0.2 55.76 0 0 1.5 68 1025.6 0 16
DallasTexas 11/15/2019 21:00 6.5 -0.1 62.64 0 0 0.5 19 1025.8 1.8 16
DallasTexas 11/15/2019 22:00 5.5 0 67.47 0 0 1.9 321 1025.6 1.8 15.9
DallasTexas 11/15/2019 23:00 5 -0.1 69.42 0 0 2 48 1025.6 3.2 15.8
DallasTexas 11/16/2019 0:00 5.1 -0.2 68.38 0 0 2.1 305 1025.5 1.8 16
DallasTexas 11/16/2019 1:00 4.3 -0.7 69.87 0 0 4.1 104 1025.1 1.8 16
DallasTexas 11/16/2019 2:00 4.4 -0.8 69.02 0 0 5.7 94 1024.7 1.8 16
DallasTexas 11/16/2019 3:00 4.5 -1.1 66.99 0 0 4.2 100 1024.4 1.8 16
DallasTexas 11/16/2019 4:00 3.8 -1.1 70.32 0 0 2.1 62 1024.3 1.8 16
DallasTexas 11/16/2019 5:00 3 -1.2 74.11 0 0 2.6 67 1024.2 1.8 16
DallasTexas 11/16/2019 6:00 2.9 -1.3 74.15 0 0 3 80 1024.2 13.5 16
DallasTexas 11/16/2019 7:00 2.9 -0.9 76.03 0 0 2.3 305 1024.5 41.5 15.9
DallasTexas 11/16/2019 8:00 4.7 0.5 74.06 0 0 3.4 50 1025 19.1 16
DallasTexas 11/16/2019 9:00 8.7 1.8 62.03 0 0 11.5 158 1025 24.7 16
DallasTexas 11/16/2019 10:00 11.7 2.1 51.88 0 0 15.6 159 1024.8 43.9 16
DallasTexas 11/16/2019 11:00 13.7 2 44.97 0 0 15.8 159 1024 43.9 16
DallasTexas 11/16/2019 12:00 15 1.6 40.32 0 0 13.9 146 1022.8 43.9 16
DallasTexas 11/16/2019 13:00 16.2 1.3 36.49 0 0 11.9 143 1021.4 43.9 16
DallasTexas 11/16/2019 14:00 16.4 1 35.35 0 0 11.7 149 1020.1 45 16
DallasTexas 11/16/2019 15:00 16.8 0.8 33.79 0 0 12.6 147 1019.5 43 16
DallasTexas 11/16/2019 16:00 17 0.9 33.57 0 0 14.2 147 1019.1 29.9 16
DallasTexas 11/16/2019 17:00 15.9 0.8 36.04 0 0 14.1 136 1019.1 27.8 16
DallasTexas 11/16/2019 18:00 13.4 0.9 42.29 0 0 10.3 125 1019 27.8 16
DallasTexas 11/16/2019 19:00 12.1 0.8 45.84 0 0 10.7 128 1018.8 30.4 16
DallasTexas 11/16/2019 20:00 11.6 0.4 46.04 0 0 11.5 151 1018.5 32.5 16
DallasTexas 11/16/2019 21:00 11.3 0.9 48.62 0 0 12.6 154 1018.4 48.7 16
DallasTexas 11/16/2019 22:00 10.4 1.1 52.61 0 0 10.3 151 1018.6 30.6 16
DallasTexas 11/16/2019 23:00 8.8 1.1 58.42 0 0 10.1 137 1017.9 27.8 16
DallasTexas 11/17/2019 0:00 9 1 57.35 0 0 12.2 141 1017.6 21.5 16
DallasTexas 11/17/2019 1:00 8.1 0.8 60.11 0 0 8.8 135 1017.9 43.9 16
DallasTexas 11/17/2019 2:00 7.4 1.1 64.29 0 0 4.9 125 1018.1 42.8 16
DallasTexas 11/17/2019 3:00 6.3 1 68.77 0 0 6.6 110 1017.8 27.2 16
DallasTexas 11/17/2019 4:00 5.7 0.9 70.98 0 0 5.3 97 1017.5 14.2 16
DallasTexas 11/17/2019 5:00 5.5 0.9 71.97 0 0 7 108 1017.4 13.5 16
DallasTexas 11/17/2019 6:00 5.3 0.9 73.44 0 0 5.4 73 1017.4 13.5 16
DallasTexas 11/17/2019 7:00 4.7 0.9 75.94 0 0 4.8 112 1017.9 15.5 16
DallasTexas 11/17/2019 8:00 6.2 1.6 72.35 0 0 7.2 127 1018.2 13.5 16
DallasTexas 11/17/2019 9:00 9 2.7 64.62 0 0 12.5 12 1018 13.5 16
DallasTexas 11/17/2019 10:00 12.7 4.4 56.87 0 0 9.4 201 1018 13.5 16
DallasTexas 11/17/2019 11:00 16.3 5.8 49.79 0 0 12.1 223 1017.4 13.5 16
DallasTexas 11/17/2019 12:00 17.6 5.5 44.8 0 0 10.5 267 1016.7 13.5 16
DallasTexas 11/17/2019 13:00 18.9 5.1 40.2 0 0 10.1 313 1015.8 14.4 16
DallasTexas 11/17/2019 14:00 19.4 4.8 38.29 0 0 3.7 332 1014.7 2.6 16
DallasTexas 11/17/2019 15:00 19.7 5.2 38.56 0 0 10.4 296 1014.4 1.8 16
DallasTexas 11/17/2019 16:00 19.8 5.1 38.09 0 0 13.8 316 1014.4 13.5 16
DallasTexas 11/17/2019 17:00 18.4 5.4 42.42 0 0 11 341 1014.9 13.5 16
DallasTexas 11/17/2019 18:00 15.9 5 48.26 0 0 6.7 342 1015.3 13.5 16
DallasTexas 11/17/2019 19:00 14.2 5 53.93 0 0 7.3 344 1016.2 11.8 15.9
DallasTexas 11/17/2019 20:00 14 4.9 54.38 0 0 7.5 333 1016.3 11.9 14.4
DallasTexas 11/17/2019 21:00 12 5.1 62.87 0 0 7.7 344 1016.7 0 15.5
DallasTexas 11/17/2019 22:00 10.7 4.7 66.41 0 0 4.8 324 1016.6 0 13.6
DallasTexas 11/17/2019 23:00 10.2 4.5 67.73 0 0 7.8 335 1016.5 0 16
DallasTexas 11/18/2019 0:00 9.6 4 68.2 0 0 7.8 343 1016.1 0 16
DallasTexas 11/18/2019 1:00 8.2 3.8 74.15 0 0 6.2 333 1015.7 0 16
DallasTexas 11/18/2019 2:00 7.8 3.3 73.31 0 0 6.8 303 1015.7 0 14.8
DallasTexas 11/18/2019 3:00 6.8 3.1 76.98 0 0 3.5 328 1015.5 0 14
DallasTexas 11/18/2019 4:00 6.5 2.9 77.54 0 0 3.8 314 1015.3 11.8 13.3
DallasTexas 11/18/2019 5:00 5.8 2.6 79.64 0 0 4 302 1015.2 11.8 14.5
DallasTexas 11/18/2019 6:00 6 2.6 78.64 0 0 3.3 307 1015.5 13.5 12.7
DallasTexas 11/18/2019 7:00 5.2 2.2 80.53 0 0 1.6 300 1015.7 13.5 15.9
DallasTexas 11/18/2019 8:00 7.8 3.5 74.4 0 0 2.2 322 1016.1 13.5 16
DallasTexas 11/18/2019 9:00 11.5 3.8 59.2 0 0 1.8 294 1016.1 13.5 14
DallasTexas 11/18/2019 10:00 14.6 2.3 43.46 0 0 3.1 51 1015.8 13.5 16
DallasTexas 11/18/2019 11:00 17.1 1.7 35.41 0 0 5.2 31 1015.4 13.7 14.7
DallasTexas 11/18/2019 12:00 19.3 1.1 29.7 0 0 6.6 247 1014.5 0 16
DallasTexas 11/18/2019 13:00 20.4 1.2 27.88 0 0 5.8 274 1013.1 11.8 15.9
DallasTexas 11/18/2019 14:00 21.6 1.4 26.36 0 0 10.7 239 1011.8 11.8 16
DallasTexas 11/18/2019 15:00 21.9 1.9 26.73 0 0 10.9 212 1010.9 11.8 16
DallasTexas 11/18/2019 16:00 22 2.1 26.9 0 0 11.7 225 1010.3 11.8 15.5
DallasTexas 11/18/2019 17:00 21.2 2.3 28.55 0 0 9.7 209 1010.6 11.8 16
DallasTexas 11/18/2019 18:00 19 2.6 33.49 0 0 7.5 224 1011.1 11.8 16
DallasTexas 11/18/2019 19:00 17.5 2.7 36.93 0 0 6.4 221 1011.6 0 16
DallasTexas 11/18/2019 20:00 16.3 3.1 41.25 0 0 8.1 203 1011.8 0 16
DallasTexas 11/18/2019 21:00 15.7 2.9 42.45 0 0 6.1 205 1012.2 0 16
DallasTexas 11/18/2019 22:00 13.7 3.2 49 0 0 4.5 263 1012.4 0 16
DallasTexas 11/18/2019 23:00 12.1 3.4 55.29 0 0 3.2 272 1012.4 11.8 16
DallasTexas 11/19/2019 0:00 11.8 3.7 57.84 0 0 3.4 270 1012.8 11.8 16
DallasTexas 11/19/2019 1:00 12.9 3.6 53.07 0 0 7.2 236 1012.8 23.3 16
DallasTexas 11/19/2019 2:00 12.3 3.6 55.37 0 0 6.9 239 1012.7 24.7 16
DallasTexas 11/19/2019 3:00 11.7 3.7 58.2 0 0 4.7 307 1012.8 13.5 16
DallasTexas 11/19/2019 4:00 9.7 3.7 66.13 0 0 1.1 32 1012.6 0 16
DallasTexas 11/19/2019 5:00 9.7 4.1 67.94 0 0 3.7 304 1013.2 0 16
DallasTexas 11/19/2019 6:00 9.5 4.2 69.28 0 0 3 307 1013.2 13.5 16
DallasTexas 11/19/2019 7:00 8.9 4.2 72.37 0 0 2.6 319 1014.2 13.5 16
DallasTexas 11/19/2019 8:00 11.4 5.4 66.62 0 0 1.8 333 1015 13.5 14.8
DallasTexas 11/19/2019 9:00 14.8 5.9 55.43 0 0 0.1 356 1015.3 13.5 16
DallasTexas 11/19/2019 10:00 18.7 5.8 42.91 0 0 2.5 7 1015.2 13.5 16
DallasTexas 11/19/2019 11:00 21.8 5.8 35.26 0 0 2.6 17 1014.9 13.5 16
DallasTexas 11/19/2019 12:00 24 5.1 29.62 0 0 8.5 79 1014.1 13.5 15.9
DallasTexas 11/19/2019 13:00 25.5 5.5 27.72 0 0 10.5 119 1013 25.3 16
DallasTexas 11/19/2019 14:00 25.9 4.6 25.44 0 0 15.7 147 1012.3 21.5 16
DallasTexas 11/19/2019 15:00 26.5 4.4 24.17 0 0 16.3 167 1012.1 21.5 16
DallasTexas 11/19/2019 16:00 26.2 4.8 25.27 0 0 14.7 161 1012 19.6 16
DallasTexas 11/19/2019 17:00 24.9 5.6 28.83 0 0 14.7 154 1011.7 15.5 16
DallasTexas 11/19/2019 18:00 22 5.9 35.09 0 0 11.3 150 1011.9 13.5 16
DallasTexas 11/19/2019 19:00 21 6.2 38.15 0 0 13.8 159 1012.3 0 16
DallasTexas 11/19/2019 20:00 19.9 6.6 41.98 0 0 13.2 159 1012.4 0 16
DallasTexas 11/19/2019 21:00 19.2 8 48.31 0 0 17.2 170 1012.8 11.8 16
DallasTexas 11/19/2019 22:00 18.4 9 54.36 0 0 16.7 165 1013 11.8 16
DallasTexas 11/19/2019 23:00 18 9.9 59.03 0 0 18.5 169 1012.8 11.8 16
DallasTexas 11/20/2019 0:00 17.2 9.5 60.49 0 0 18.4 168 1013.1 41.5 16
DallasTexas 11/20/2019 1:00 16.4 9.6 64.11 0 0 16.3 162 1013.2 21.5 16
DallasTexas 11/20/2019 2:00 15.9 10.1 68.37 0 0 15.5 167 1013.3 37.3 16
DallasTexas 11/20/2019 3:00 15.1 11.1 76.55 0 0 15.4 160 1013.4 44.2 16
DallasTexas 11/20/2019 4:00 14.9 11.9 82.04 0 0 15.9 150 1013.4 53.1 15.9
DallasTexas 11/20/2019 5:00 14.7 12.3 85.54 0 0 14 154 1013.5 80.1 15.8
DallasTexas 11/20/2019 6:00 15.4 13.1 86.41 0 0 16.1 146 1013.3 78.3 13.3
DallasTexas 11/20/2019 7:00 15.7 13.8 88.32 0 0 16.9 152 1013.6 98.5 9.9
DallasTexas 11/20/2019 8:00 15.7 14.1 89.88 0 0 17.1 153 1014.2 98.9 4.5
DallasTexas 11/20/2019 9:00 16.2 14.6 89.93 0 0 16.5 154 1014.3 99.2 3.6
DallasTexas 11/20/2019 10:00 17.2 15.5 89.5 0 0 18.1 163 1014.7 99.9 4.6
DallasTexas 11/20/2019 11:00 18.4 16 86.22 0 0 17.6 153 1014.3 100 7.9
DallasTexas 11/20/2019 12:00 20.2 16.5 79.47 0 0 22 161 1012.7 95.9 12.3
DallasTexas 11/20/2019 13:00 22.4 16.7 70.3 0 0 26.5 168 1011.1 90.6 16
DallasTexas 11/20/2019 14:00 24 16.2 61.8 0 0 33 180 1010.8 72.8 16
DallasTexas 11/20/2019 15:00 24.9 15.7 56.69 0 0 28.7 174 1010.3 78 16
DallasTexas 11/20/2019 16:00 25.3 15.1 53.09 0 0 27.4 173 1010 46 16
DallasTexas 11/20/2019 17:00 24.8 15 54.68 0 0 22.1 166 1010.2 45.7 16
DallasTexas 11/20/2019 18:00 24.4 15.1 56.44 0 0 17.9 151 1010.8 77.3 16
DallasTexas 11/20/2019 19:00 23.5 15.7 61.84 0 0 17.5 142 1011.7 67.1 16
DallasTexas 11/20/2019 20:00 22.9 16.1 65.58 0 0 19.6 147 1012.4 70.1 16
DallasTexas 11/20/2019 21:00 22.5 16.2 67.62 0 0 20.3 147 1012.7 77.4 16
DallasTexas 11/20/2019 22:00 21.7 16.4 71.87 0.82 0 14.9 157 1013.8 87.5 16
DallasTexas 11/20/2019 23:00 21.4 16.5 73.62 0.08 0 16.8 154 1014.2 77.1 16
DallasTexas 11/21/2019 0:00 21 16.7 76.48 0 0 16.2 151 1013.8 68.5 16
DallasTexas 11/21/2019 1:00 20.9 17 78.25 0 0 20.5 156 1013.4 80 16
DallasTexas 11/21/2019 2:00 20.6 17.2 81.24 0 0 16.6 158 1013.8 59.7 16
DallasTexas 11/21/2019 3:00 20.3 17.2 82.43 0 0 15 157 1013.7 37.9 16
DallasTexas 11/21/2019 4:00 19.8 17.6 87.02 0 0 13.7 140 1013.5 38.7 16
DallasTexas 11/21/2019 5:00 19.1 17.4 89.99 0 0 14.7 132 1013.5 36.6 15.9
DallasTexas 11/21/2019 6:00 19.1 17.8 92.13 0 0 13.3 143 1013.8 77.8 15
DallasTexas 11/21/2019 7:00 19.5 17.9 90.67 0 0 16.7 141 1014.2 63.3 14
DallasTexas 11/21/2019 8:00 19.7 18.3 91.78 0 0 13 149 1014.5 70.7 12.8
DallasTexas 11/21/2019 9:00 20.5 18.5 88.26 0 0 18.3 155 1014.6 74.3 14.9
DallasTexas 11/21/2019 10:00 22 18.5 80.29 0 0 16.2 167 1014.6 58.9 16
DallasTexas 11/21/2019 11:00 23.1 18.3 74.41 0 0 17.8 174 1014.2 70 16
DallasTexas 11/21/2019 12:00 24 18.3 70.37 0 0 22.6 185 1013.1 71.8 16
DallasTexas 11/21/2019 13:00 24.1 17.6 66.97 0 0 18.7 194 1011.9 75.4 15.9
DallasTexas 11/21/2019 14:00 24 17.6 67.83 0.01 0 14.2 185 1011.4 61.7 15.8
DallasTexas 11/21/2019 15:00 23.4 18.2 72.59 0.03 0 15.6 167 1011.3 59.1 14.8
DallasTexas 11/21/2019 16:00 22.2 19.2 82.94 0 0 14.7 155 1011.6 69.6 15.3
DallasTexas 11/21/2019 17:00 22.2 19.3 83.82 0.07 0 12.1 157 1012 68.5 14.1
DallasTexas 11/21/2019 18:00 21.3 18.9 86.17 0.11 0 17.2 166 1012.3 74.5 15.2
DallasTexas 11/21/2019 19:00 21.2 18.9 86.58 0.05 0 17.4 159 1012.3 64.2 15
DallasTexas 11/21/2019 20:00 20.5 18.5 88.02 0.02 0 14.1 127 1013 67.1 15.3
DallasTexas 11/21/2019 21:00 16.4 14.8 89.94 0.08 0 18.4 354 1013.8 86.9 15
DallasTexas 11/21/2019 22:00 14.3 13 91.66 0.84 0 19.1 343 1014.5 91.8 12.8
DallasTexas 11/21/2019 23:00 13.1 11.7 91.51 0.1 0 20.3 329 1015 92.7 14.9
DallasTexas 11/22/2019 0:00 11.9 10.8 93.04 0.15 0 19.1 333 1015.1 54.2 13.9
DallasTexas 11/22/2019 1:00 11.6 10.2 91.28 0.14 0 12.9 350 1014.6 93.4 15.6
DallasTexas 11/22/2019 2:00 11.5 10.1 91.18 0 0 13.2 332 1014.9 93.4 14.8
DallasTexas 11/22/2019 3:00 11 9.5 90.85 0.12 0 19.6 334 1015.1 93.4 9.5
DallasTexas 11/22/2019 4:00 10.2 9 92.49 0.21 0 25.3 324 1016.1 93 9.1
DallasTexas 11/22/2019 5:00 9.8 8.4 91.13 0.31 0 24.7 349 1016.1 70.7 12.6
DallasTexas 11/22/2019 6:00 9 7.4 90.16 5.89 0 23.5 341 1016.4 86.9 8.9
DallasTexas 11/22/2019 7:00 8.4 7 90.81 3.9 0 16.6 341 1017.3 84.4 11.7
DallasTexas 11/22/2019 8:00 8.4 6.9 90.27 0.89 0 21.7 333 1018.4 89.8 12.3
DallasTexas 11/22/2019 9:00 8.3 6.8 90.67 2.04 0 18 323 1018.7 79.1 11.5
DallasTexas 11/22/2019 10:00 8.3 6.4 88 0.33 0 25.7 319 1020.1 90.7 15.8
DallasTexas 11/22/2019 11:00 8.2 5.8 84.98 0 0 26.4 328 1020.1 93 15.9
DallasTexas 11/22/2019 12:00 8.5 5.6 81.85 0.23 0 25.4 325 1019.3 90.3 16
DallasTexas 11/22/2019 13:00 9.3 5.9 79.18 0 0 23.2 331 1018.5 93 16
DallasTexas 11/22/2019 14:00 9.9 5.8 75.67 0 0 25.7 328 1017.8 90.3 16
DallasTexas 11/22/2019 15:00 9.9 5.6 74.68 0 0 24.7 327 1017.7 90.7 16
DallasTexas 11/22/2019 16:00 9.2 4.8 74.25 0 0 28.1 325 1017.8 93.4 16
DallasTexas 11/22/2019 17:00 8.5 4.2 74.56 0 0 25.7 318 1018.4 93.3 16
DallasTexas 11/22/2019 18:00 8 3.8 74.56 0 0 25.6 330 1018.5 93.2 16
DallasTexas 11/22/2019 19:00 7.7 3.4 74.34 0 0 21.7 329 1019 93.4 16
DallasTexas 11/22/2019 20:00 7.6 3.3 74.43 0 0 21 330 1019.5 93.4 16
DallasTexas 11/22/2019 21:00 7.1 2.9 74.81 0 0 21.1 319 1019.9 93.4 16
DallasTexas 11/22/2019 22:00 6.6 2.3 74.13 0 0 18.7 339 1020.2 93.4 16
DallasTexas 11/22/2019 23:00 6.5 2 73.08 0 0 20.4 333 1019.9 93.4 16
DallasTexas 11/23/2019 0:00 5.9 1.7 74.63 0 0 11.6 326 1019.4 60.8 16
DallasTexas 11/23/2019 1:00 4.9 1.5 78.93 0 0 9.4 319 1019.2 19 16
DallasTexas 11/23/2019 2:00 4.4 1.3 80.24 0 0 9 322 1018.8 20.3 16
DallasTexas 11/23/2019 3:00 4.1 1.2 81.47 0 0 10.9 334 1018.9 24.3 16
DallasTexas 11/23/2019 4:00 3.5 1 83.5 0 0 9.5 332 1018.6 13.4 16
DallasTexas 11/23/2019 5:00 3.4 1 84.16 0 0 10.1 313 1019 14.2 16
DallasTexas 11/23/2019 6:00 3.2 0.8 84.05 0 0 8.9 305 1019.6 13.9 16
DallasTexas 11/23/2019 7:00 2.6 0.6 86.54 0 0 6.4 322 1019.6 15 15.9
DallasTexas 11/23/2019 8:00 4.1 1.2 81.19 0 0 10.2 317 1019.7 24.5 16
DallasTexas 11/23/2019 9:00 5.8 1.6 74.17 0 0 12.8 317 1020.6 53 16
DallasTexas 11/23/2019 10:00 7.3 1.7 67.68 0 0 11.2 304 1021 86.3 16
DallasTexas 11/23/2019 11:00 8.1 1.5 63.07 0 0 12.6 300 1021.1 92.1 16
DallasTexas 11/23/2019 12:00 9.4 1.5 58.13 0 0 12.4 291 1020.3 64.7 16
DallasTexas 11/23/2019 13:00 11.3 2.3 54.15 0 0 15.2 293 1019.1 19 16
DallasTexas 11/23/2019 14:00 12.2 3 53.36 0 0 16.9 293 1018.2 40.5 16
DallasTexas 11/23/2019 15:00 13 3 50.67 0 0 17.2 295 1018 40.3 16
DallasTexas 11/23/2019 16:00 13.2 3.3 51.29 0 0 12.5 316 1017.8 17.6 16
DallasTexas 11/23/2019 17:00 12.5 3.4 53.88 0 0 8.7 293 1017.9 15.1 16
DallasTexas 11/23/2019 18:00 11.1 3.4 59.06 0 0 5.3 260 1018.2 11.8 16
DallasTexas 11/23/2019 19:00 10.2 3.4 62.86 0 0 3.5 300 1018.6 0 16
DallasTexas 11/23/2019 20:00 9.3 3.7 67.93 0 0 3.2 294 1018.7 0 16
DallasTexas 11/23/2019 21:00 8.6 3.7 71.76 0 0 4.6 282 1018.8 0 16
DallasTexas 11/23/2019 22:00 8.2 3.5 72.37 0 0 4.3 300 1018.8 0 16
DallasTexas 11/23/2019 23:00 7.7 3.5 74.81 0 0 4.3 291 1018.7 0 15.8
DallasTexas 11/24/2019 0:00 6.9 3.4 78.56 0 0 3.9 293 1018.4 13.5 16
DallasTexas 11/24/2019 1:00 6.7 3.4 79.54 0 0 6.7 245 1018.4 13.5 16
DallasTexas 11/24/2019 2:00 6.3 3 79.41 0 0 7.2 243 1018.2 1.8 15.8
DallasTexas 11/24/2019 3:00 5.2 2.7 84 0 0 5.1 311 1017.8 0 15.7
DallasTexas 11/24/2019 4:00 6 3 80.96 0 0 9 230 1017.9 0 15.7
DallasTexas 11/24/2019 5:00 4.9 2.5 84.41 0 0 4.5 279 1017.5 13.5 15.4
DallasTexas 11/24/2019 6:00 4.4 2.4 86.74 0 0 2.8 305 1017.5 13.5 15.6
DallasTexas 11/24/2019 7:00 4.5 2.3 85.38 0 0 4.7 306 1017.7 13.5 15.3
DallasTexas 11/24/2019 8:00 6 3 80.75 0 0 3.6 305 1017.9 13.5 15.6
DallasTexas 11/24/2019 9:00 9.1 4 70.26 0 0 7.7 242 1018.3 13.5 15.8
DallasTexas 11/24/2019 10:00 12.5 4.4 58.04 0 0 5.2 270 1017.9 13.5 15.9
DallasTexas 11/24/2019 11:00 15.8 3.3 43.41 0 0 9.1 240 1017.3 13.5 16
DallasTexas 11/24/2019 12:00 18.5 1.6 32.25 0 0 11.5 237 1015.8 13.5 16
DallasTexas 11/24/2019 13:00 19.3 1.3 29.92 0 0 10.9 220 1014.4 26 16
DallasTexas 11/24/2019 14:00 20.5 0.6 26.5 0 0 13.4 202 1013 34.2 16
DallasTexas 11/24/2019 15:00 20.2 -0.1 25.53 0 0 12.7 204 1012.2 35.1 16
DallasTexas 11/24/2019 16:00 20.2 0.2 26.23 0 0 11.9 204 1011.7 45 15.8
DallasTexas 11/24/2019 17:00 18.6 1.3 31.18 0 0 8.1 178 1011.2 46.8 16
DallasTexas 11/24/2019 18:00 16.9 1.9 36.41 0 0 8.4 139 1010.8 46.8 16
DallasTexas 11/24/2019 19:00 15.6 2.3 40.83 0 0 7.8 132 1010.5 25.5 16
DallasTexas 11/24/2019 20:00 14.7 3.1 45.82 0 0 10 143 1010.3 21.5 16
DallasTexas 11/24/2019 21:00 14.9 3.5 46.43 0.02 0 15 162 1009.7 35.4 16
DallasTexas 11/24/2019 22:00 13.9 4 50.99 0 0 14.5 168 1009.4 35.4 16
DallasTexas 11/24/2019 23:00 13.9 4.3 52.26 0 0 16.3 168 1009 43.9 16
DallasTexas 11/25/2019 0:00 13.4 4.5 54.71 0 0 16.3 173 1008.3 43.9 16
DallasTexas 11/25/2019 1:00 12.8 5.1 59.44 0 0 16 170 1007.3 23.7 16
DallasTexas 11/25/2019 2:00 12.3 5.7 64 0 0 13.9 177 1006.6 19.6 16
DallasTexas 11/25/2019 3:00 11.6 5.8 67.17 0 0 14.6 173 1006.3 15 16
DallasTexas 11/25/2019 4:00 11.4 6.1 70.32 0 0 14.3 174 1005.2 13.5 16
DallasTexas 11/25/2019 5:00 11.2 6.3 72.13 0 0 13.6 169 1004.7 1.8 16
DallasTexas 11/25/2019 6:00 11.1 6.4 72.75 0 0 14.9 172 1004.5 11.7 16
DallasTexas 11/25/2019 7:00 10.2 6.3 76.85 0 0 8.1 160 1004.6 13.9 16
DallasTexas 11/25/2019 8:00 11.2 7 75.72 0 0 10.2 142 1004.8 15 15.9
DallasTexas 11/25/2019 9:00 14 7.4 64.55 0 0 12.4 181 1005.2 43.9 16
DallasTexas 11/25/2019 10:00 16.6 7.3 54.39 0 0 13.9 208 1004.9 43.9 16
DallasTexas 11/25/2019 11:00 18.1 7.1 48.66 0 0 16.1 211 1004.3 42 16
DallasTexas 11/25/2019 12:00 19.4 6.7 43.67 0 0 13.6 197 1003.6 27.8 16
DallasTexas 11/25/2019 13:00 20.1 5.4 38.28 0 0 16.5 235 1002.9 27.8 16
DallasTexas 11/25/2019 14:00 21.8 3.9 31.03 0 0 11.1 235 1002.3 27.8 16
DallasTexas 11/25/2019 15:00 23.6 3.6 27.1 0 0 10.9 259 1001.6 28.6 16
DallasTexas 11/25/2019 16:00 23 2.9 26.88 0 0 11.5 281 1001.7 29.1 16
DallasTexas 11/25/2019 17:00 21.3 3.3 30.46 0 0 7.5 334 1001.9 28.6 16
DallasTexas 11/25/2019 18:00 18.5 3.9 38.08 0 0 8.2 3 1002.1 28.6 16
DallasTexas 11/25/2019 19:00 17.1 4.3 42.41 0 0 2.7 350 1002.7 34.2 16
DallasTexas 11/25/2019 20:00 16.5 4.6 45.21 0 0 2.2 352 1002.7 46 16
DallasTexas 11/25/2019 21:00 14.3 5 53.88 0 0 0 0 1002.9 35.4 16
DallasTexas 11/25/2019 22:00 13.2 5.3 58.8 0 0 0.7 19 1002.1 43.9 15.7
DallasTexas 11/25/2019 23:00 13.4 5.1 57.24 0 0 0.6 17 1001.9 42.8 16
DallasTexas 11/26/2019 0:00 12.9 5.6 61.15 0 0 3 81 1001.6 24.5 16
DallasTexas 11/26/2019 1:00 14.1 6.8 61.35 0 0 8.9 136 1000.9 36.8 16
DallasTexas 11/26/2019 2:00 15.7 9.6 67.16 0 0 14.4 37 1000.4 49.7 16
DallasTexas 11/26/2019 3:00 15.7 10.4 70.37 0 0 13 163 999.8 34.2 16
DallasTexas 11/26/2019 4:00 16.4 11.4 72.24 0 0 14.3 158 999.4 47.2 15.8
DallasTexas 11/26/2019 5:00 17.7 12.6 71.85 0 0 16.7 167 999.2 61.4 16
DallasTexas 11/26/2019 6:00 18.2 13.5 73.82 0 0 16.6 170 999.6 79.7 16
DallasTexas 11/26/2019 7:00 18.8 14.5 75.78 0 0 15.6 168 999.7 52.6 15.7
DallasTexas 11/26/2019 8:00 19.4 15.4 77.69 0 0 19.1 174 1000.3 71.7 15.1
DallasTexas 11/26/2019 9:00 19.4 16.4 82.77 0 0 19.5 169 1001.2 63.2 13.7
DallasTexas 11/26/2019 10:00 20.1 16.8 81.34 0 0 20.9 180 1001.8 47.5 12
DallasTexas 11/26/2019 11:00 20.4 16.8 79.86 0 0 20.3 175 1001.9 57.1 12
DallasTexas 11/26/2019 12:00 20.5 17.3 81.99 0 0 19.5 171 1001.4 69 11.6
DallasTexas 11/26/2019 13:00 21.4 16.9 75.72 0 0 13.9 176 1000 65.9 12.3
DallasTexas 11/26/2019 14:00 21.7 16.8 73.69 0 0 14.6 168 998.8 69.1 14.4
DallasTexas 11/26/2019 15:00 22.3 16.8 70.75 0 0 26.7 166 998.9 60.5 15.7
DallasTexas 11/26/2019 16:00 21.8 16.8 73.29 0 0 24.4 179 999.5 36 14.8
DallasTexas 11/26/2019 17:00 21.3 16.8 75.52 0 0 14.9 208 1001.1 58.8 14.6
DallasTexas 11/26/2019 18:00 21.2 16.8 76.2 0 0 6.9 234 1002 84.3 15.3
DallasTexas 11/26/2019 19:00 20.9 16.8 77.75 0 0 10.6 245 1004.4 65.1 14.6
DallasTexas 11/26/2019 20:00 20 16.3 79.28 0 0 9.1 280 1005.7 32.6 13.7
DallasTexas 11/26/2019 21:00 18.4 0.3 29.6 0 0 32.4 318 1008.9 66.8 14.7
DallasTexas 11/26/2019 22:00 17.7 -4.2 22.19 0 0 21.3 305 1010.7 62.8 14.7
DallasTexas 11/26/2019 23:00 16.9 -7.1 18.68 0 0 26.2 300 1012.6 50.4 15.1
DallasTexas 11/27/2019 0:00 14.8 -7.2 21.32 0 0 29.3 320 1014.1 41 16
DallasTexas 11/27/2019 1:00 11.9 -3.9 33.03 0 0 28.3 329 1015.6 43.9 16
DallasTexas 11/27/2019 2:00 9.9 -4 37.49 0 0 25.3 334 1017.5 27.2 16
DallasTexas 11/27/2019 3:00 8.4 -3.9 41.65 0.21 0 19.7 338 1018.8 43.9 16
DallasTexas 11/27/2019 4:00 7.3 -3.8 45.23 0.02 0 13.1 344 1019.5 43.9 16
DallasTexas 11/27/2019 5:00 7 -3.8 46.17 0 0 17.6 346 1019.8 31.8 16
DallasTexas 11/27/2019 6:00 6.6 -3.7 47.74 0 0 15.7 348 1020.7 38.1 16
DallasTexas 11/27/2019 7:00 6 -3.3 51.15 0 0 15.1 351 1022.1 35.4 16
DallasTexas 11/27/2019 8:00 6.7 -2.8 50.84 0 0 15.5 348 1023.6 34.2 16
DallasTexas 11/27/2019 9:00 7.3 -2.7 48.92 0 0 16 351 1025.5 28.6 16
DallasTexas 11/27/2019 10:00 8.3 -2.5 46.45 0 0 14.4 356 1026.8 27.8 16
DallasTexas 11/27/2019 11:00 9.4 -2.7 42.64 0 0 14.4 7 1026.6 27.8 16
DallasTexas 11/27/2019 12:00 10.3 -2.7 39.85 0 0 13.4 5 1026.1 27.8 16
DallasTexas 11/27/2019 13:00 10.7 -2.9 38.44 0 0 15.2 344 1025.2 27.8 16
DallasTexas 11/27/2019 14:00 11 -3 37.46 0 0 15.5 3 1024.7 28.5 16
DallasTexas 11/27/2019 15:00 11.2 -2.4 38.45 0 0 11.8 1 1024.8 43.9 16
DallasTexas 11/27/2019 16:00 10.9 -1.9 40.93 0 0 13.6 353 1025 57.2 16
DallasTexas 11/27/2019 17:00 10.4 -1.5 43.56 0 0 14.1 16 1024.9 74.1 16
DallasTexas 11/27/2019 18:00 10.1 -0.7 47.1 0 0 12.8 15 1025.2 74.8 16
DallasTexas 11/27/2019 19:00 10.1 -1 46.06 0 0 9.7 45 1025.9 91.4 16
DallasTexas 11/27/2019 20:00 9.9 -1.2 45.87 0 0 11.5 13 1026.6 92.2 16
DallasTexas 11/27/2019 21:00 9.8 -1.6 44.8 0 0 11.5 25 1026.4 83.8 16
DallasTexas 11/27/2019 22:00 10.2 -2 42.6 0 0 15.5 40 1026 88.3 16
DallasTexas 11/27/2019 23:00 10.3 -1.9 42.55 0 0 14.5 53 1025.7 92.5 16
DallasTexas 11/28/2019 0:00 10.4 -1.3 44.13 0 0 9.1 41 1026.2 93 16
DallasTexas 11/28/2019 1:00 10.3 -1 45.32 0 0 12.9 38 1025.6 93.4 16
DallasTexas 11/28/2019 2:00 9.9 -0.6 47.94 0 0 10.4 51 1025.6 90.2 15.8
DallasTexas 11/28/2019 3:00 9.7 -0.2 49.85 0 0 12.3 46 1024.6 92.7 16
DallasTexas 11/28/2019 4:00 9.7 0.2 51.78 0.26 0 12.2 33 1024.5 93.4 15.8
DallasTexas 11/28/2019 5:00 8.5 2.4 65.49 1.07 0 11.9 68 1024.1 87.8 10.1
DallasTexas 11/28/2019 6:00 6.6 4.9 88.69 7.04 0 9.4 14 1024.9 63.7 8.5
DallasTexas 11/28/2019 7:00 6.6 5.2 90.76 1.63 0 13.4 349 1027.1 70.6 8.2
DallasTexas 11/28/2019 8:00 6.7 5.2 90.14 0.3 0 14.2 27 1026.4 76.2 15.7
DallasTexas 11/28/2019 9:00 7 5.2 88.36 0.26 0 16.4 56 1026 72.3 15.7
DallasTexas 11/28/2019 10:00 7.3 5.3 87.02 0.01 0 14.1 63 1026 69.7 15.9
DallasTexas 11/28/2019 11:00 7.8 5.8 86.95 0 0 17.6 75 1025.1 61.7 15.9
DallasTexas 11/28/2019 12:00 8.2 5.7 84.35 0 0 18.2 83 1024.5 74.3 16
DallasTexas 11/28/2019 13:00 8.4 5.7 83.3 0 0 14.9 87 1022.8 78.9 16
DallasTexas 11/28/2019 14:00 8.4 5.5 81.98 0 0 19.8 89 1022.4 87.9 15.7
DallasTexas 11/28/2019 15:00 8.2 6 86.03 0 0 11.6 75 1022.5 82.2 14
DallasTexas 11/28/2019 16:00 7.8 6.5 90.99 0.03 0 11.3 54 1022.9 99.2 5.1
DallasTexas 11/28/2019 17:00 7.7 6.5 91.95 0.03 0 12.5 56 1023.4 93.5 5
DallasTexas 11/28/2019 18:00 7.6 6.3 91.18 0.1 0 13.6 69 1023.4 94.1 8.8
DallasTexas 11/28/2019 19:00 7.6 6 89.72 0 0 10.6 70 1023.8 93.6 12.9
DallasTexas 11/28/2019 20:00 7.6 5.8 88.45 0.02 0 9.2 51 1023.7 83.9 13.5
DallasTexas 11/28/2019 21:00 7.3 5.9 91.01 0.1 0 10.8 63 1023.5 73.1 10.8
DallasTexas 11/28/2019 22:00 7.6 5.8 88.62 0 0 8.7 26 1023.9 85 14.8
DallasTexas 11/28/2019 23:00 7.6 6 89.56 0.01 0 9.5 48 1023.6 86.2 14.1
DallasTexas 11/29/2019 0:00 7.6 6.1 90.1 0.02 0 9.9 33 1023.3 76.4 11
DallasTexas 11/29/2019 1:00 7.6 6.3 90.99 0.03 0 8.9 35 1022.9 96.3 11.5
DallasTexas 11/29/2019 2:00 7.7 6.3 91.02 0.29 0 8.8 50 1022.3 85.5 11.2
DallasTexas 11/29/2019 3:00 7.7 6.5 91.79 0.04 0 7.9 69 1022.1 80.6 10.5
DallasTexas 11/29/2019 4:00 8.2 6.8 91.15 0.11 0 6 69 1022 80.2 6.8
DallasTexas 11/29/2019 5:00 8.2 7.2 93.63 0.36 0 2.2 45 1021.4 94 8.8
DallasTexas 11/29/2019 6:00 8.4 7.6 94.51 0.54 0 0.9 13 1021.1 99.7 6.5
DallasTexas 11/29/2019 7:00 8.7 7.6 93.08 0.34 0 3.6 46 1020.3 99.3 6.4
DallasTexas 11/29/2019 8:00 9 8.1 94.65 0 0 13.5 106 1018.8 87.5 1.7
DallasTexas 11/29/2019 9:00 9.9 9.3 95.62 0.03 0 7.7 93 1018.6 81.3 1
DallasTexas 11/29/2019 10:00 10.7 9.6 92.83 0.19 0 14.1 320 1020.4 86.8 0.6
DallasTexas 11/29/2019 11:00 10.2 9.5 95.31 1.49 0 11.1 344 1019.6 98 4
DallasTexas 11/29/2019 12:00 11 10 93.92 0.23 0 3.2 14 1017.7 96.5 4.2
DallasTexas 11/29/2019 13:00 11.5 10.5 93.6 0.61 0 5.7 112 1016.5 99.7 2.6
DallasTexas 11/29/2019 14:00 12 11.2 94.77 1.75 0 5 87 1015.1 97.5 3
DallasTexas 11/29/2019 15:00 12.7 11.7 93.46 2.99 0 5.8 105 1013.4 96.4 2.5
DallasTexas 11/29/2019 16:00 13.8 13 94.85 0.51 0 9.8 130 1012.2 99.2 3.1
DallasTexas 11/29/2019 17:00 14.7 13.8 94.41 0.51 0 12 144 1011.6 97.7 3.3
DallasTexas 11/29/2019 18:00 15.8 15.1 95.33 0.27 0 13.9 144 1011 87.6 2.3
DallasTexas 11/29/2019 19:00 18 17.1 94.34 0.18 0 14.1 160 1010.9 84.5 2.9
DallasTexas 11/29/2019 20:00 19.9 18.7 92.8 0.22 0 21.7 155 1010.1 96.8 5.6
DallasTexas 11/29/2019 21:00 20.9 19.5 91.37 0.28 0 23 164 1009.6 70.7 9.7
DallasTexas 11/29/2019 22:00 21.5 20 91.38 0.17 0 19.8 170 1009.7 97.9 9.2
DallasTexas 11/29/2019 23:00 21.6 20.1 91.34 0 0 22.8 166 1009.1 98.5 11.1
DallasTexas 11/30/2019 0:00 21.9 20.1 89.61 0.01 0 23.3 168 1008.5 100 11.6
DallasTexas 11/30/2019 1:00 22 20.1 89.33 0 0 24 174 1007.7 93.4 14.1
DallasTexas 11/30/2019 2:00 22.5 20.2 86.37 0 0 23.1 174 1007.1 93.4 15.1
DallasTexas 11/30/2019 3:00 22.6 20.2 86.27 0 0 26.6 176 1006.4 93.1 15.1
DallasTexas 11/30/2019 4:00 22.8 20.2 85.23 0 0 24.3 191 1006.2 93.4 16
DallasTexas 11/30/2019 5:00 22.6 20.2 86.54 0.06 0 20.8 220 1006.6 88.9 14.7
DallasTexas 11/30/2019 6:00 22.5 20.2 87.27 0.26 0 16.5 201 1006.1 53.4 15.4
DallasTexas 11/30/2019 7:00 22.3 20.2 87.81 0.38 0 18.9 210 1006.2 54 14.8
DallasTexas 11/30/2019 8:00 21.2 19.3 88.47 1.44 0 17.3 290 1007.3 68.4 15.2
DallasTexas 11/30/2019 9:00 19.1 16.2 83.48 0.29 0 21.5 315 1008.1 62.2 15.5
DallasTexas 11/30/2019 10:00 18.2 14.5 78.74 0.46 0 18.5 311 1009.2 73.4 15.8
DallasTexas 11/30/2019 11:00 19.5 12.5 64.22 0 0 19.9 318 1009.1 50 16
DallasTexas 11/30/2019 12:00 20.6 9.4 48.65 0 0 24.2 322 1008.5 57.6 16
DallasTexas 11/30/2019 13:00 21.2 7.7 41.6 0 0 21.7 313 1007.5 28.4 16
DallasTexas 11/30/2019 14:00 21.5 6.9 38.87 0 0 20.2 301 1006.7 15.2 16
DallasTexas 11/30/2019 15:00 21.6 5.8 35.92 14.82 0 23.5 300 1006.9 13.5 15.7
DallasTexas 11/30/2019 16:00 21 4.2 33.33 3.15 0 25.4 290 1007 13.5 15.6
DallasTexas 11/30/2019 17:00 19.7 3.4 34.13 0.57 0 27.4 289 1007.3 15 15.6
DallasTexas 11/30/2019 18:00 18.3 3.4 37.04 0.72 0 20.7 292 1008.1 13.5 15.6
DallasTexas 11/30/2019 19:00 17.2 2.3 36.63 2.32 0 21.9 297 1009.3 0 15.7
DallasTexas 11/30/2019 20:00 16.7 -0.6 30.73 5.37 0 26.9 292 1010.3 0 15.7
DallasTexas 11/30/2019 21:00 16.1 -2.8 27.17 9.04 0 25.1 294 1011.2 0 15.7
DallasTexas 11/30/2019 22:00 15 -5.2 24.42 6.16 0 21.9 292 1011.8 0 15.6
DallasTexas 11/30/2019 23:00 14.2 -6 24.28 2.53 0 22.5 289 1012.1 0 15.6
DallasTexas 12/1/2019 0:00 13 -5.5 27.09 8.1 0 21.9 288 1012.2 0 15.6
DallasTexas 12/1/2019 1:00 12 -4.9 30.28 0.83 0 26 299 1012.9 0 15.6
DallasTexas 12/1/2019 2:00 10.6 -3.4 37.15 2.96 0 23 327 1013.9 0 15.9
DallasTexas 12/1/2019 3:00 9.2 -2.6 43.52 3.09 0 21.9 321 1014.9 0 16
DallasTexas 12/1/2019 4:00 8.3 -4.1 41.2 5.73 0 22.2 321 1015.8 0 16
DallasTexas 12/1/2019 5:00 7.6 -5.4 39.35 3.83 0 27 328 1016.7 0 16
DallasTexas 12/1/2019 6:00 7 -5.8 39.82 11.68 0 23.4 326 1017.5 0 16
DallasTexas 12/1/2019 7:00 6.3 -5.5 42.55 4.67 0 22.5 313 1018.5 24.7 16
DallasTexas 12/1/2019 8:00 6.2 -4.8 45.19 0.31 0 22.7 320 1018.8 13.5 15.8
DallasTexas 12/1/2019 9:00 7.7 -5.1 39.85 7.07 0 28.1 318 1019.4 13.5 15.8
DallasTexas 12/1/2019 10:00 9 -5 36.72 1.42 0 31 320 1020.5 13.5 15.9
DallasTexas 12/1/2019 11:00 10.6 -4.6 34.3 3.92 0 30.5 329 1020.8 23.3 16
DallasTexas 12/1/2019 12:00 11.9 -3.9 32.95 9.44 0 26 325 1020.2 41.8 16
DallasTexas 12/1/2019 13:00 13 -3.5 31.6 2.51 0 28.5 311 1019.7 24.7 16
DallasTexas 12/1/2019 14:00 13.6 -3.7 29.87 3.11 0 27.3 309 1019.5 24.7 16
DallasTexas 12/1/2019 15:00 13.9 -3.5 29.72 9.31 0 25.7 307 1019.5 13.5 16
DallasTexas 12/1/2019 16:00 14.1 -3.4 29.74 2.62 0 28.1 313 1019.8 13.5 16
DallasTexas 12/1/2019 17:00 13.2 -3.3 31.65 4.33 0 27 312 1020 13.5 16
DallasTexas 12/1/2019 18:00 11.8 -3 35.35 10.88 0 20.4 307 1020.6 13.5 16
DallasTexas 12/1/2019 19:00 11 -2.1 39.93 3.97 0 15.7 306 1021.4 11.8 16
DallasTexas 12/1/2019 20:00 10.2 -2.1 42.22 3.27 0 14.2 308 1022.1 0 16
DallasTexas 12/1/2019 21:00 9.2 -1.4 47.44 10.53 0 12.2 310 1022.8 0 16
DallasTexas 12/1/2019 22:00 8.6 -1.8 48.06 2.24 0 11.8 305 1023.5 0 16
DallasTexas 12/1/2019 23:00 8 -1.6 50.85 1.63 0 14.4 311 1023.8 0 16
DallasTexas 12/2/2019 0:00 7.5 -1.8 51.78 5.02 0 12.9 310 1024.1 0 16
DallasTexas 12/2/2019 1:00 6.8 -1.8 54.31 1.06 0 15.1 318 1023.8 0 16
DallasTexas 12/2/2019 2:00 6.5 -1.7 56.01 1.22 0 15 321 1024.3 0 16
DallasTexas 12/2/2019 3:00 6.4 -2.2 53.83 3.95 0 15.8 332 1024.6 0 16
DallasTexas 12/2/2019 4:00 6 -2.4 55.03 6.74 0 16 331 1024.7 0 16
DallasTexas 12/2/2019 5:00 5 -2.7 57.2 4.72 0 14.5 335 1025.1 0 16
DallasTexas 12/2/2019 6:00 4.4 -2.9 59.02 17.58 0 13.7 336 1025.5 1.8 16
DallasTexas 12/2/2019 7:00 3.8 -3 60.98 3.96 0 11 327 1026.2 13.5 16
DallasTexas 12/2/2019 8:00 4.8 -2.5 59.18 4.52 0 13.4 316 1027 13.5 16
DallasTexas 12/2/2019 9:00 6.3 -2.8 51.93 12.41 0 16.7 320 1027.6 24.7 16
DallasTexas 12/2/2019 10:00 7.9 -3 45.99 4.25 0 15 337 1028.2 24.7 16
DallasTexas 12/2/2019 11:00 9.4 -3.2 40.94 4.74 0 12.4 324 1027.9 15 16
DallasTexas 12/2/2019 12:00 11.2 -3.1 36.84 3.83 0 11.2 350 1026.7 13.5 16
DallasTexas 12/2/2019 13:00 12.4 -3.9 31.76 2.09 0 9.9 9 1025.4 13.7 16
DallasTexas 12/2/2019 14:00 13.2 -3.4 31.27 3.96 0 7.1 322 1024 13.5 16
DallasTexas 12/2/2019 15:00 14 -3.6 29.48 11.2 0 4.4 328 1023.1 13.5 16
DallasTexas 12/2/2019 16:00 14 -3.5 29.61 2.58 0 4.6 335 1022.6 24.7 16
DallasTexas 12/2/2019 17:00 13.3 -3.7 30.61 1.68 0 1.7 17 1021.8 29.7 16
DallasTexas 12/2/2019 18:00 11.3 -2.7 37.49 4.35 0 0.8 17 1021.6 29.7 16
DallasTexas 12/2/2019 19:00 9.1 -0.8 49.97 0.02 0 0.3 14 1021.6 29.7 16
DallasTexas 12/2/2019 20:00 7.7 -0.7 55.26 0.47 0 5.5 36 1021.2 24.7 16
DallasTexas 12/2/2019 21:00 7.2 -0.7 57.18 1.42 0 6.3 131 1020.6 23.3 16
DallasTexas 12/2/2019 22:00 7.1 -1 56.56 1.68 0 6.8 126 1020.1 40 16
DallasTexas 12/2/2019 23:00 6.5 -1.7 55.8 0.39 0 6.5 118 1020 23.3 16
DallasTexas 12/3/2019 0:00 7 -2.3 51.82 2.72 0 10.4 51 1019.7 43.9 16
DallasTexas 12/3/2019 1:00 7 -2.7 50.01 0 0 9.6 360 1018.7 43.9 16
DallasTexas 12/3/2019 2:00 6.1 -2.1 55.62 0.04 0 9.3 25 1018.3 43.9 16
DallasTexas 12/3/2019 3:00 6.4 -2.4 53.25 1.49 0 7.7 28 1018.1 27 16
DallasTexas 12/3/2019 4:00 5.6 -1.5 60.05 2.68 0 8.4 46 1017.1 41.5 16
DallasTexas 12/3/2019 5:00 5.8 -1.4 59.82 0.79 0 9.7 3 1016.8 38.3 16
DallasTexas 12/3/2019 6:00 4.6 -1.1 66.42 7.05 0 9.4 138 1016.2 41.5 16
DallasTexas 12/3/2019 7:00 5.5 -1.1 62.63 0.94 0 10.9 166 1015.8 43.9 16
DallasTexas 12/3/2019 8:00 6.5 -0.5 60.79 4.3 0 13.5 171 1015.4 43.9 16
DallasTexas 12/3/2019 9:00 9.2 0.2 53.26 4 0 13.5 182 1015.5 24.7 16
DallasTexas 12/3/2019 10:00 13.1 0.4 41.69 0.76 0 19 175 1015.1 15 16
DallasTexas 12/3/2019 11:00 16.2 -0.8 31.44 0.4 0 22.1 203 1014.1 19.1 16
DallasTexas 12/3/2019 12:00 17.6 0.3 31.12 5.49 0 18 209 1013.1 19.1 16
DallasTexas 12/3/2019 13:00 18.9 0.5 29.25 3.85 0 15.4 226 1012.4 13.5 16
DallasTexas 12/3/2019 14:00 19.5 0.9 28.85 5.08 0 8.2 262 1012.2 13.5 16
DallasTexas 12/3/2019 15:00 20.5 1.1 27.52 7.79 0 10.1 301 1012.5 13.7 16
DallasTexas 12/3/2019 16:00 20.3 1.1 27.8 5.26 0 8.9 310 1012.8 13.5 16
DallasTexas 12/3/2019 17:00 18.5 1.8 32.64 2.33 0 9 321 1013.2 13.5 16
DallasTexas 12/3/2019 18:00 16.1 1.9 38.25 4.34 0 7.4 350 1014 13.5 16
DallasTexas 12/3/2019 19:00 14.8 2.1 42.19 1.93 0 3 345 1014.7 11.8 16
DallasTexas 12/3/2019 20:00 13.4 2.2 46.68 15.89 0 7.8 349 1015.2 0 16
DallasTexas 12/3/2019 21:00 11.8 2.4 52.23 6.69 0 5.2 338 1016.1 11.8 15.9
DallasTexas 12/3/2019 22:00 11.2 2.8 56.46 2.61 0 10.3 329 1016.7 11.8 15.9
DallasTexas 12/3/2019 23:00 10.5 3 59.69 3.99 0 10.1 318 1017.1 11.8 15.9
DallasTexas 12/4/2019 0:00 9.9 2.7 60.98 5.95 0 4.4 324 1017.1 0 15.3
DallasTexas 12/4/2019 1:00 9 2.7 64.7 7.49 0 8.2 323 1017 11.8 14.8
DallasTexas 12/4/2019 2:00 8 2.3 67.01 1.85 0 7.9 320 1017.1 11.8 16
DallasTexas 12/4/2019 3:00 7 1.9 70.17 7.72 0 6.2 325 1017.3 11.8 16
DallasTexas 12/4/2019 4:00 6.4 1.9 72.9 3.34 0 4.8 339 1017.3 13.5 16
DallasTexas 12/4/2019 5:00 5.8 1.8 75.83 3.47 0 6.4 316 1017.3 13.5 16
DallasTexas 12/4/2019 6:00 6.2 1.7 72.86 7.97 0 3.9 320 1017.9 1.8 15.3
DallasTexas 12/4/2019 7:00 5.2 1.4 76.41 0 0 4.2 322 1018.5 15 15.4
DallasTexas 12/4/2019 8:00 6.9 2 70.99 0 0 4 321 1019.2 24.7 16
DallasTexas 12/4/2019 9:00 10.2 3 60.87 0.61 0 5.3 282 1019.9 17.6 16
DallasTexas 12/4/2019 10:00 13.4 2.9 48.98 3.79 0 6.4 294 1020.3 14.9 16
DallasTexas 12/4/2019 11:00 16.4 2.6 39.53 2.04 0 7.4 300 1020.3 35.4 16
DallasTexas 12/4/2019 12:00 18.6 2 33.07 10.4 0 3.8 323 1019.4 43.9 16
DallasTexas 12/4/2019 13:00 19.1 1.3 30.32 2.55 0 1.1 333 1018.2 43.9 15.8
DallasTexas 12/4/2019 14:00 20.3 1 27.74 1.15 0 2.3 357 1017.2 29.7 16
DallasTexas 12/4/2019 15:00 21 0.2 24.87 4.2 0 1.3 3 1017 28.6 15.9
DallasTexas 12/4/2019 16:00 20.7 0.9 26.74 0.53 0 2.2 7 1016.7 28.6 16
DallasTexas 12/4/2019 17:00 19 1.4 30.86 0.07 0 2.8 60 1016.4 35.7 16
DallasTexas 12/4/2019 18:00 17.3 2.7 37.6 0.98 0 3.1 66 1016.3 28.9 16
DallasTexas 12/4/2019 19:00 15.4 3.1 43.87 0 0 1.8 52 1016.7 28.2 16
DallasTexas 12/4/2019 20:00 14.5 3.5 47.35 0 0 6 115 1016.3 28.2 16
DallasTexas 12/4/2019 21:00 14 2.8 46.93 0 0 3.2 88 1016.6 43.9 16
DallasTexas 12/4/2019 22:00 14.2 1.9 43.31 0 0 9.7 58 1016.5 35.4 16
DallasTexas 12/4/2019 23:00 14.6 1.9 42.01 0 0 8.7 30 1016.2 34.7 16
DallasTexas 12/5/2019 0:00 14.3 1.7 42.62 0 0 8.1 115 1015.9 38.3 16
DallasTexas 12/5/2019 1:00 14.2 1.4 41.89 0 0 8.9 139 1015.5 28.9 16
DallasTexas 12/5/2019 2:00 14 1.4 42.56 0 0 5.5 11 1015.8 45.5 16
DallasTexas 12/5/2019 3:00 12.3 1.5 47.8 0 0 9.3 132 1015.6 15 16
DallasTexas 12/5/2019 4:00 11.5 1.5 50.14 0 0 11.8 165 1015.2 23.3 16
DallasTexas 12/5/2019 5:00 11.5 2 51.9 0.02 0 12.6 161 1014.9 43.9 16
DallasTexas 12/5/2019 6:00 11.6 2.1 52.09 0 0 13.8 169 1014.8 43.9 16
DallasTexas 12/5/2019 7:00 11.5 2.4 53.74 0 0 12.3 161 1014.9 43.9 16
DallasTexas 12/5/2019 8:00 11.7 3 55.2 0 0 14.9 161 1014.8 45.6 16
DallasTexas 12/5/2019 9:00 13.3 6.4 63.14 0 0 19.2 171 1015 48.7 16
DallasTexas 12/5/2019 10:00 15.8 8.7 62.58 0 0 19.3 164 1015.2 43.9 16
DallasTexas 12/5/2019 11:00 18.3 9.5 56.4 0 0 21.1 177 1014.9 48.7 16
DallasTexas 12/5/2019 12:00 20.4 10 51.17 0 0 20.7 190 1013.6 48.7 16
DallasTexas 12/5/2019 13:00 21.5 10.9 50.97 0 0 25.4 175 1011.9 45 16
DallasTexas 12/5/2019 14:00 21.9 11.9 53 0 0 22.7 175 1010.8 34 16
DallasTexas 12/5/2019 15:00 21.6 13.5 59.8 0 0 24 173 1010.4 39.7 16
DallasTexas 12/5/2019 16:00 21.5 13.9 62.01 0 0 25.7 178 1010.4 67.4 16
DallasTexas 12/5/2019 17:00 20.9 14.3 66.17 0 0 23.7 171 1010.6 66.5 16
DallasTexas 12/5/2019 18:00 20.1 14.3 69.12 0 0 18.3 170 1010.8 71.7 16
DallasTexas 12/5/2019 19:00 19.6 14.2 70.7 0 0 17.8 172 1011.2 56.6 16
DallasTexas 12/5/2019 20:00 19.2 14.2 73.18 0 0 18.6 172 1011.7 89.4 16
DallasTexas 12/5/2019 21:00 19.3 14.1 72.05 0 0 17.7 177 1011.8 86.2 16
DallasTexas 12/5/2019 22:00 18.8 14.1 74.54 0 0 16.9 179 1011.7 76.5 16
DallasTexas 12/5/2019 23:00 18.3 13.9 75.22 0 0 17.1 188 1011.6 20.1 16
DallasTexas 12/6/2019 0:00 18.3 13.3 72.51 0 0 15 218 1011.8 17 16
DallasTexas 12/6/2019 1:00 17.3 12.6 74.22 0 0 14.1 232 1011.8 15.1 16
DallasTexas 12/6/2019 2:00 16.9 11.3 69.55 0 0 14.9 240 1012.4 15.8 16
DallasTexas 12/6/2019 3:00 16.4 7.1 53.86 0 0 26.8 278 1013.4 0 16
DallasTexas 12/6/2019 4:00 14.2 6.1 58.42 0 0 27.5 298 1014.7 38.6 16
DallasTexas 12/6/2019 5:00 13.5 5.7 59.15 0 0 30.2 308 1015.7 51.1 16
DallasTexas 12/6/2019 6:00 13.2 5.5 59.61 0 0 30.1 322 1016.7 61.3 16
DallasTexas 12/6/2019 7:00 13.1 5.2 58.46 0 0 27.1 326 1018.2 88.7 16
DallasTexas 12/6/2019 8:00 12.7 5.1 59.81 0 0 26 333 1019.3 83.4 16
DallasTexas 12/6/2019 9:00 13.2 4.9 57.14 0 0 30.1 338 1020.9 48.5 16
DallasTexas 12/6/2019 10:00 14 4.9 54.11 0 0 31 332 1022.4 24.7 16
DallasTexas 12/6/2019 11:00 15.3 5.1 50.58 0 0 33.2 329 1023.1 19 16
DallasTexas 12/6/2019 12:00 16.4 5.1 47.21 0 0 28.2 331 1022.9 19.1 16
DallasTexas 12/6/2019 13:00 17 5 45.01 0 0 25.8 331 1022.4 19.1 16
DallasTexas 12/6/2019 14:00 17.2 4.5 42.83 0 0 21.1 341 1022.2 29.7 16
DallasTexas 12/6/2019 15:00 17.2 4.4 42.8 0 0 23.9 327 1022.5 43.9 16
DallasTexas 12/6/2019 16:00 17 4.1 42.3 0 0 23.9 338 1023 43.9 16
DallasTexas 12/6/2019 17:00 15.8 4 45.26 0 0 21.1 341 1023.6 43.9 16
DallasTexas 12/6/2019 18:00 14.4 3.9 49.3 0 0 16.9 339 1024.1 43.9 16
DallasTexas 12/6/2019 19:00 13.5 3.7 51.85 0 0 16 339 1025 15 16
DallasTexas 12/6/2019 20:00 12.5 3.5 54.23 0 0 14.8 339 1025.6 43.9 16
DallasTexas 12/6/2019 21:00 11.5 3.4 57.78 0 0 14.3 349 1026.3 43.9 16
DallasTexas 12/6/2019 22:00 10.7 3.2 59.79 0 0 13.3 350 1026.4 43.9 16
DallasTexas 12/6/2019 23:00 9.8 2.9 62.34 0 0 13.8 355 1026.5 43.9 16
DallasTexas 12/7/2019 0:00 8.8 2.9 66.64 0 0 11.9 350 1026.6 43.9 16
DallasTexas 12/7/2019 1:00 8.2 2.3 66.36 0 0 8.4 354 1026.3 43.9 16
DallasTexas 12/7/2019 2:00 6.8 2.2 72.5 0 0 8.2 338 1026.1 42.8 16
DallasTexas 12/7/2019 3:00 6.2 2.2 75.25 0 0 9 328 1026.1 43.9 16
DallasTexas 12/7/2019 4:00 5.6 1.8 76.56 0.29 0 8.9 332 1026 43.9 16
DallasTexas 12/7/2019 5:00 5.5 2 78.07 0 0 6.3 341 1026.1 40 16
DallasTexas 12/7/2019 6:00 4.6 1.5 80.34 0 0 8.2 338 1026.4 23.3 16
DallasTexas 12/7/2019 7:00 4.5 1.6 81.11 0 0 8.5 327 1026.7 23.9 16
DallasTexas 12/7/2019 8:00 4.7 1.8 81.73 0 0 7.2 336 1027 32.1 15.9
DallasTexas 12/7/2019 9:00 7 2.2 71.55 0 0 9.2 338 1027.1 33.5 15.9
DallasTexas 12/7/2019 10:00 9 2.5 63.98 0 0 4.7 317 1027.4 33.5 16
DallasTexas 12/7/2019 11:00 11.2 3.2 57.88 0 0 2.9 3 1026.9 34.9 16
DallasTexas 12/7/2019 12:00 13.7 3.7 51.1 0 0 3.9 12 1025.8 34.2 16
DallasTexas 12/7/2019 13:00 15.3 4.2 47.61 0 0 0.8 350 1024.4 18.3 15.9
DallasTexas 12/7/2019 14:00 16.7 4.1 43.33 0 0 6.7 263 1023.3 32.1 16
DallasTexas 12/7/2019 15:00 17.6 4.3 41.25 0 0 6.3 319 1022.4 17.6 16
DallasTexas 12/7/2019 16:00 17.7 4.4 41.3 0 0 10 353 1021.7 13.5 16
DallasTexas 12/7/2019 17:00 16.6 4.6 44.93 0 0 6.8 48 1021.6 13.5 16
DallasTexas 12/7/2019 18:00 14.6 5.1 52.93 0 0 7.1 124 1021.4 13.5 16
DallasTexas 12/7/2019 19:00 13 5.3 59.77 0 0 7.9 118 1021.4 13.5 16
DallasTexas 12/7/2019 20:00 12.2 5.8 64.76 0 0 7.1 117 1021.2 1.8 16
DallasTexas 12/7/2019 21:00 11 5.8 70.19 0.04 0 7.1 121 1020.6 1.8 16
DallasTexas 12/7/2019 22:00 11.4 6.4 71.6 0 0 11.4 150 1020.1 1.8 16
DallasTexas 12/7/2019 23:00 11.3 6.6 72.37 0 0 9.7 139 1019.8 1.8 16
DallasTexas 12/8/2019 0:00 11.2 6.8 74.28 0 0 10.8 150 1019.3 1.8 16
DallasTexas 12/8/2019 1:00 11.1 6.9 75.23 0 0 10.4 132 1018.6 1.8 15.8
DallasTexas 12/8/2019 2:00 10.9 7.1 77.26 0.14 0 12.9 157 1018.1 1.8 15.9
DallasTexas 12/8/2019 3:00 10.7 7.2 78.82 0 0 13.7 164 1017.6 13.5 15.9
DallasTexas 12/8/2019 4:00 10.4 7.5 82 0 0 14.6 159 1016.6 15 15.7
DallasTexas 12/8/2019 5:00 10.2 7.6 83.53 0 0 14.7 161 1016 15 15.6
DallasTexas 12/8/2019 6:00 9.8 7.1 83.55 0 0 12 153 1016.6 15 15.2
DallasTexas 12/8/2019 7:00 9.8 7.5 85.58 0 0 16.8 156 1015.7 43.9 15.2
DallasTexas 12/8/2019 8:00 10 7.7 85.55 0 0 20.2 160 1015.4 34.2 13.9
DallasTexas 12/8/2019 9:00 11.1 8.1 81.95 0 0 17.9 168 1015.7 29.4 14.7
DallasTexas 12/8/2019 10:00 13.6 8.8 72.88 0 0 22.1 169 1015.6 42.2 15.8
DallasTexas 12/8/2019 11:00 16.9 9.4 61.44 0 0 32.1 181 1014.3 27.8 15.8
DallasTexas 12/8/2019 12:00 18.6 9.2 54.06 0 0 31.4 174 1012.9 27.8 16
DallasTexas 12/8/2019 13:00 19.8 9.5 51.34 0 0 27.8 179 1011.3 27.8 16
DallasTexas 12/8/2019 14:00 20.1 9.6 50.86 0 0 28.4 180 1009.9 27.8 16
DallasTexas 12/8/2019 15:00 20.7 10.9 53.27 0 0 25.3 181 1009.1 35.5 16
DallasTexas 12/8/2019 16:00 20.9 11.5 54.75 0 0 24.4 182 1008.9 30.2 16
DallasTexas 12/8/2019 17:00 20.5 11.3 55.5 0 0 21.7 179 1008.8 30.7 16
DallasTexas 12/8/2019 18:00 19.3 11.8 61.46 0 0 20.2 173 1008.7 37.5 16
DallasTexas 12/8/2019 19:00 19 11.8 62.77 0 0 20.3 168 1008.2 36.6 16
DallasTexas 12/8/2019 20:00 18.8 11.8 63.57 0 0 21.7 176 1008.2 28.9 16
DallasTexas 12/8/2019 21:00 18.6 12.1 65.61 0 0 19 175 1007.7 35.8 16
DallasTexas 12/8/2019 22:00 19 12.3 64.93 0 0 19.5 180 1007.6 35.8 16
DallasTexas 12/8/2019 23:00 19.9 12.3 61.74 0 0 20.9 192 1007.2 25.3 16
DallasTexas 12/9/2019 0:00 19.8 12.3 62.1 0 0 23.3 192 1006.6 47.9 16
DallasTexas 12/9/2019 1:00 19.2 12.4 64.54 0 0 20.5 203 1006.4 31 16
DallasTexas 12/9/2019 2:00 18.8 12.3 65.94 0 0 18.8 212 1006.6 36.6 16
DallasTexas 12/9/2019 3:00 18.3 12.3 68.17 0 0 18.5 207 1006.8 32.1 16
DallasTexas 12/9/2019 4:00 17.8 12.3 70.14 0 0 16.8 213 1006.8 64.7 16
DallasTexas 12/9/2019 5:00 17.9 12.3 69.51 0 0 15.3 216 1006.5 85.3 16
DallasTexas 12/9/2019 6:00 17.8 12.1 69.42 0 0 17.2 216 1006.7 70.8 16
DallasTexas 12/9/2019 7:00 17.4 12.2 71.42 0 0 13.6 246 1007.3 79.2 16
DallasTexas 12/9/2019 8:00 17.7 12.3 70.6 0 0 13.4 219 1007.6 80.1 16
DallasTexas 12/9/2019 9:00 18.2 12.5 69.23 0 0 12.6 217 1008.1 57.4 16
DallasTexas 12/9/2019 10:00 19.7 12.3 62.57 0 0 12.2 218 1008.6 50.2 16
DallasTexas 12/9/2019 11:00 21.4 11.5 53.1 0 0 8.1 275 1008.7 33.4 16
DallasTexas 12/9/2019 12:00 23.5 7.9 36.76 0 0 17.6 263 1008.3 34.7 16
DallasTexas 12/9/2019 13:00 23 6.7 34.8 0 0 16.8 290 1008.1 36.1 16
DallasTexas 12/9/2019 14:00 22.2 5.5 33.79 0 0 25.9 316 1008.5 32.9 16
DallasTexas 12/9/2019 15:00 18.6 3.9 37.8 0 0 30.4 335 1010 34.3 16
DallasTexas 12/9/2019 16:00 14.8 3.2 45.91 0 0 30.9 339 1011.9 36.2 16
DallasTexas 12/9/2019 17:00 12.2 2.9 53.01 0 0 25.1 339 1013.2 44 16
DallasTexas 12/9/2019 18:00 11.2 3.1 57.31 0 0 24.6 333 1014.3 88.2 16
DallasTexas 12/9/2019 19:00 10.1 2.9 60.73 0 0 26.7 341 1015.8 92.4 16
DallasTexas 12/9/2019 20:00 9 2.2 62.23 0 0 22.7 346 1016.8 96.6 16
DallasTexas 12/9/2019 21:00 8.4 1.3 60.86 0 0 24.1 346 1017.6 98.4 16
DallasTexas 12/9/2019 22:00 7.4 1.2 64.65 0 0 26.2 349 1018 98.1 16
DallasTexas 12/9/2019 23:00 6.3 0.8 67.84 0 0 29.4 351 1018.9 81.2 16
DallasTexas 12/10/2019 0:00 5.2 0.5 71.74 0.48 0 28.5 356 1019.3 80.4 16
DallasTexas 12/10/2019 1:00 4 1.5 83.57 1.68 0 21.6 360 1019.9 90.7 12.2
DallasTexas 12/10/2019 2:00 3.4 1.7 88.39 3.12 0 16.6 4 1020.4 73.5 9.7
DallasTexas 12/10/2019 3:00 3.2 1.5 88.83 2.7 0 16.6 9 1020.4 77.8 10.3
DallasTexas 12/10/2019 4:00 2.7 0.5 85.64 2.69 0 19.5 12 1021.9 68.1 10.7
DallasTexas 12/10/2019 5:00 2.3 0 84.96 2.62 0 16.3 352 1022.4 70.2 13.4
DallasTexas 12/10/2019 6:00 2.3 -0.4 82.36 0.94 0 12.9 10 1023 80.1 15.6
DallasTexas 12/10/2019 7:00 2.4 -0.8 79.64 0.48 0 7.7 22 1024 77.7 15.6
DallasTexas 12/10/2019 8:00 2.7 -1 76.72 0.27 0 9.4 4 1024.8 95.3 15.9
DallasTexas 12/10/2019 9:00 3 -1.4 73.11 0.02 0 10.8 352 1025.2 74.4 16
DallasTexas 12/10/2019 10:00 3.8 -1.4 68.78 0 0 9.7 360 1026.2 41.1 15.8
DallasTexas 12/10/2019 11:00 4.4 -2.4 61.33 0 0 12.5 4 1027.2 38.7 16
DallasTexas 12/10/2019 12:00 5.4 -3.2 53.57 0 0 12.7 358 1027.8 34.1 16
DallasTexas 12/10/2019 13:00 5.6 -3.1 53.76 0 0 11.8 17 1026.9 62.6 16
DallasTexas 12/10/2019 14:00 6.3 -3 51.22 0 0 10.2 15 1027 32.8 16
DallasTexas 12/10/2019 15:00 7 -2.4 51.46 0 0 11.2 58 1026.9 50 16
DallasTexas 12/10/2019 16:00 7.2 -1.6 53.31 0 0 7.9 26 1027.8 50.8 16
DallasTexas 12/10/2019 17:00 6.8 -1.2 57.03 0 0 7 27 1028.7 80.2 15.9
DallasTexas 12/10/2019 18:00 5.8 -0.7 62.85 0 0 4.1 16 1028.9 46.6 16
DallasTexas 12/10/2019 19:00 5.2 -0.5 67.04 0 0 6 21 1029.9 66.5 16
DallasTexas 12/10/2019 20:00 5 -0.9 65.81 0 0 7.9 47 1030.7 50.7 16
DallasTexas 12/10/2019 21:00 4 -0.9 70.43 0 0 5.9 55 1031.1 23.3 16
DallasTexas 12/10/2019 22:00 3.6 -0.9 72.49 0 0 5 72 1031.3 11.8 16
DallasTexas 12/10/2019 23:00 3.1 -0.6 76.22 0 0 2.1 33 1031.6 1.6 16
DallasTexas 12/11/2019 0:00 2.7 -0.3 80.64 0 0 3 42 1031.7 14.6 16
DallasTexas 12/11/2019 1:00 1.8 -0.1 87.02 0 0 4.5 106 1031.6 14 16
DallasTexas 12/11/2019 2:00 1.7 -0.4 85.78 0 0 6 108 1032 4.1 15.8
DallasTexas 12/11/2019 3:00 1.4 -0.8 85.71 0 0 6.1 103 1032.2 8.8 15.9
DallasTexas 12/11/2019 4:00 1.5 -0.1 88.71 0 0 7.6 110 1032.1 54.7 14.2
DallasTexas 12/11/2019 5:00 1.8 0.6 92.33 0 0 5.7 146 1032.4 90.1 11.3
DallasTexas 12/11/2019 6:00 2 0.7 90.89 0 0 8.9 149 1033.1 91.4 11.8
DallasTexas 12/11/2019 7:00 2.3 0.6 88.53 0 0 9.5 143 1033.7 91.4 13
DallasTexas 12/11/2019 8:00 2.7 1.1 89.21 0 0 8.2 137 1034.3 86.6 11.9
DallasTexas 12/11/2019 9:00 3.3 1.1 85.31 0 0 8.9 132 1034.6 58.5 14.7
DallasTexas 12/11/2019 10:00 5.3 0.9 73.42 0 0 10.8 135 1035 20.3 16
DallasTexas 12/11/2019 11:00 7 -0.1 60.59 0 0 10.9 150 1034.8 13.5 16
DallasTexas 12/11/2019 12:00 8.9 -0.5 52.02 0 0 10.4 138 1033.9 13.5 16
DallasTexas 12/11/2019 13:00 9.9 -1.1 46.14 0 0 9.7 141 1032.7 13.5 16
DallasTexas 12/11/2019 14:00 11 -1.7 41.16 0 0 13.8 160 1031.7 13.5 16
DallasTexas 12/11/2019 15:00 11.2 -0.3 44.94 0 0 10.5 145 1031 13.5 16
DallasTexas 12/11/2019 16:00 11.5 0.4 46.2 0 0 12.2 153 1030.4 13.5 16
DallasTexas 12/11/2019 17:00 10.7 0.8 50.33 0 0 11.9 158 1030.3 13.5 16
DallasTexas 12/11/2019 18:00 9 1.1 57.75 0 0 6.9 146 1029.9 13.5 16
DallasTexas 12/11/2019 19:00 7.8 1.4 63.79 0 0 8.1 62 1030 15 16
DallasTexas 12/11/2019 20:00 7.3 1.5 66.89 0 0 6.8 61 1030.1 15 16
DallasTexas 12/11/2019 21:00 5.9 1.3 72.07 0 0 3.4 81 1029.7 17.4 16
DallasTexas 12/11/2019 22:00 5.2 1.3 75.93 0 0 5.4 117 1029.5 17.4 16
DallasTexas 12/11/2019 23:00 4.9 1.1 76.46 0 0 3.1 78 1029.6 45.2 16
DallasTexas 12/12/2019 0:00 4.8 0.4 73.11 0 0 7.8 134 1029 43.9 16
DallasTexas 12/12/2019 1:00 5.3 0 68.99 0 0 8.6 137 1028.4 43.9 16
DallasTexas 12/12/2019 2:00 4.7 -0.4 69.5 0 0 9.4 130 1027.6 43.9 16
DallasTexas 12/12/2019 3:00 4.4 -0.5 70.76 0 0 9.8 122 1027.2 43.9 16
DallasTexas 12/12/2019 4:00 4.1 -0.5 72.07 0 0 8.2 128 1026.7 43.9 16
DallasTexas 12/12/2019 5:00 3.6 -0.7 73.54 0 0 8.4 128 1026.5 43.9 16
DallasTexas 12/12/2019 6:00 3.3 -0.5 76.16 0 0 6.4 122 1027 43.9 16
DallasTexas 12/12/2019 7:00 2.7 -0.9 76.92 0 0 7.2 120 1027.2 44.8 16
DallasTexas 12/12/2019 8:00 2.9 -0.8 76.53 0 0 13.5 121 1026 25.6 15.9
DallasTexas 12/12/2019 9:00 4.9 0.2 71.73 0 0 15.9 130 1025.8 19.9 16
DallasTexas 12/12/2019 10:00 7 0.5 63.54 0 0 14.7 147 1025.8 17.9 15.9
DallasTexas 12/12/2019 11:00 9 0.9 57.05 0 0 17.9 161 1025 19.4 16
DallasTexas 12/12/2019 12:00 10.9 1.2 51.36 0 0 14.7 172 1023.9 16.3 16
DallasTexas 12/12/2019 13:00 12.3 1.7 48.41 0 0 15.9 166 1021.8 13.5 16
DallasTexas 12/12/2019 14:00 13.3 2.6 48.08 0 0 20.4 164 1020.2 13.9 16
DallasTexas 12/12/2019 15:00 13.8 3.2 48.56 0 0 17.9 170 1019 13.5 16
DallasTexas 12/12/2019 16:00 14.2 3.6 48.9 0 0 17.4 171 1018.4 13.5 16
DallasTexas 12/12/2019 17:00 13.4 3.8 52.25 0 0 16.4 182 1018.4 13.5 16
DallasTexas 12/12/2019 18:00 12.1 3.9 57.44 0 0 12.5 178 1018.4 13.5 16
DallasTexas 12/12/2019 19:00 11 4.3 63.05 0 0 12.8 158 1018.1 23.3 16
DallasTexas 12/12/2019 20:00 10.5 4.3 65.52 0 0 12.4 161 1017.5 41.5 16
DallasTexas 12/12/2019 21:00 10.1 4.8 69.82 0 0 10.1 148 1017.4 41.5 16
DallasTexas 12/12/2019 22:00 9.4 5 74.07 0 0 10.8 132 1017.3 19.1 16
DallasTexas 12/12/2019 23:00 8.5 5 78.87 0 0 9.4 140 1017 13.5 16
DallasTexas 12/13/2019 0:00 7.9 4.9 81.55 0 0 8.4 130 1016.2 1.8 16
DallasTexas 12/13/2019 1:00 7.6 5.2 84.52 0 0 10.3 135 1015 0 15.9
DallasTexas 12/13/2019 2:00 7.3 5.2 86.28 0 0 10.7 147 1014.1 0 15.8
DallasTexas 12/13/2019 3:00 7.3 5.3 86.91 0 0 10.2 145 1013.5 0 15.1
DallasTexas 12/13/2019 4:00 7 5.2 88.64 0 0 10.5 142 1013 3.5 13.5
DallasTexas 12/13/2019 5:00 6.5 5.1 91.03 0 0 11.5 57 1012.4 6.8 13.2
DallasTexas 12/13/2019 6:00 6.5 4.7 88.46 0 0 9.3 168 1012.1 6.9 12.4
DallasTexas 12/13/2019 7:00 6.5 4.6 87.52 0 0 9.3 181 1012.1 14.9 14.5
DallasTexas 12/13/2019 8:00 6.7 4.7 87.1 0 0 4.3 280 1012.4 17.3 14.6
DallasTexas 12/13/2019 9:00 8.9 5.2 78.03 0 0 7.3 237 1012.2 16 15.3
DallasTexas 12/13/2019 10:00 10.9 5.9 71.53 0 0 8.6 233 1012.1 15 15.8
DallasTexas 12/13/2019 11:00 12.8 6.3 64.59 0 0 8.9 304 1012 13.5 16
DallasTexas 12/13/2019 12:00 14.1 6.3 59.11 0 0 5.8 319 1011.1 13.5 16
DallasTexas 12/13/2019 13:00 15.8 6.5 54.07 0 0 7.9 332 1009.9 13.5 16
DallasTexas 12/13/2019 14:00 16.7 6.9 52.48 0 0 7.3 335 1009.2 13.5 16
DallasTexas 12/13/2019 15:00 17.1 6.9 51.23 0 0 12 323 1009.1 13.5 16
DallasTexas 12/13/2019 16:00 16.8 6.8 51.69 0 0 9.9 325 1009.8 13.5 16
DallasTexas 12/13/2019 17:00 15.1 6.8 57.6 0 0 9.3 2 1009.9 13.5 16
DallasTexas 12/13/2019 18:00 12.7 6.2 64.63 0 0 6 22 1010.1 13.5 16
DallasTexas 12/13/2019 19:00 11.2 6.1 71.03 0 0 1.3 3 1010.9 1.8 16
DallasTexas 12/13/2019 20:00 9.9 5.7 75.17 0 0 1.9 1 1011.1 0 16
DallasTexas 12/13/2019 21:00 9.6 5.8 76.95 0 0 2.4 12 1011.1 0 15.9
DallasTexas 12/13/2019 22:00 9 5.5 78.75 0 0 2.7 353 1011.8 0 15.5
DallasTexas 12/13/2019 23:00 7.4 4.8 83.63 0 0 0.3 3 1011.1 0 14.3
DallasTexas 12/14/2019 0:00 6.9 4.6 85.42 0 0 0.3 347 1011 0 13.9
DallasTexas 12/14/2019 1:00 6 4.3 88.85 0.04 0 1.3 350 1011.2 15 13.1
DallasTexas 12/14/2019 2:00 6.1 4.5 89.47 0 0 2.7 350 1011.2 15.2 12
DallasTexas 12/14/2019 3:00 6.2 4.5 88.94 0 0 7.3 300 1011.8 19.6 10.4
DallasTexas 12/14/2019 4:00 5.6 4.2 90.82 0.18 0 0.5 344 1011 27.5 8.6
DallasTexas 12/14/2019 5:00 5 3.8 91.85 0 0 1.9 305 1010.9 17.6 8.8
DallasTexas 12/14/2019 6:00 4.4 3.1 91.15 0 0 2.1 345 1011.6 26.9 8.7
DallasTexas 12/14/2019 7:00 4.4 3.3 92.46 0 0 1.4 319 1011.6 44.5 8.5
DallasTexas 12/14/2019 8:00 5 3.7 91.3 0 0 2.9 353 1012.3 25.5 7.9
DallasTexas 12/14/2019 9:00 8.7 6.4 85.01 0 0 0.2 10 1012.3 13.5 10
DallasTexas 12/14/2019 10:00 11.8 6.8 71.67 0 0 0.5 7 1012.4 13.5 13.5
DallasTexas 12/14/2019 11:00 14.5 3.2 46.57 0 0 14.5 74 1011.7 13.8 16
DallasTexas 12/14/2019 12:00 16.3 2.5 39.65 0 0 8.2 82 1011.5 17.5 16
DallasTexas 12/14/2019 13:00 17.1 2.5 37.58 0 0 12.5 98 1010.1 13.5 16
DallasTexas 12/14/2019 14:00 18.2 2.8 35.85 0 0 13.3 98 1009.1 13.9 16
DallasTexas 12/14/2019 15:00 18.3 2.7 35.29 0 0 13.8 114 1008.3 13.5 16
DallasTexas 12/14/2019 16:00 18.6 2.7 34.68 0 0 12.7 112 1008 13.5 16
DallasTexas 12/14/2019 17:00 17.7 3.5 38.84 0 0 10.1 109 1008.4 13.5 16
DallasTexas 12/14/2019 18:00 15.6 3 42.83 0 0 9.2 95 1008.4 13.5 16
DallasTexas 12/14/2019 19:00 14.1 3.4 48.5 0 0 7.7 83 1008.7 13.5 16
DallasTexas 12/14/2019 20:00 13 3.3 51.78 0 0 10.3 67 1009 15 16
DallasTexas 12/14/2019 21:00 12 3.3 55.14 0 0 11.4 68 1009.4 15 15.7
DallasTexas 12/14/2019 22:00 11.1 3.4 59.04 0 0 11.3 64 1009.6 1.8 15.8
DallasTexas 12/14/2019 23:00 10.5 3.4 61.65 0 0 10.3 75 1009.5 1.8 16
DallasTexas 12/15/2019 0:00 9.9 3.9 66.24 0 0 11.8 85 1008.9 13.5 16
DallasTexas 12/15/2019 1:00 9.6 4.5 70.42 0 0 10.5 92 1008.3 13.5 15.6
DallasTexas 12/15/2019 2:00 9.6 5.1 73.71 0 0 12.9 108 1007.3 2.5 15.7
DallasTexas 12/15/2019 3:00 9.7 5.8 77.06 0 0 13.2 108 1006.9 50.9 15.6
DallasTexas 12/15/2019 4:00 10.8 7.4 79.75 0 0 15 126 1006.5 95.5 14.6
DallasTexas 12/15/2019 5:00 11.1 9.6 90.71 0 0 16.9 138 1005.9 99 4.7
DallasTexas 12/15/2019 6:00 11.4 10.5 94.22 0 0 12.9 144 1006 86.8 1.8
DallasTexas 12/15/2019 7:00 12.3 11.7 95.68 0 0 17.1 154 1006.2 99.2 2.1
DallasTexas 12/15/2019 8:00 13 11.8 92.82 0 0 17.1 164 1006.4 99.2 3.5
DallasTexas 12/15/2019 9:00 13.8 12.3 91.13 0 0 16.6 174 1006.9 79.4 6.2
DallasTexas 12/15/2019 10:00 15.7 12.4 80.68 0 0 17.7 188 1007.7 57.1 13
DallasTexas 12/15/2019 11:00 18.4 11.9 65.87 0 0 15.6 196 1007.8 15.9 16
DallasTexas 12/15/2019 12:00 20.6 11.2 54.92 0 0 16.6 214 1007.4 13.5 16
DallasTexas 12/15/2019 13:00 22.2 10.2 46.51 0 0 15.6 208 1006.6 27.8 16
DallasTexas 12/15/2019 14:00 22.8 9.9 43.98 0 0 6.5 238 1006.4 33.5 16
DallasTexas 12/15/2019 15:00 23.8 9.2 39.47 0 0 9.8 300 1006.3 25.3 16
DallasTexas 12/15/2019 16:00 23.4 9 39.95 0 0 7.9 335 1006.8 13.5 16
DallasTexas 12/15/2019 17:00 21.2 8.6 44.59 0 0 12 353 1007.7 13.5 16
DallasTexas 12/15/2019 18:00 17.4 8.3 55.08 0 0 19.4 350 1008.3 14.2 16
DallasTexas 12/15/2019 19:00 13.4 7.9 69.42 0 0 22.2 344 1009.7 16.3 16
DallasTexas 12/15/2019 20:00 11.2 7.3 77.28 0 0 21.5 357 1010.3 54.5 15.9
DallasTexas 12/15/2019 21:00 10.2 6.8 79.75 0 0 19.2 6 1010.6 94.5 15.9
DallasTexas 12/15/2019 22:00 9.7 6.5 80.42 0 0 16.6 17 1011 100 14.9
DallasTexas 12/15/2019 23:00 8.9 5.8 81.32 0 0 16.6 3 1011.4 100 14.4
DallasTexas 12/16/2019 0:00 8.4 5.7 83.54 0 0 19.1 344 1011.4 100 14.4
DallasTexas 12/16/2019 1:00 7.3 4.9 84.55 0 0 18.9 346 1011 87.2 12.7
DallasTexas 12/16/2019 2:00 6.3 4.6 88.36 0.01 0 17.8 358 1011 95.6 8
DallasTexas 12/16/2019 3:00 5.8 4.3 89.7 0.01 0 18.4 339 1011.4 93.8 10.3
DallasTexas 12/16/2019 4:00 5.6 3.4 86.02 0.03 0 24.3 342 1012 98.8 12.9
DallasTexas 12/16/2019 5:00 4.8 3.2 89.34 0 0 18.8 342 1012.4 96.7 5.4
DallasTexas 12/16/2019 6:00 4.2 3.2 92.87 0 0 22.7 333 1013.2 91.4 5.2
DallasTexas 12/16/2019 7:00 4.2 2.9 90.93 0 0 20.4 333 1014.1 97.8 10.2
DallasTexas 12/16/2019 8:00 4.1 2.7 90.82 0 0 27.5 328 1015.2 97.8 9.7
DallasTexas 12/16/2019 9:00 4.1 2.7 90.61 0 0 26 322 1016.1 99 7.7
DallasTexas 12/16/2019 10:00 4.3 2.3 87.01 0 0 25.9 316 1016.5 99.4 13.6
DallasTexas 12/16/2019 11:00 5.4 2 78.37 0 0 29.7 315 1017 74.5 16
DallasTexas 12/16/2019 12:00 5.4 1.7 76.84 0 0 33.9 316 1016.9 94 16
DallasTexas 12/16/2019 13:00 4.9 0.7 74.35 0 0 35.1 318 1017 96.3 16
DallasTexas 12/16/2019 14:00 5.9 0.6 68.66 0 0 29.4 320 1017.1 91.4 16
DallasTexas 12/16/2019 15:00 5.3 0 68.59 0 0 33.1 320 1017.8 99.2 16
DallasTexas 12/16/2019 16:00 4.3 -0.6 70.81 0 0 33.8 328 1018.9 99.6 16
DallasTexas 12/16/2019 17:00 3.8 -1 71.12 0 0 27.6 321 1019.9 99.9 16
DallasTexas 12/16/2019 18:00 3.8 -1.3 69.4 0 0 28.5 332 1020.8 98.5 16
DallasTexas 12/16/2019 19:00 3.6 -1.5 68.88 0 0 26.5 334 1021.7 93.7 16
DallasTexas 12/16/2019 20:00 3.5 -1.7 68.63 0 0 30.4 339 1022.5 89.6 16
DallasTexas 12/16/2019 21:00 3.2 -1.8 70.1 0 0 26.4 345 1023.4 91.7 16
DallasTexas 12/16/2019 22:00 3.3 -1.7 69.89 0 0 22.7 347 1023.9 99.2 16
DallasTexas 12/16/2019 23:00 3.1 -2 69.16 0 0 22.4 349 1024.5 99.6 16
DallasTexas 12/17/2019 0:00 2.9 -2.6 67.38 0 0 24.1 353 1024.9 99.6 16
DallasTexas 12/17/2019 1:00 2.7 -2.6 67.79 0 0 22.4 355 1025.2 99.6 16
DallasTexas 12/17/2019 2:00 2.7 -2.7 67.88 0 0 25.8 345 1025.5 100 16
DallasTexas 12/17/2019 3:00 2.5 -2.7 68.3 0 0 28.6 352 1025.9 94.2 16
DallasTexas 12/17/2019 4:00 1.7 -3.1 70.38 0 0 23.9 347 1026 74.8 16
DallasTexas 12/17/2019 5:00 1 -2.8 75.83 0 0 16.6 346 1026.7 39.3 16
DallasTexas 12/17/2019 6:00 0.4 -3.2 76.54 0 0 14.6 336 1027.6 20.5 16
DallasTexas 12/17/2019 7:00 -0.3 -3.4 79.56 0 0 16 333 1028.3 20 15.9
DallasTexas 12/17/2019 8:00 -0.3 -3.5 79.24 0 0 18.4 334 1029.2 30.5 15.2
DallasTexas 12/17/2019 9:00 0.9 -3.2 74.19 0 0 22.9 332 1029.9 17.8 15.7
DallasTexas 12/17/2019 10:00 2.6 -2.8 67.19 0 0 20.8 332 1030.8 13.5 16
DallasTexas 12/17/2019 11:00 4.8 -2.9 57.53 0 0 21.9 334 1030.9 1.8 16
DallasTexas 12/17/2019 12:00 6.5 -3 50.89 0 0 20.6 329 1030.3 0 16
DallasTexas 12/17/2019 13:00 7.9 -3.2 45.25 0 0 17.9 332 1029.4 0 16
DallasTexas 12/17/2019 14:00 9.1 -3.8 39.91 0 0 20.4 340 1028.8 0 16
DallasTexas 12/17/2019 15:00 9.9 -4 37.31 0 0 22.9 338 1028.7 0 16
DallasTexas 12/17/2019 16:00 9.9 -5 34.71 0 0 20.8 337 1028.7 0 16
DallasTexas 12/17/2019 17:00 9.1 -5.8 34.24 0 0 13.9 337 1028.9 0 16
DallasTexas 12/17/2019 18:00 7.1 -5.5 40.15 0 0 5.8 342 1029.2 0 16
DallasTexas 12/17/2019 19:00 5.8 -4.8 46.58 0 0 3.5 337 1029.7 0 16
DallasTexas 12/17/2019 20:00 5.3 -4.1 51.01 0 0 4.1 317 1030.1 0 16
DallasTexas 12/17/2019 21:00 4.1 -4.1 55.39 0 0 4.9 319 1030.4 0 16
DallasTexas 12/17/2019 22:00 3.2 -4.1 58.49 0 0 4.2 306 1030.3 0 16
DallasTexas 12/17/2019 23:00 2.5 -4.1 61.81 0 0 5.7 299 1030.4 0 16
DallasTexas 12/18/2019 0:00 2.3 -3.8 64.36 0 0 6.4 301 1030.3 0 16
DallasTexas 12/18/2019 1:00 1.3 -4.1 66.9 0 0 5 300 1029.9 0 16
DallasTexas 12/18/2019 2:00 1 -4.2 68.07 0 0 4 304 1030 0 16
DallasTexas 12/18/2019 3:00 0.5 -4.4 69.47 0 0 7.6 256 1030 11.8 16
DallasTexas 12/18/2019 4:00 1.6 -4.2 65.46 0.02 0 5.3 298 1030 0 16
DallasTexas 12/18/2019 5:00 0.5 -4.7 68.44 0 0 3.8 298 1029.7 0 16
DallasTexas 12/18/2019 6:00 0.1 -4.7 70.22 0 0 3 303 1029.8 0 16
DallasTexas 12/18/2019 7:00 -0.2 -4.9 70.77 0 0 3.2 315 1029.9 0 16
DallasTexas 12/18/2019 8:00 0.8 -4.4 68.26 0 0 3.3 330 1030.3 0 16
DallasTexas 12/18/2019 9:00 3.8 -3.1 60.75 0 0 3.3 313 1031.1 0 16
DallasTexas 12/18/2019 10:00 6.8 -3.7 47.16 0 0 3.6 308 1031.5 0 16
DallasTexas 12/18/2019 11:00 9.8 -4 37.82 0 0 3.4 309 1031.2 13.5 16
DallasTexas 12/18/2019 12:00 12.2 -4.9 29.94 0 0 4.7 286 1030.3 13.5 16
DallasTexas 12/18/2019 13:00 13.7 -7.3 22.57 0 0 5.9 220 1029.1 1.8 16
DallasTexas 12/18/2019 14:00 14.3 -8.9 19.2 0 0 4.3 308 1028.3 0 16
DallasTexas 12/18/2019 15:00 15.4 -8.6 18.26 0 0 9.1 283 1028 0 16
DallasTexas 12/18/2019 16:00 14.8 -8.8 18.7 0 0 9.4 277 1027.9 0 16
DallasTexas 12/18/2019 17:00 13.9 -8.5 20.38 0 0 1.1 325 1027.5 0 16
DallasTexas 12/18/2019 18:00 11.1 -6.5 28.58 0 0 2.2 45 1027.6 0 16
DallasTexas 12/18/2019 19:00 8.6 -5.4 36.62 0 0 4.7 135 1027.9 0 15.9
DallasTexas 12/18/2019 20:00 7 -5 42.2 0 0 5.4 136 1028 0 16
DallasTexas 12/18/2019 21:00 5.6 -5.2 45.88 0 0 6.5 119 1028.2 0 16
DallasTexas 12/18/2019 22:00 6.2 -6.1 41.08 0 0 7 22 1028.2 0 16
DallasTexas 12/18/2019 23:00 4.6 -5.7 47.16 0 0 5.9 356 1028.1 0 16
DallasTexas 12/19/2019 0:00 4.4 -5.5 48.73 0 0 6.4 351 1028 0 16
DallasTexas 12/19/2019 1:00 4.4 -5.8 47.68 0 0 6.1 3 1027.8 0 16
DallasTexas 12/19/2019 2:00 3 -5 55.64 0 0 3.8 287 1027.8 0 16
DallasTexas 12/19/2019 3:00 2 -5.1 59.39 0 0 4.4 284 1027.8 0 16
DallasTexas 12/19/2019 4:00 2.6 -5.2 56.17 0 0 5.5 3 1027.8 0 16
DallasTexas 12/19/2019 5:00 1.4 -5.3 60.98 0 0 3.4 292 1027.8 0 16
DallasTexas 12/19/2019 6:00 1.1 -5.5 61.51 0 0 3.4 287 1028 0 16
DallasTexas 12/19/2019 7:00 1.1 -5.7 60.23 0 0 6.1 358 1028.4 13.5 16
DallasTexas 12/19/2019 8:00 1.4 -5.6 59.9 0 0 3.7 60 1028.6 13.5 15.9
DallasTexas 12/19/2019 9:00 4.9 -4.3 51.7 0 0 6.4 17 1028.9 15 15.9
DallasTexas 12/19/2019 10:00 8.5 -4.7 38.96 0 0 9.1 78 1029.3 15 16
DallasTexas 12/19/2019 11:00 10.9 -5 32.38 0 0 10.2 164 1029 13.5 16
DallasTexas 12/19/2019 12:00 13.8 -6.5 23.98 0 0 15.9 172 1027.7 13.5 16
DallasTexas 12/19/2019 13:00 14.5 -7.5 21.1 0 0 17.8 174 1026.5 13.5 16
DallasTexas 12/19/2019 14:00 14.8 -7.2 21.16 0 0 18.8 180 1025.5 24.7 16
DallasTexas 12/19/2019 15:00 15.1 -7 21.18 0 0 19.4 177 1025.1 35.4 16
DallasTexas 12/19/2019 16:00 13.9 -7.1 22.62 0 0 20.6 168 1025 36.2 16
DallasTexas 12/19/2019 17:00 12.5 -7 25.08 0 0 15.4 160 1024.9 29.7 16
DallasTexas 12/19/2019 18:00 10.5 -6.1 30.59 0 0 11.5 163 1025.2 29.7 16
DallasTexas 12/19/2019 19:00 9.6 -5.8 33.16 0 0 10 150 1025.6 30.4 16
DallasTexas 12/19/2019 20:00 8.7 -5.6 35.92 0 0 9.5 152 1025.8 32.5 16
DallasTexas 12/19/2019 21:00 7.6 -5.4 39.42 0 0 8.7 153 1025.9 43.9 16
DallasTexas 12/19/2019 22:00 7.2 -4.9 42.06 0 0 13.3 147 1026.1 43.9 16
DallasTexas 12/19/2019 23:00 7 -4.5 43.6 0 0 12.9 154 1026.1 43.9 16
DallasTexas 12/20/2019 0:00 5.8 -4 49.63 0 0 8.6 126 1025.9 43.9 16
DallasTexas 12/20/2019 1:00 5.9 -3.6 50.79 0 0 11.4 127 1025.6 35.4 16
DallasTexas 12/20/2019 2:00 4.8 -3.7 54.41 0 0 10.5 127 1025.8 35.4 16
DallasTexas 12/20/2019 3:00 5.4 -3.1 54.48 0 0 9.7 140 1025.9 50.3 16
DallasTexas 12/20/2019 4:00 5.8 -2.4 55.52 0 0 9.8 121 1025.8 79.3 16
DallasTexas 12/20/2019 5:00 5.7 -2 57.83 0 0 7.4 119 1026.2 82.7 16
DallasTexas 12/20/2019 6:00 6 -2.2 55.5 0 0 10.7 143 1026.4 79.3 16
DallasTexas 12/20/2019 7:00 6.2 -2 55.89 0 0 11.3 136 1026.2 88 16
DallasTexas 12/20/2019 8:00 6.6 -1.6 55.91 0 0 12.7 131 1026.5 89.5 16
DallasTexas 12/20/2019 9:00 6.9 -0.9 57.57 0 0 8.5 139 1026.8 91 15.9
DallasTexas 12/20/2019 10:00 7.6 -0.6 55.92 0 0 13.1 139 1027.2 77.1 16
DallasTexas 12/20/2019 11:00 8.1 -0.1 56.09 0 0 14.4 136 1026.9 96.5 16
DallasTexas 12/20/2019 12:00 8.9 0.8 57.14 0 0 11.9 135 1026.1 93.1 15.8
DallasTexas 12/20/2019 13:00 9.3 1.6 58.88 0 0 13.4 134 1025.2 90.8 15.9
DallasTexas 12/20/2019 14:00 9.8 1.9 58.02 0 0 14.7 132 1024.4 77.9 16
DallasTexas 12/20/2019 15:00 9.8 1.7 57.1 0 0 14.5 134 1024.3 86.2 15.9
DallasTexas 12/20/2019 16:00 10 1.8 56.67 0 0 14.2 148 1024.9 75.3 15.5
DallasTexas 12/20/2019 17:00 9.6 1.6 57.38 0 0 11.6 139 1025.5 96.9 15.8
DallasTexas 12/20/2019 18:00 8.6 3.7 71.23 0.02 0 9.9 109 1026.1 81.8 14.4
DallasTexas 12/20/2019 19:00 8.5 3.8 72.57 0 0 7 94 1026.5 94.2 16
DallasTexas 12/20/2019 20:00 8.4 3.6 72.14 0.01 0 10.6 122 1027.2 75.5 15.7
DallasTexas 12/20/2019 21:00 7.4 4.3 80.81 0 0 15 118 1026.9 82.4 15.2
DallasTexas 12/20/2019 22:00 7.2 5 85.88 0 0 13.5 122 1027.2 86.4 14.2
DallasTexas 12/20/2019 23:00 6.8 5.1 88.91 0.01 0 10.7 115 1027.6 95.7 13
DallasTexas 12/21/2019 0:00 6.8 5.1 89.25 0 0 10.1 124 1027.4 96.5 12.1
DallasTexas 12/21/2019 1:00 6.8 5.1 89.31 0 0 10.7 125 1026.8 82.3 11.3
DallasTexas 12/21/2019 2:00 6.8 5.1 89.36 0 0 13.8 130 1026.5 95.6 10.8
DallasTexas 12/21/2019 3:00 6.8 5.2 89.33 0 0 7.5 129 1027 94.9 10.3
DallasTexas 12/21/2019 4:00 6.9 5.2 88.4 0 0 5.9 101 1027.3 97.6 11.6
DallasTexas 12/21/2019 5:00 6.9 5.3 89.48 0 0 5.4 91 1027.4 97.8 8.2
DallasTexas 12/21/2019 6:00 6.8 5.4 90.78 0.01 0 5.1 83 1027.5 99.8 6.1
DallasTexas 12/21/2019 7:00 6.5 5.2 91.03 0.03 0 8.2 98 1027.4 94.1 5.9
DallasTexas 12/21/2019 8:00 6.6 4.9 88.78 0 0 7.7 81 1027.6 77.5 10.1
DallasTexas 12/21/2019 9:00 7.1 4.9 86.02 0.02 0 6.9 112 1028.2 90.7 14.2
DallasTexas 12/21/2019 10:00 7.9 4.6 79.36 0 0 5.6 118 1028.9 89.4 15
DallasTexas 12/21/2019 11:00 8.6 4.2 74.2 0 0 0.7 11 1028.6 82.7 15.7
DallasTexas 12/21/2019 12:00 9.1 4.2 71.72 1.35 0 0.5 357 1027.9 95.6 15.7
DallasTexas 12/21/2019 13:00 9.2 4.2 71.08 4.39 0 3.4 325 1027.1 98.3 15
DallasTexas 12/21/2019 14:00 9.6 4.4 70.29 2.41 0 6.3 341 1026.3 98.8 13.7
DallasTexas 12/21/2019 15:00 9.8 4.9 71.35 6.97 0 8 356 1025.9 96.8 13.8
DallasTexas 12/21/2019 16:00 9.8 5.1 72.59 0.62 0 8.4 2 1025.8 83 14.2
DallasTexas 12/21/2019 17:00 9.6 5.1 73.66 2.34 0 8.5 357 1026.2 79.3 13.6
DallasTexas 12/21/2019 18:00 9.4 5.1 74.47 5.19 0 3.3 1 1026.5 78.5 14.9
DallasTexas 12/21/2019 19:00 8.8 5.3 79.07 1.9 0 3.3 3 1026.7 77 14.8
DallasTexas 12/21/2019 20:00 8.2 5.1 80.79 0.23 0 6.9 345 1027.4 82.1 14.3
DallasTexas 12/21/2019 21:00 7.7 4.9 82.42 2.56 0 5.9 8 1027.2 84.6 14.5
DallasTexas 12/21/2019 22:00 8 5 81.45 2.25 0 6.3 344 1027.3 77.7 13.9
DallasTexas 12/21/2019 23:00 8.4 5.2 80.48 0.58 0 6.4 356 1027.5 99.3 14.8
DallasTexas 12/22/2019 0:00 8.1 5.3 82.76 6.19 0 6.7 328 1027.2 98.4 14.9
DallasTexas 12/22/2019 1:00 8.1 5.2 81.69 1.19 0 6.6 318 1026.7 97.9 15.4
DallasTexas 12/22/2019 2:00 8 5 81.22 3.39 0 10.4 324 1026.4 76.2 15.7
DallasTexas 12/22/2019 3:00 7.8 4.9 81.71 7.17 0 8.3 340 1026.5 85.2 15
DallasTexas 12/22/2019 4:00 6.9 4.1 82.39 0.31 0 7.1 350 1026.2 75 14.6
DallasTexas 12/22/2019 5:00 5.7 3.8 87.81 1.33 0 8.8 326 1026 65.5 13
DallasTexas 12/22/2019 6:00 5.2 3.7 90.41 3.83 0 3.7 348 1026.1 22.1 10.4
DallasTexas 12/22/2019 7:00 4.9 3.4 89.65 0.91 0 5.8 359 1026.3 26.7 10.4
DallasTexas 12/22/2019 8:00 4.4 3 90.76 0.89 0 0.7 355 1026.4 22.4 10.1
DallasTexas 12/22/2019 9:00 7.4 5 84.91 1.91 0 5.1 341 1026.8 31.7 10.9
DallasTexas 12/22/2019 10:00 8.9 4.8 75.41 1.65 0 6.3 352 1027.5 64.8 13.6
DallasTexas 12/22/2019 11:00 9.5 4.5 70.97 4.65 0 9.7 311 1027.4 66.4 14.4
DallasTexas 12/22/2019 12:00 10 4.5 68.46 12.11 0 10.8 311 1026.1 82 14.7
DallasTexas 12/22/2019 13:00 10.9 4.6 65.35 5.29 0 7.1 314 1024.3 21.9 15.9
DallasTexas 12/22/2019 14:00 11.9 4.9 62.11 5.73 0 9.3 293 1023.3 13.5 15.9
DallasTexas 12/22/2019 15:00 12.6 4.6 58.03 6.32 0 9.1 321 1022.5 13.5 15.9
DallasTexas 12/22/2019 16:00 12.9 4.4 56.22 4.13 0 10.3 292 1022.3 13.5 16
DallasTexas 12/22/2019 17:00 11.6 4.2 60.4 6.52 0 10.8 306 1022.2 13.5 16
DallasTexas 12/22/2019 18:00 9.5 4 68.92 3.66 0 8.6 317 1022.4 13.5 16
DallasTexas 12/22/2019 19:00 8.1 3.7 73.95 0 0 6.9 329 1022.5 13.5 15.7
DallasTexas 12/22/2019 20:00 7.7 3.6 75.25 0 0 2.6 333 1022.6 1.8 15.4
DallasTexas 12/22/2019 21:00 5.9 3 81.93 0 0 1.6 336 1022.1 4.6 14.6
DallasTexas 12/22/2019 22:00 5.1 2.8 84.93 0 0 1.7 346 1022 15.7 13.6
DallasTexas 12/22/2019 23:00 5.4 2.8 83.42 0 0 3.9 328 1022 13.5 12.8
DallasTexas 12/23/2019 0:00 3.5 1.8 88.36 0 0 2.1 332 1021.7 13.5 10.7
DallasTexas 12/23/2019 1:00 3.2 1.8 90.93 0 0 2 326 1021.2 13.7 9.4
DallasTexas 12/23/2019 2:00 2.7 1.2 89.83 0 0 1.4 331 1021.2 3.7 8.4
DallasTexas 12/23/2019 3:00 2.2 0.9 90.74 0.1 0 0.1 358 1020.8 9.1 7.5
DallasTexas 12/23/2019 4:00 2.8 1.3 89.93 0.11 0 5.8 290 1021.2 6.4 7.9
DallasTexas 12/23/2019 5:00 2 0.8 91.64 0 0 0.3 359 1020.9 23.8 4.8
DallasTexas 12/23/2019 6:00 1.1 0 92.66 20.16 0 0.3 359 1021 44.1 4.2
DallasTexas 12/23/2019 7:00 0.9 -0.3 91.71 0 0 0.1 358 1021.3 45 4.6
DallasTexas 12/23/2019 8:00 1.4 0.3 92.53 0.03 0 1.4 52 1021.5 29.8 5.7
DallasTexas 12/23/2019 9:00 4.9 3.6 91.69 1.8 0 0 0 1021.4 23.3 7.2
DallasTexas 12/23/2019 10:00 8.5 5.3 79.98 4.99 0 2.2 67 1022.1 17.3 9
DallasTexas 12/23/2019 11:00 12.2 5 61.18 1.98 0 5.9 248 1021.9 14.3 13.1
DallasTexas 12/23/2019 12:00 14.8 4.1 48.77 8.57 0 6.8 66 1020.7 19.1 13.7
DallasTexas 12/23/2019 13:00 16.7 3.9 42.41 3.41 0 4.2 299 1019.7 15.7 15.1
DallasTexas 12/23/2019 14:00 18.7 3.1 35.4 3.01 0 6.5 244 1018.6 24.7 16
DallasTexas 12/23/2019 15:00 18.9 2.4 33.38 11.49 0 3.4 91 1017.7 43.9 16
DallasTexas 12/23/2019 16:00 18.6 3 35.36 3.81 0 9.8 121 1017.6 43.9 16
DallasTexas 12/23/2019 17:00 17.2 3 38.64 6.59 0 6.9 106 1018 43.5 16
DallasTexas 12/23/2019 18:00 14.4 3.2 46.9 8.49 0 5.5 114 1017.8 43.1 16
DallasTexas 12/23/2019 19:00 12.1 3.1 54.3 0.33 0 5.6 117 1018.3 43.9 16
DallasTexas 12/23/2019 20:00 10.7 2.7 57.63 3.11 0 7.8 112 1018.8 43.9 16
DallasTexas 12/23/2019 21:00 10.3 2.3 57.71 3.69 0 6.4 132 1018.8 43.9 16
DallasTexas 12/23/2019 22:00 9.8 2.3 59.57 2.17 0 6.4 142 1018.6 43.9 16
DallasTexas 12/23/2019 23:00 8.9 2.1 62.61 0.77 0 3.7 325 1018.8 43.9 16
DallasTexas 12/24/2019 0:00 7.9 1.9 66.21 5.76 0 4.2 273 1018.5 43.9 16
DallasTexas 12/24/2019 1:00 7.2 1.9 68.91 1.5 0 3.2 284 1018.2 43.9 16
DallasTexas 12/24/2019 2:00 7.3 1.8 68.42 0.94 0 6.8 12 1017.8 43.9 16
DallasTexas 12/24/2019 3:00 7.8 1.8 65.7 7.82 0 6.6 349 1017.4 43.9 16
DallasTexas 12/24/2019 4:00 6 1.5 72.5 1.03 0 4.6 119 1017.2 43.9 16
DallasTexas 12/24/2019 5:00 5.2 1.2 75.58 1.27 0 7.2 85 1016.5 43.9 16
DallasTexas 12/24/2019 6:00 4.6 1.1 78.3 3.26 0 6.5 113 1016.7 43.9 15.9
DallasTexas 12/24/2019 7:00 6 1.8 74.35 3.25 0 8.1 111 1016.8 43.9 15.9
DallasTexas 12/24/2019 8:00 5.8 1.9 76.29 0.99 0 5 46 1017.6 43.9 15.6
DallasTexas 12/24/2019 9:00 9.3 3.6 67.34 4.91 0 4.1 327 1018.6 43.9 16
DallasTexas 12/24/2019 10:00 12.7 4.1 55.9 5.81 0 8.6 13 1019.2 43.9 16
DallasTexas 12/24/2019 11:00 16.8 4.1 42.83 4.25 0 13.7 179 1018.9 44.7 16
DallasTexas 12/24/2019 12:00 19 3.5 35.71 8.17 0 15.6 183 1017.6 44.7 16
DallasTexas 12/24/2019 13:00 20.2 2.3 30.52 3.11 0 14.9 201 1016.3 43.9 16
DallasTexas 12/24/2019 14:00 21 1.1 26.7 3.09 0 15.7 180 1014.9 43.9 16
DallasTexas 12/24/2019 15:00 21.7 0.7 24.81 6.07 0 17 161 1014 43.9 16
DallasTexas 12/24/2019 16:00 21.2 0.8 25.71 1.46 0 16.1 151 1013.7 43.9 16
DallasTexas 12/24/2019 17:00 19.4 1.8 30.78 3.15 0 14.2 147 1013.3 43.9 16
DallasTexas 12/24/2019 18:00 17.1 2.3 37.17 6.74 0 11.6 142 1013.3 27.2 16
DallasTexas 12/24/2019 19:00 15.6 3 42.85 0.09 0 12 149 1013.7 17.4 16
DallasTexas 12/24/2019 20:00 14.7 3.4 46.64 2 0 14.2 142 1013.1 17.4 16
DallasTexas 12/24/2019 21:00 13.4 3.4 50.94 3.81 0 10.4 152 1013.3 17.4 16
DallasTexas 12/24/2019 22:00 12.8 3.6 53.64 1.26 0 11.3 149 1013.5 15 16
DallasTexas 12/24/2019 23:00 13.1 3.8 53.49 0.02 0 13.4 156 1013.3 43.9 16
DallasTexas 12/25/2019 0:00 12.6 3.8 55 1.38 0 9.6 19 1013.2 43.9 16
DallasTexas 12/25/2019 1:00 12.2 3.8 56.8 3.3 0 9.6 360 1013.2 43.9 16
DallasTexas 12/25/2019 2:00 11.5 4 59.83 1.27 0 10.2 106 1013.2 43.9 16
DallasTexas 12/25/2019 3:00 10.9 4 62.65 3.61 0 8.8 18 1013.2 43.9 16
DallasTexas 12/25/2019 4:00 9.9 3.9 66.19 1.32 0 6.8 154 1012.9 43.9 16
DallasTexas 12/25/2019 5:00 9.6 3.9 67.39 2.3 0 11 105 1012.6 43.9 16
DallasTexas 12/25/2019 6:00 9.3 4.1 69.89 3.76 0 8.6 130 1012.6 43.9 15.9
DallasTexas 12/25/2019 7:00 8.8 4 71.9 0.47 0 8.6 152 1013.3 29.7 15.9
DallasTexas 12/25/2019 8:00 8.4 4.4 75.67 0.19 0 8.9 132 1013.6 29.7 15.8
DallasTexas 12/25/2019 9:00 11.1 5.8 69.81 7.04 0 10 7 1014.3 29.7 16
DallasTexas 12/25/2019 10:00 13.9 7.2 64.01 2.98 0 10.7 182 1014.8 19.1 16
DallasTexas 12/25/2019 11:00 17.1 7.4 52.84 2.66 0 9.6 270 1014.3 13.5 16
DallasTexas 12/25/2019 12:00 19.6 6.2 41.61 6.58 0 23.5 197 1013.3 13.5 16
DallasTexas 12/25/2019 13:00 20.6 6.4 39.46 1.97 0 18.4 185 1012.3 13.5 16
DallasTexas 12/25/2019 14:00 21.3 6.9 39.48 1.35 0 18.6 184 1011.6 13.5 16
DallasTexas 12/25/2019 15:00 21.3 7.5 41.01 3.92 0 18.3 173 1011.4 13.5 16
DallasTexas 12/25/2019 16:00 20.9 9.4 47.87 1.23 0 18.1 166 1011.6 13.5 16
DallasTexas 12/25/2019 17:00 19.7 9.5 51.82 0.39 0 17.4 164 1011.9 14.8 16
DallasTexas 12/25/2019 18:00 18.1 10.1 59.57 1.45 0 12.8 173 1012.5 19.8 16
DallasTexas 12/25/2019 19:00 17.1 11 67.46 2.13 0 15.6 14 1012.9 19.6 16
DallasTexas 12/25/2019 20:00 15.8 11.4 74.66 1.71 0 12.1 171 1013.3 13.5 16
DallasTexas 12/25/2019 21:00 15.3 11.4 77.19 7.92 0 8.4 197 1013.6 25.3 15.9
DallasTexas 12/25/2019 22:00 14.3 11.3 82.19 0.92 0 8.1 154 1013.9 25.5 15.8
DallasTexas 12/25/2019 23:00 14.1 11.1 81.82 3.12 0 8.9 321 1014.3 25.4 15.7
DallasTexas 12/26/2019 0:00 13.4 10.8 84.74 9.66 0 6.9 250 1014.1 17.4 13.7
DallasTexas 12/26/2019 1:00 12.9 10.9 87.88 3.49 0 9.2 117 1014.1 17.4 12.4
DallasTexas 12/26/2019 2:00 12.3 10.6 89.34 2.66 0 8 61 1014.3 32.1 10.9
DallasTexas 12/26/2019 3:00 12.3 10.6 89.44 6.79 0 8.9 37 1014.5 17.7 11.2
DallasTexas 12/26/2019 4:00 11.7 10.2 90.06 0.27 0 7.4 44 1014.8 24.7 10.8
DallasTexas 12/26/2019 5:00 11.3 9.8 90.54 0.37 0 6.7 141 1015 31.4 9.1
DallasTexas 12/26/2019 6:00 10.4 9 91.44 2.57 0 9 129 1014.9 40.7 6.8
DallasTexas 12/26/2019 7:00 10.4 9.1 91.48 1.46 0 9 145 1015.6 55.3 7.2
DallasTexas 12/26/2019 8:00 11.3 10.1 92.42 2.87 0 8.1 44 1015.9 67.3 5.5
DallasTexas 12/26/2019 9:00 12.7 11.2 90.05 5.09 0 7.5 73 1017.1 91.7 5.1
DallasTexas 12/26/2019 10:00 13.5 12.1 90.82 0.09 0 9.9 186 1018.2 100 4.8
DallasTexas 12/26/2019 11:00 14.9 12.8 87.31 0.46 0 9.3 186 1018.4 98.6 9.3
DallasTexas 12/26/2019 12:00 15.6 12.8 83.27 1.44 0 10.7 169 1017.8 100 11.9
DallasTexas 12/26/2019 13:00 17 13.4 79.36 5 0 7.8 204 1017.1 99.9 14.3
DallasTexas 12/26/2019 14:00 17.9 13.6 76.1 4.38 0 9.8 213 1016.5 97.9 14.4
DallasTexas 12/26/2019 15:00 18.5 13.6 73.1 5.58 0 6.6 244 1016.8 95 15.8
DallasTexas 12/26/2019 16:00 18.9 13.8 72.56 4.64 0 2.6 35 1016.9 67.5 16
DallasTexas 12/26/2019 17:00 18.6 13.8 73.76 7.95 0 6.6 96 1016.9 79.2 16
DallasTexas 12/26/2019 18:00 18 13.8 76.43 8.23 0 6.6 99 1017.4 96.5 16
DallasTexas 12/26/2019 19:00 17.4 13.4 77.23 3.99 0 9.3 111 1017.8 96 15.9
DallasTexas 12/26/2019 20:00 16.8 13.3 80.03 8.43 0 10.4 112 1018.4 96.4 15.9
DallasTexas 12/26/2019 21:00 16.1 13.1 82.58 3.8 0 8.5 133 1018.7 87.4 15.6
DallasTexas 12/26/2019 22:00 15.9 12.9 82.39 1.39 0 5.3 111 1019 89.1 15.1
DallasTexas 12/26/2019 23:00 15.4 12.8 84.41 3.62 0 5 132 1018.9 63.2 13.9
DallasTexas 12/27/2019 0:00 15.4 12.8 84.52 14.61 0 5.4 104 1018.7 63 13.1
DallasTexas 12/27/2019 1:00 14.9 12.5 85.84 0.39 0 6.7 106 1018.2 80.7 13.6
DallasTexas 12/27/2019 2:00 14.7 12.5 86.74 0 0 8.8 113 1018.3 63 12.3
DallasTexas 12/27/2019 3:00 14.3 12 85.94 0.42 0 7.6 93 1018.2 52.2 11.8
DallasTexas 12/27/2019 4:00 14.1 12.4 89.78 0.46 0 5.8 96 1018.4 70.8 12
DallasTexas 12/27/2019 5:00 14 12.2 88.78 1.03 0 4.8 86 1018.6 72.4 12.2
DallasTexas 12/27/2019 6:00 13.9 12 88.6 4.81 0 5.5 75 1018.5 86.2 11.8
DallasTexas 12/27/2019 7:00 13.5 11.7 88.73 1.67 0 5.6 81 1018.6 61.8 10.2
DallasTexas 12/27/2019 8:00 13.4 11.7 89.5 1.6 0 5.6 91 1019.2 84 10.4
DallasTexas 12/27/2019 9:00 14.6 12.3 86.42 2.66 0 8 104 1019.3 74.1 13
DallasTexas 12/27/2019 10:00 16.1 12.5 79.24 1.35 0 6.7 105 1019.5 67.6 15.5
DallasTexas 12/27/2019 11:00 17.9 12.6 71.29 2.47 0 8.4 79 1019 89 16
DallasTexas 12/27/2019 12:00 19.7 13.1 65.63 6.46 0 9.5 112 1017.5 50.1 16
DallasTexas 12/27/2019 13:00 20.7 12.4 59.15 3.57 0 15.7 121 1016.3 43 16
DallasTexas 12/27/2019 14:00 21.1 11.9 55.75 5.46 0 12.9 135 1015.3 68.4 16
DallasTexas 12/27/2019 15:00 21.4 11.4 52.84 13.1 0 13.5 114 1014.9 79.8 16
DallasTexas 12/27/2019 16:00 21.6 11.5 52.67 4.21 0 15.9 122 1014.3 63.6 16
DallasTexas 12/27/2019 17:00 21.2 11.6 54.34 2.04 0 13.8 131 1014.1 48.3 16
DallasTexas 12/27/2019 18:00 19.6 11.7 60.17 10.46 0 10.1 122 1013.6 37.6 16
DallasTexas 12/27/2019 19:00 18.6 12 65.21 1.36 0 14 131 1013.5 51.1 16
DallasTexas 12/27/2019 20:00 17.7 12.6 72.3 0.35 0 18.2 133 1013.6 37.4 16
DallasTexas 12/27/2019 21:00 17.3 13.2 76.71 8.49 0 18.1 135 1013.4 41 16
DallasTexas 12/27/2019 22:00 16.8 13.3 79.8 2.19 0 15.6 140 1013.4 46.2 16
DallasTexas 12/27/2019 23:00 16.7 13.5 81.4 3.22 0 12.9 149 1013.4 75.7 16
DallasTexas 12/28/2019 0:00 16.5 13.9 84.86 8.13 0 15 141 1012.6 46 15.9
DallasTexas 12/28/2019 1:00 16.1 14.3 88.94 1.96 0 17.6 134 1011.1 73.2 15.8
DallasTexas 12/28/2019 2:00 16.3 14.5 89.13 0.23 0 20.8 143 1010.4 93.7 13.2
DallasTexas 12/28/2019 3:00 16.5 14.6 88.2 5.11 0 18.7 148 1009.8 94.4 13.1
DallasTexas 12/28/2019 4:00 16.8 15.1 89.58 2.53 0 22.5 144 1009.6 99.6 13.3
DallasTexas 12/28/2019 5:00 16.8 15.1 89.4 3.63 0 16.8 142 1009.3 93.8 11.8
DallasTexas 12/28/2019 6:00 16.8 15.2 90.16 6.91 0 19.1 140 1008.5 99.6 9.3
DallasTexas 12/28/2019 7:00 16.9 15.7 92.49 1.72 0 15.4 163 1008.8 99.9 10.3
DallasTexas 12/28/2019 8:00 17 16 93.63 2.47 0 9.7 148 1009 81.2 2.5
DallasTexas 12/28/2019 9:00 17.1 16.1 93.86 4.78 0 11.1 140 1009.1 96.7 3.1
DallasTexas 12/28/2019 10:00 17.6 16.3 92.14 0.65 0 15.2 142 1008.4 93 9.1
DallasTexas 12/28/2019 11:00 17.7 16.7 93.82 1.49 0 15.7 153 1007.8 89.7 4.3
DallasTexas 12/28/2019 12:00 18.2 16.9 91.78 0.32 0 24 140 1004.3 92.6 14.6
DallasTexas 12/28/2019 13:00 18.8 16.9 88.63 0.02 0 20.6 164 1003.8 96.4 15.8
DallasTexas 12/28/2019 14:00 18.9 17.3 90.04 0.88 0 23.2 181 1003.4 77.1 6
DallasTexas 12/28/2019 15:00 18.7 17 89.59 1.51 0 21.5 183 1002.4 69.8 10.4
DallasTexas 12/28/2019 16:00 16 14.3 89.37 9.64 0 13.2 248 1004.3 74.5 14.7
DallasTexas 12/28/2019 17:00 16.2 13.7 85.14 0.18 0 10.1 241 1004.5 96.8 15.7
DallasTexas 12/28/2019 18:00 15.6 12.8 83.3 0.43 0 9.3 246 1005.5 90.7 15.8
DallasTexas 12/28/2019 19:00 14.9 12.4 84.78 0.1 0 8.2 191 1006 79.1 16
DallasTexas 12/28/2019 20:00 14.7 12 83.67 0 0 8.1 199 1006.9 73 16
DallasTexas 12/28/2019 21:00 14.2 11.6 84.24 0 0 6.6 200 1007.5 72.8 16
DallasTexas 12/28/2019 22:00 13.6 10.8 83.54 0 0 8.7 211 1007.8 42.4 16
DallasTexas 12/28/2019 23:00 12.9 10.8 87.17 0 0 4.5 277 1008.2 48.7 16
DallasTexas 12/29/2019 0:00 12.7 10.2 84.93 0 0 9.6 207 1008.2 32.5 16
DallasTexas 12/29/2019 1:00 11.9 9.7 86.39 0 0 8.3 249 1007.8 31.8 16
DallasTexas 12/29/2019 2:00 11.2 9.1 86.56 0 0 7.4 253 1007.5 48.7 16
DallasTexas 12/29/2019 3:00 10.5 8.2 85.76 0 0 4.2 307 1007.3 43.9 16
DallasTexas 12/29/2019 4:00 10.8 7.2 78.34 0 0 10.8 29 1008 40.3 16
DallasTexas 12/29/2019 5:00 10.9 6.6 74.92 0 0 9.1 274 1007.9 43.5 16
DallasTexas 12/29/2019 6:00 10.4 5.3 70.77 0 0 9.9 269 1008.7 64.1 16
DallasTexas 12/29/2019 7:00 9.6 4.2 68.92 0.01 0 17 292 1009 67.1 15.9
DallasTexas 12/29/2019 8:00 8.7 4.1 72.72 0.27 0 17.4 300 1010 73.6 15.9
DallasTexas 12/29/2019 9:00 7.8 4 76.89 0.19 0 20.7 312 1010.9 75.6 16
DallasTexas 12/29/2019 10:00 7.6 3.6 75.89 0.09 0 19.4 329 1011.7 77 16
DallasTexas 12/29/2019 11:00 7.8 3.9 76.59 0 0 22.5 310 1012.4 71.5 16
DallasTexas 12/29/2019 12:00 8.3 3.7 73.06 0 0 21 303 1011.6 62.7 16
DallasTexas 12/29/2019 13:00 8.6 2.9 67.48 0 0 24.5 293 1010.9 62.5 16
DallasTexas 12/29/2019 14:00 9.7 2.1 59.32 0 0 26.7 282 1011.3 54.4 16
DallasTexas 12/29/2019 15:00 10.3 0.9 52.01 0 0 23.7 281 1011.5 17.3 16
DallasTexas 12/29/2019 16:00 10.6 -0.6 45.93 0 0 25.1 296 1012.2 14.4 16
DallasTexas 12/29/2019 17:00 9.9 -1.2 45.86 0 0 20.3 289 1013.1 0 16
DallasTexas 12/29/2019 18:00 9 -1.3 48.43 0 0 15 294 1013.7 0 16
DallasTexas 12/29/2019 19:00 8.2 -1.4 50.91 0 0 14.1 281 1014.4 0 16
DallasTexas 12/29/2019 20:00 7.6 -1.2 53.47 0 0 11.7 276 1015.3 0 16
DallasTexas 12/29/2019 21:00 7.2 -1.6 53.63 0 0 10.5 267 1015.6 0 16
DallasTexas 12/29/2019 22:00 6.8 -1.8 54.45 0 0 10.3 258 1016.3 0 16
DallasTexas 12/29/2019 23:00 6.1 -1.3 58.81 0 0 10.8 268 1017.1 0 16
DallasTexas 12/30/2019 0:00 6.3 -2.3 54.15 0 0 13.9 283 1017 0 16
DallasTexas 12/30/2019 1:00 5 -2.4 58.92 0 0 9.4 268 1016.9 0 16
DallasTexas 12/30/2019 2:00 4.6 -2.5 60.15 0 0 10.4 254 1017.4 0 16
DallasTexas 12/30/2019 3:00 4.1 -2.4 62.48 0 0 10.5 280 1017.6 0 16
DallasTexas 12/30/2019 4:00 3.8 -2.9 61.68 0 0 8 307 1018 0 16
DallasTexas 12/30/2019 5:00 3.5 -3 62.82 0 0 12.3 307 1018 0 16
DallasTexas 12/30/2019 6:00 3.2 -3 63.44 0 0 13.1 304 1019 0 16
DallasTexas 12/30/2019 7:00 2.6 -3.1 66.53 0 0 11.7 295 1019.8 0 16
DallasTexas 12/30/2019 8:00 3.1 -3.2 63.12 0 0 11.1 289 1020.5 0 16
DallasTexas 12/30/2019 9:00 5.1 -3 55.88 0 0 13.8 290 1021.5 0 16
DallasTexas 12/30/2019 10:00 6.8 -2.7 50.64 0 0 20.1 306 1022.8 0 16
DallasTexas 12/30/2019 11:00 8.3 -3.1 44.26 0 0 19.8 298 1022.8 0 16
DallasTexas 12/30/2019 12:00 9.6 -3.2 40.33 0 0 18.3 297 1022 0 16
DallasTexas 12/30/2019 13:00 10.8 -3.4 36.65 0 0 21.6 298 1021.3 1.3 16
DallasTexas 12/30/2019 14:00 11.8 -3.5 34.1 0 0 19.3 307 1020.7 1.5 16
DallasTexas 12/30/2019 15:00 12.6 -3.5 32.39 0 0 22.5 297 1020.3 12.5 16
DallasTexas 12/30/2019 16:00 12.2 -4.6 30.78 0 0 20.7 302 1020.4 0 16
DallasTexas 12/30/2019 17:00 11.4 -5.3 30.54 0 0 18 306 1020.4 0 16
DallasTexas 12/30/2019 18:00 9.8 -5.2 34.23 0 0 11.4 291 1020.7 0 16
DallasTexas 12/30/2019 19:00 9.1 -5.1 36.53 0 0 7.7 284 1021.3 0 16
DallasTexas 12/30/2019 20:00 7.5 -4 43.86 0 0 11.9 311 1021.9 0 16
DallasTexas 12/30/2019 21:00 6.9 -4.3 44.6 0 0 10.4 305 1022.1 0 16
DallasTexas 12/30/2019 22:00 5.8 -4.2 48.76 0 0 8.1 294 1022.7 0 16
DallasTexas 12/30/2019 23:00 5.5 -3.9 50.92 0 0 3.7 318 1022.9 0 16
DallasTexas 12/31/2019 0:00 3.6 -2.9 62.54 0 0 4.4 292 1023.2 0 16
DallasTexas 12/31/2019 1:00 3.1 -3.4 62.53 0 0 4.9 322 1023 0 16
DallasTexas 12/31/2019 2:00 3.5 -3.3 61.1 0 0 9.6 322 1023.1 0 16
DallasTexas 12/31/2019 3:00 2.6 -3.7 63.29 0 0 7.3 324 1023.2 0 16
DallasTexas 12/31/2019 4:00 2.1 -4.1 63.58 0 0 1.5 348 1023.4 0 16
DallasTexas 12/31/2019 5:00 1.5 -3.8 67.7 0 0 3.2 323 1023.6 0 16
DallasTexas 12/31/2019 6:00 1.4 -3.8 68.01 0 0 3.8 313 1024.2 0 16
DallasTexas 12/31/2019 7:00 1.3 -3.5 70.46 0 0 6.3 261 1024.9 0 16
DallasTexas 12/31/2019 8:00 1.6 -4 66.6 0 0 5.7 282 1025.2 13.5 16
DallasTexas 12/31/2019 9:00 4.3 -3.3 57.7 0 0 7.2 281 1025.8 13.5 16
DallasTexas 12/31/2019 10:00 6.8 -3.3 48.26 0 0 5.1 320 1026.6 11.8 16
DallasTexas 12/31/2019 11:00 8.8 -5.4 36.21 0 0 3.8 326 1026.6 13.5 16
DallasTexas 12/31/2019 12:00 10.4 -5.6 31.97 0 0 7.9 313 1025.4 11.8 16
DallasTexas 12/31/2019 13:00 11.6 -5.9 28.88 0 0 9.4 315 1023.6 11.8 16
DallasTexas 12/31/2019 14:00 12.5 -6 26.99 0 0 9 316 1022.5 13.5 16
DallasTexas 12/31/2019 15:00 13.2 -6.2 25.44 0 0 9.5 310 1021.6 13.5 16
DallasTexas 12/31/2019 16:00 13 -6.9 24.37 0 0 3.1 311 1021.4 13.5 16
DallasTexas 12/31/2019 17:00 12.3 -6.4 26.57 0 0 0.6 358 1021.2 41.5 16
DallasTexas 12/31/2019 18:00 9.8 -4.1 37.49 0 0 2.9 66 1021 27.5 16
DallasTexas 12/31/2019 19:00 8 -3.3 44.75 0 0 4.2 77 1020.7 24.7 16
DallasTexas 12/31/2019 20:00 7.5 -3.3 46.32 0 0 6 111 1020.5 45.8 16
DallasTexas 12/31/2019 21:00 7.2 -3.9 45.14 0.23 0 7.1 118 1020.4 45.1 16
DallasTexas 12/31/2019 22:00 7 -4.1 44.96 0 0 6.2 131 1020.1 45.8 16
DallasTexas 12/31/2019 23:00 6.9 -4.2 45.13 0 0 7.1 17 1020 45.8 16
